State,District,Location,Longitude,Latitude
Bihar,Banka,Mirzapur,86.7606,25.0806
Bihar,Gaya,Akauna,84.7756,24.5756
Bihar,Gaya,Guraru,84.7836,24.8017
Bihar,Gaya,Sahora,85.2033,24.9439
Bihar,Gaya,Banke Bazar,84.6667,24.5169
Bihar,Gaya,Bhadeya,84.9536,24.5186
Bihar,Gaya,Dangra More,85.1141,24.9658
Bihar,Gaya,Bhalua,85.0119,24.9814
Bihar,Gaya,Bodh Gaya,85.3005,24.8985
Bihar,Gaya,Dobhi,84.9183,24.5319
Bihar,Gaya,Magra,84.4856,24.4336
Bihar,Gaya,Fatehpur,85.2292,24.6417
Bihar,Gaya,Chand Chowra Chowk,85.1141,24.9658
Bihar,Gaya,Ram Kund,85.0156,24.8117
Bihar,Gaya,Baseta,84.5358,24.4353
Bihar,Gaya,Tarapur,85.1141,24.9658
Bihar,Jamui,Lalmatia,86.31,24.9836
Bihar,Nalanda,Pawapuri,85.55,25.1
Bihar,Nalanda,Pilkhi,85.3875,25.0222
Bihar,Nalanda,Rajgir,85.4042,25.0208
Bihar,Nawada,Basantpur,85.5667,24.8125
Bihar,Nawada,Chandinama,85.6686,24.7508
Bihar,Nawada,Pakribrawan Pond,85.7408,24.9553
Bihar,Nawada,Garhpar,85.6708,24.8292
Bihar,Nawada,Gonama,85.6861,24.875
Bihar,Nawada,Shahpur Morh,85.4183,24.6503
Bihar,Nawada,Warsaliganj,85.5736,25.0247
Bihar,Seikhpura,Barbigha,85.855,25.07
Bihar,Seikhpura,Pharpar,85.9111,25.225
Bihar,Seikhpura,Ariari,85.9244,25.0836
Bihar,Seikhpura,Ambari,85.8597,25.0489
Bihar,Seikhpura,Keoti1,85.7958,25.2167
Bihar,Seikhpura,Koeri Bigha,85.7439,25.2172
Bihar,Seikhpura,Ghat Kusumba,85.7378,25.217
Bihar,Seikhpura,Ghat Kusumba,85.7378,25.2169
Bihar,Seikhpura,Seikhpura,85.7925,25.1703
Bihar,Seikhpura,Chewara,85.6994,25.14
Chhattisgarh,Janjgir Champa,Saliabhata,82.8477,22.0208
Chhattisgarh,Kanker,Govindpur,81.4833,20.2833
Chhattisgarh,Korba,Chaitama,82.4333,22.2775
Chhattisgarh,Koriya,Akhradand,82.2479,23.2041
Chhattisgarh,Koriya,Biharpur,82.243,23.4026
Chhattisgarh,Koriya,Manendragarh,82.2058,23.2167
Chhattisgarh,Koriya,Nagpur,82.3186,23.2817
Chhattisgarh,Mahasamund,Khallari,82.2972,21.0833
Chhattisgarh,Raigarh,Khadgaon,83.1167,22.3792
Chhattisgarh,Raigarh,Khadgaon,83.1167,22.3792
Chhattisgarh,Rajnandgaon,Govindpur,80.7017,21.0998
Chhattisgarh,Rajnandgaon,Uraidabritola,80.7381,21.0822
Chhattisgarh,Rajnandgaon,Khairagarh,80.9708,21.4333
Chhattisgarh,Surajpur,Majeera,82.9514,23.1482
Gujarat,Ahmedabad,Dhandhuka1,71.9877,22.3761
Gujarat,Ahmedabad,Tagadi1,71.9467,22.2971
Gujarat,Ahmedabad,Dalod,71.9675,23.3532
Gujarat,Ahmedabad,Viramgam2,72.0384,23.1367
Gujarat,Amreli,Punjapadar,71.3592,21.5305
Gujarat,Anand,Laxmipura,72.6103,22.4196
Gujarat,Anand,Dharmaj,72.7874,22.4207
Gujarat,Arvalli,Alwa Kampa,73.2083,23.2747
Gujarat,Banaskantha,Virmpur,72.6523,24.2664
Gujarat,Banaskantha,Ganapipli,72.9467,24.2936
Gujarat,Banaskantha,Gangodra,72.3647,24.4397
Gujarat,Banaskantha,Meda,72.2853,24.3979
Gujarat,Banaskantha,Dudhba,71.669,24.4794
Gujarat,Bhavnagar,Bora,71.8726,21.1629
Gujarat,Bhavnagar,Umrala,71.8026,21.846
Gujarat,Bhavnagar,Ayodhyapuram(Narayan Dham),71.8845,21.9522
Gujarat,Bhavnagar,Lonjdhara,71.8932,22.0964
Gujarat,Botad,Barvala,71.8942,22.1624
Gujarat,Chhota Udepur,Govindpura,73.74,22.2155
Gujarat,Chhota Udepur,Bhindol,73.8971,22.2011
Gujarat,Chhota Udepur,Moti Chikhali,74.0806,22.0152
Gujarat,Dahod,Dahod Urban-2,74.2667,22.8447
Gujarat,Dahod,Dahod2,74.2333,22.825
Gujarat,Devbhoomi Dwarka,Bhogat,69.2443,21.9905
Gujarat,Devbhoomi Dwarka,Gojines,69.2042,22.0246
Gujarat,Devbhoomi Dwarka,Navadra,69.2865,21.9399
Gujarat,Devbhoomi Dwarka,Korada,69.0479,22.2238
Gujarat,Devbhumi Dwarka,Bhatia,69.2688,22.0909
Gujarat,Devbhumi Dwarka,Kalyanpur,69.0542,22.3076
Gujarat,Devbhumi Dwarka,Vamansa,69.1887,22.084
Gujarat,Devbhumi Dwarka,Mojap,68.9796,22.3615
Gujarat,Devbhumi Dwarka,Samrasar1,69.1063,22.3699
Gujarat,Devbhumi Dwarka,Varwada,68.9615,22.2977
Gujarat,Gir Somnath,Dolasa,70.8472,20.8194
Gujarat,Gir Somnath,Una2,71.0416,20.8224
Gujarat,Jamnagar,Badanpar,70.3125,22.6875
Gujarat,Junagadh,Kalej,70.085,21.2496
Gujarat,Kachchh,Tera,68.9404,23.283
Gujarat,Kachchh,Kakarwa,70.4066,23.4799
Gujarat,Kachchh,Samakhiali,70.5041,23.3067
Gujarat,Kachchh,Haboi,69.8553,23.3551
Gujarat,Kachchh,Kotay,69.7847,23.3847
Gujarat,Kachchh,Sukhpar,69.6071,23.1987
Gujarat,Kachchh,Kotadi,69.1938,23.0466
Gujarat,Kachchh,Karagoga,69.6619,22.9381
Gujarat,Kachchh,Adesar,70.9597,23.5549
Gujarat,Mahesana,Kheralu-1,72.6075,23.8872
Gujarat,Morbi,Halvad2,71.1854,23.0196
Gujarat,Morbi,Jetpur Pithad,70.8947,23.0028
Gujarat,Narmada,Rasela,73.4917,21.925
Gujarat,Panchmahal,Ranipura,73.7583,22.725
Gujarat,Panchmahal,Khadki Vadiya,73.5003,22.6622
Gujarat,Patan,Balisana,72.2542,23.8144
Gujarat,Patan,Gochanad,71.6246,23.7713
Gujarat,Patan,Piprala,71.0967,23.6462
Gujarat,Porbandar,Kutiyana1,70.0113,21.6284
Gujarat,Porbandar,Khageshri,69.9835,21.7517
Gujarat,Porbandar,Kolikhada Village?2,69.6368,21.6816
Gujarat,Porbandar,Visavada,69.4538,21.7752
Gujarat,Rajkot,Ganod,70.1693,21.6888
Gujarat,Rajkot,Upleta1,70.252,21.7295
Gujarat,Sabarkantha,Gadha1,72.9417,23.7083
Gujarat,Sabarkantha,Sakrodiya,73.048,23.5454
Gujarat,Sabarkantha,Bhadreshwar(Daramli),72.9792,23.7458
Gujarat,Sabarkantha,Revas,73.1167,23.8208
Gujarat,Sabarkantha,Sabalwad,72.9631,23.8742
Gujarat,Sabarkantha,Hingatiya,73.0106,24.1466
Gujarat,Sabarkantha,Harsol1,73.0167,23.3778
Gujarat,Sabarkantha,Kesarpura(Mayal),72.9489,23.3222
Gujarat,Sabarkantha,Umedpura,72.9644,23.3036
Gujarat,Sabarkantha,Hatharva,72.9857,23.945
Gujarat,Surat,Ten-Bardoli,73.1003,21.1155
Gujarat,Surat,Olpad2,72.7537,21.3371
Gujarat,Surat,Wadoli,72.8316,21.4299
Gujarat,Surendranagar,Malvan,71.7504,23.0614
Gujarat,Surendranagar,Ratanpur1,71.2747,22.8555
Gujarat,Surendranagar,Gangad,71.9733,22.9493
Gujarat,Surendranagar,Choraniya,71.8509,22.572
Gujarat,Surendranagar,Muli,71.4644,22.639
Gujarat,Surendranagar,Dhajala,71.398,22.3807
Gujarat,Surendranagar,Piprali,71.3117,22.3953
Gujarat,Surendranagar,Surendranagar2,71.6167,22.7176
Gujarat,Surendranagar,Vadod,71.6524,22.5592
Gujarat,Surendranagar,Vaghela,71.6572,22.6577
Gujarat,Vadodara,Vejpur2,73.3539,22.7435
Gujarat,Vadodara,Juna Samalya,73.2742,22.5041
Gujarat,Vadodara,Ongc,73.207,22.2763
Gujarat,Vadodara,Saidal,73.5043,22.2789
Himachal Pradesh,Sirmour,Trilokpur,77.2033,30.54
Himachal Pradesh,Una,Rajli Panjal,76.405,31.5364
Jharkhand,Bokaro,Chandrapura,86.1185,23.7514
Jharkhand,Chatra,Gidhaur,85.0247,24.1757
Jharkhand,Chatra,Lohsinghna Khurd,84.8025,24.3459
Jharkhand,Dhanbad,Govindpur,86.5238,23.8311
Jharkhand,Godda,Kumardih,87.207,24.788
Jharkhand,Godda,Maheshpur,87.2895,24.7998
Jharkhand,Koderma,Karcheta,85.787,24.6649
Jharkhand,Latehar,Baresad(Lalmatia),84.141,23.593
Jharkhand,Palamu,Nawadih1,84.1228,24.1297
Jharkhand,Ramgarh,Dulmi,85.6026,23.5306
Jharkhand,Ramgarh,Sirka,85.4405,23.643
Kerala,Palakkad,Nadupuni,76.8772,10.7294
Maharashtra,Akola,Borgaon Manju,77.1278,20.7333
Maharashtra,Bhandara,Shrinagar,79.6764,21.0403
Maharashtra,Bhandara,Khair Langi,79.7844,21.4092
Maharashtra,Bhandara,Landejhari,79.5733,21.48
Maharashtra,Bhandara,Paunarkhairi,79.7047,21.535
Maharashtra,Buldhana,Rajur,76.1781,20.6042
Maharashtra,Chandrapur,Chichpalli,79.4861,20.0003
Maharashtra,Chandrapur,Kawadsi,79.4917,20.5833
Maharashtra,Chandrapur,Sawali,79.7833,20.0833
Maharashtra,Chandrapur,Rajura-1,79.3714,19.7858
Maharashtra,Chandrapur,Alesur,79.5644,20.3728
Maharashtra,Chandrapur,Ladbori,79.6308,20.3125
Maharashtra,Chandrapur,Sakhri,79.8892,19.9986
Maharashtra,Chandrapur,Wahangaon,79.2336,20.4836
Maharashtra,Chandrapur,Wandhali-1,78.8864,20.2972
Maharashtra,Gadchiroli,Allapalli,80.0667,19.4333
Maharashtra,Gadchiroli,Chamorshi,79.8833,19.9333
Maharashtra,Gadchiroli,Chaudampalli,79.85,19.6
Maharashtra,Hingoli,Hingoli-1,77.1514,19.7086
Maharashtra,Hingoli,Sawad,77.0525,19.7372
Maharashtra,Nandurbar,Shahada-1,74.4761,21.5272
Maharashtra,Osmanabad,Kukadgaon_1,75.4667,18.4922
Maharashtra,Osmanabad,Tuljapur-3,76.0856,18.0014
Maharashtra,Parbhani,Dharmapur,76.7508,19.2964
Maharashtra,Parbhani,Jhari-1,76.7658,19.4264
Maharashtra,Parbhani,Karegaon,76.8225,19.2661
Maharashtra,Parbhani,Pangri,76.6942,19.5625
Maharashtra,Parbhani,Wadgaon Sukre,76.6525,19.1383
Maharashtra,Parbhani,Loni,76.4067,19.1547
Maharashtra,Yavatmal,Bhandewada,78.8936,20.1261
Odisha,Anugul,Bantala,85.0631,20.7431
Odisha,Anugul,Bagharia,84.8158,21.1069
Odisha,Anugul,Durgapur 1,84.8828,20.9181
Odisha,Anugul,Sendhogram,85.2333,20.9256
Odisha,Balangir,Agalpur 1,83.4069,21.0122
Odisha,Balangir,Pudapalli,83.5208,20.6797
Odisha,Balangir,Fattamunda,83.1089,20.5358
Odisha,Balangir,Burda,83.5142,20.8747
Odisha,Balangir,Muribahal,83.0125,20.3847
Odisha,Balangir,Ampali (Rampur Ampali),83.1508,20.7067
Odisha,Balangir,Banjari,83.0853,20.7092
Odisha,Balangir,Sarmohan-I,83.2222,20.7161
Odisha,Balangir,Dumerbahal,83.6236,20.745
Odisha,Balangir,Kholan,83.0775,20.2325
Odisha,Balangir,Kurli,82.92,20.4917
Odisha,Bargarh,Burda,83.7625,21.2417
Odisha,Bargarh,Hirapur,82.8189,20.9639
Odisha,Jharsuguda,Lakhanpur,83.7736,21.7611
Odisha,Nayagarh,Nuagaon1,84.9728,20.2528
Odisha,Nuapada,Bargaon-K,82.6958,20.3403
Odisha,Nuapada,Chanabeda,82.4558,20.1758
Odisha,Nuapada,Sarabong,82.4689,20.8111
Odisha,Puri,P-32 Gobardhan Matha,85.7833,19.7953
Odisha,Sambalpur,Bhabanipali,84.0694,21.3767
Odisha,Sambalpur,Jhargulanda 1,84.1014,21.4206
Odisha,Sambalpur,Padiabahal,84.1492,21.45
Odisha,Sonapur,Ankhidadar,83.8161,21.0944
Odisha,Sundargarh,R-06 Basanti Colony,84.8383,22.2375
Rajasthan,Ajmer,Baglias,74.2,25.908
Rajasthan,Ajmer,Bogla,75.233,25.89
Rajasthan,Ajmer,Ludiyana,74.583,25.997
Rajasthan,Ajmer,Masuda1,74.513,26.092
Rajasthan,Ajmer,Mangaliyawas,74.508,26.277
Rajasthan,Ajmer,Kanpura1,74.867,26.4
Rajasthan,Alwar,Bolni,76.796,27.866
Rajasthan,Alwar,Reni,76.7389,27.1775
Rajasthan,Banswara,Maudi Maska,74.31,23.15
Rajasthan,Banswara,Bagidora,74.267,23.404
Rajasthan,Banswara,Banswara1,74.45,23.533
Rajasthan,Banswara,Padla Barora,74.519,23.536
Rajasthan,Banswara,Charakni,74.38,23.313
Rajasthan,Banswara,Chota Dungra,74.29,23.172
Rajasthan,Barmer,Bhadka,71.35,25.8833
Rajasthan,Barmer,Koloo,71.713,26.0274
Rajasthan,Barmer,Sawau Padam Singh,71.8067,26.1503
Rajasthan,Barmer,Thob(Hs-1),72.3758,26.0136
Rajasthan,Barmer,Dhorimana,71.4352,25.2344
Rajasthan,Barmer,"Hotel Sanchal Fort, Mahabar",71.4066,25.7057
Rajasthan,Barmer,Dhanau,71.1339,25.2343
Rajasthan,Barmer,Siyagatala,70.8653,25.3375
Rajasthan,Barmer,"Gaushala, Nerinadi",71.406,25.2229
Rajasthan,Barmer,Gadra Road,70.639,25.74
Rajasthan,Barmer,Panchla,70.167,25.992
Rajasthan,Barmer,Gudamalani,71.6988,25.214
Rajasthan,Barmer,"Rathoro Ki Dhani, Gudamalani",71.7031,25.2121
Rajasthan,Barmer,Doli,72.667,26.067
Rajasthan,Barmer,Thob,72.358,26.05
Rajasthan,Barmer,Thoombli,72.489,26.204
Rajasthan,Barmer,Ramsar,70.8719,25.7303
Rajasthan,Barmer,Bisukalan,71.278,26.241
Rajasthan,Barmer,Gujro Ka Bera,71.556,26.338
Rajasthan,Barmer,Loonakalan,71.9829,25.4481
Rajasthan,Barmer,Bhoginji Ka Meetha,72.1242,25.5269
Rajasthan,Barmer,Samdari(Hs),72.5869,25.8182
Rajasthan,Barmer,Samdari(Hs-4),72.5757,25.8489
Rajasthan,Bharatpur,Kheria Mod,77.383,26.95
Rajasthan,Bharatpur,Deeg1,77.333,27.467
Rajasthan,Bharatpur,Mandhera,77.353,27.395
Rajasthan,Bharatpur,Kaman,77.2697,27.6572
Rajasthan,Bharatpur,Nadbai,77.213,27.208
Rajasthan,Bharatpur,Nagar,77.1,27.417
Rajasthan,Bhilwara,Asind,74.3347,25.7328
Rajasthan,Bhilwara,Jeewaliya,74.508,25.544
Rajasthan,Bhilwara,Raila Road,74.6,25.633
Rajasthan,Bhilwara,Bhagwanpura,74.4424,25.5263
Rajasthan,Bhilwara,Mandal,74.5693,25.4533
Rajasthan,Bikaner,Lakhusar,73.192,28.317
Rajasthan,Bikaner,Kolayat,72.954,27.842
Rajasthan,Bikaner,Ranjitpura,72.125,28.026
Rajasthan,Bikaner,1Lkd,73.855,28.6031
Rajasthan,Bikaner,264Rd,73.7738,28.5619
Rajasthan,Bikaner,Arjansar,73.883,28.933
Rajasthan,Bikaner,Hariasar,73.811,28.576
Rajasthan,Bikaner,Kasturia,73.488,28.329
Rajasthan,Bikaner,Loderan,73.9108,28.2811
Rajasthan,Bikaner,Malkisar,73.919,28.667
Rajasthan,Bikaner,Sangrew,73.8833,28.7
Rajasthan,Bundi,Delunda,75.867,25.471
Rajasthan,Bundi,Keshoraipatan,75.931,25.319
Rajasthan,Bundi,Maija,75.888,25.408
Rajasthan,Chittaurgarh,Purohitokasavat,74.52,24.94
Rajasthan,Chittaurgarh,Mungana,74.27,24.88
Rajasthan,Churu,Jawanipur,75.04,28.52
Rajasthan,Churu,Shyampura,74.89,28.27
Rajasthan,Churu,Sirsali,75.13,28.46
Rajasthan,Churu,Dadrewa,75.233,28.669
Rajasthan,Churu,Gagor,75.34,28.6
Rajasthan,Churu,Jaswantpura,75.45,28.44
Rajasthan,Churu,Lambor Chhoti,75.41,28.59
Rajasthan,Churu,Ludi Jhandar,75.43,28.66
Rajasthan,Churu,Neema,75.4722,28.4667
Rajasthan,Churu,Rajgarh1,75.375,28.633
Rajasthan,Churu,Rebari Bas,75.48,28.49
Rajasthan,Churu,Jeevan Desar,74.53,28.4
Rajasthan,Churu,Mehrasar,74.5375,28.3572
Rajasthan,Churu,Ranasar Beekan,74.54,28.32
Rajasthan,Churu,Sajansar,74.51,28.37
Rajasthan,Churu,Melusar,74.738,28.504
Rajasthan,Churu,Sardarshahar,74.486,28.439
Rajasthan,Churu,Sujangarh,74.4808,27.7069
Rajasthan,Churu,Shawa,74.842,28.875
Rajasthan,Churu,Taranagar,75.0342,28.6879
Rajasthan,Dausa,Bapi,76.292,26.975
Rajasthan,Dausa,Jasuta Hs 3,76.3256,26.9617
Rajasthan,Dhaulpur,Saipau,77.746,26.822
Rajasthan,Dungarpur,Ramgarh2,73.967,23.925
Rajasthan,Ganganagar,Khal,73.367,29.083
Rajasthan,Ganganagar,Suranwali,73.917,29.696
Rajasthan,Ganganagar,Birdhwal1,73.919,29.117
Rajasthan,Ganganagar,Piperan,73.9,29.248
Rajasthan,Hanumangarh,Bhadra,75.1622,29.1176
Rajasthan,Hanumangarh,Dungrana,75.097,29.014
Rajasthan,Hanumangarh,Panditawali,74.2,29.4101
Rajasthan,Hanumangarh,Sangariya,74.4636,29.8123
Rajasthan,Jaipur,Tootoli,75.7994,26.6342
Rajasthan,Jaipur,Mozmabad,75.363,26.683
Rajasthan,Jaipur,Nasnota,75.443,26.8
Rajasthan,Jaipur,Pallukhurd,75.325,26.736
Rajasthan,Jaipur,Bhojpura,75.614,26.622
Rajasthan,Jaipur,Chakwara,75.513,26.606
Rajasthan,Jaipur,Dawach,75.763,26.568
Rajasthan,Jaipur,Dawach,75.754,26.567
Rajasthan,Jaipur,Dawach,75.7636,26.5641
Rajasthan,Jaipur,Didawata (Near Pz),75.73,26.4939
Rajasthan,Jaipur,Didawata (Sedriya),75.73,26.4939
Rajasthan,Jaipur,Didwata,75.73,26.494
Rajasthan,Jaipur,Lasariya,75.509,26.557
Rajasthan,Jaipur,Madhorajpur,75.656,26.577
Rajasthan,Jaipur,Majhi Renwal,75.683,26.696
Rajasthan,Jaipur,Sambhar,75.2191,26.885
Rajasthan,Jaipur,Sambhar,75.2024,26.899
Rajasthan,Jaisalmer,Baishakhi,70.9,27.033
Rajasthan,Jaisalmer,Chandan,71.3,26.992
Rajasthan,Jaisalmer,Chodhariya,70.926,27.1
Rajasthan,Jaisalmer,Sataya_Dw,71.659,27.42
Rajasthan,Jaisalmer,Kodiyasar,71.275,26.483
Rajasthan,Jaisalmer,Longewala,70.162,27.525
Rajasthan,Jaisalmer,Rama1,71.05,26.55
Rajasthan,Jaisalmer,Janpatpura,71.6896,26.6985
Rajasthan,Jaisalmer,Badli (Pokaran Gramin),71.8656,26.8685
Rajasthan,Jaisalmer,Guddi,71.7755,26.7883
Rajasthan,Jaisalmer,Kalewa,71.904,26.806
Rajasthan,Jaisalmer,Lawan,72.05,26.872
Rajasthan,Jaisalmer,Luna Kalan,71.571,26.623
Rajasthan,Jaisalmer,Rajgarh1,71.545,26.538
Rajasthan,Jaisalmer,That,71.825,26.8539
Rajasthan,Jalore,Nimba (H/S),72.8664,25.5308
Rajasthan,Jalore,Bhagal Bhim (H/S),72.2227,25.0188
Rajasthan,Jalore,Bhagalbhim,72.2227,25.0188
Rajasthan,Jalore,Bhinmal,72.2625,25.0125
Rajasthan,Jalore,Khanpur,72.3538,25.0303
Rajasthan,Jalore,Narta,72.2748,25.0883
Rajasthan,Jalore,Pradhan Ki Dhani,72.2,25.0314
Rajasthan,Jalore,Doongri,71.408,24.942
Rajasthan,Jalore,Jalore,72.6306,25.3346
Rajasthan,Jalore,Jalore (H/S),72.6309,25.3329
Rajasthan,Jalore,Jaswantpura,72.4512,24.8176
Rajasthan,Jalore,Dhanawara,72.2022,24.9675
Rajasthan,Jalore,Maitriwara,72.1094,24.7094
Rajasthan,Jalore,Sanchore (H/S),71.7805,24.7524
Rajasthan,Jalore,"Temple, Sanchore-Barmer Highway",71.78,25.774
Rajasthan,Jhalawar,Karvan Kala,75.833,24.178
Rajasthan,Jhunjhunu,Alsisar,75.2931,28.3037
Rajasthan,Jhunjhunu,Bhara Ks Bas,75.32,28.31
Rajasthan,Jhunjhunu,Birmi,75.196,28.196
Rajasthan,Jhunjhunu,Ghasi Ram Ka Bas,75.3,28.29
Rajasthan,Jhunjhunu,Kankaru Khurd,75.34,28.31
Rajasthan,Jhunjhunu,Rampura,75.31,28.26
Rajasthan,Jhunjhunu,Amirwas,75.15,28.19
Rajasthan,Jhunjhunu,Kabilsar,75.18,28.19
Rajasthan,Jhunjhunu,Rahida Stand,75.23,28.17
Rajasthan,Jhunjhunu,Chirawa,75.6504,28.2309
Rajasthan,Jhunjhunu,Mandrela,75.44,28.313
Rajasthan,Jhunjhunu,Nawalgarh,75.2533,27.8472
Rajasthan,Jodhpur,Kui Jodha,72.471,26.443
Rajasthan,Jodhpur,Gangani,73.212,26.51
Rajasthan,Jodhpur,Gangani(Hs-1),73.2059,26.4929
Rajasthan,Jodhpur,Gangani(Hs-2),73.2003,26.4868
Rajasthan,Jodhpur,Bhopalgarh Block Hq,73.4984,26.6475
Rajasthan,Jodhpur,Devatra,73.378,26.51
Rajasthan,Jodhpur,Kumara,73.538,26.738
Rajasthan,Jodhpur,Ramdawas,73.3658,26.3658
Rajasthan,Jodhpur,Ramrawas(Hs-2)Khedi Salva,73.3474,26.4281
Rajasthan,Jodhpur,Ramrawas(Hs-3),73.3712,26.4368
Rajasthan,Jodhpur,Artiya Kalla,73.4073,26.5494
Rajasthan,Jodhpur,Godawas,73.3744,26.5424
Rajasthan,Jodhpur,Nandiya,73.3498,26.5143
Rajasthan,Jodhpur,Bhavi,73.6067,26.2317
Rajasthan,Jodhpur,Bhavi (Hs-3)Olvi,73.4547,26.2226
Rajasthan,Jodhpur,Bhavi(Hs-1)Lamba,73.5777,26.2139
Rajasthan,Jodhpur,Bhavi(Hs-2),73.6078,26.2181
Rajasthan,Jodhpur,Bhawi,73.607,26.232
Rajasthan,Jodhpur,Borunda,73.7958,26.4692
Rajasthan,Jodhpur,Olvi,73.458,26.233
Rajasthan,Jodhpur,Jasnath Nagar,72.7679,26.3261
Rajasthan,Jodhpur,Lordi,72.8343,26.3106
Rajasthan,Jodhpur,Bhandu(Hs),72.894,26.0971
Rajasthan,Jodhpur,Bhandu(Hs-1),72.8959,26.1172
Rajasthan,Jodhpur,Bhandu(Hs-2),72.9107,26.0885
Rajasthan,Jodhpur,Chicharli,72.7128,26.2042
Rajasthan,Jodhpur,Deela,73.0651,26.104
Rajasthan,Jodhpur,Dhawa,72.742,26.058
Rajasthan,Jodhpur,Gelawas,72.7789,26.0671
Rajasthan,Jodhpur,Guda Rayka,73.0937,26.1323
Rajasthan,Jodhpur,Jatyasani,72.844,26.106
Rajasthan,Jodhpur,Kuri,73.0634,26.2088
Rajasthan,Jodhpur,Manj Form House,73.0481,26.1603
Rajasthan,Jodhpur,Mogra,73.033,26.117
Rajasthan,Jodhpur,Pariharon Ki Dhani,72.7492,26.1375
Rajasthan,Jodhpur,Raron Ki Dhani,72.775,26.194
Rajasthan,Jodhpur,Salawas,73.0136,26.1427
Rajasthan,Jodhpur,Dangiwas,73.274,26.267
Rajasthan,Jodhpur,Karani,72.825,26.272
Rajasthan,Jodhpur,Salodi,72.849,26.413
Rajasthan,Jodhpur,Phalodi,72.3783,27.1225
Rajasthan,Jodhpur,Pipad City,73.5497,26.3792
Rajasthan,Jodhpur,Ramrawas,73.38,26.369
Rajasthan,Jodhpur,Kumaro Ki Dhani,72.2,26.333
Rajasthan,Jodhpur,Shergarh,72.2794,26.3198
Rajasthan,Karauli,Hindaun,77.033,26.733
Rajasthan,Karauli,Islampur,77.017,26.7
Rajasthan,Nagaur,Datau,74.4567,27.4906
Rajasthan,Nagaur,Chosli,74.255,26.93
Rajasthan,Nagaur,Chosli Hs-2,74.2636,26.9337
Rajasthan,Nagaur,Chosli Hs-4,74.1711,27.008
Rajasthan,Nagaur,Chosli(Hs-1)Langod,74.2828,26.914
Rajasthan,Nagaur,Chosli(Khinwtana)Hs-3,74.1907,26.9916
Rajasthan,Nagaur,Degana,74.3547,26.8181
Rajasthan,Nagaur,Chhoti Khatu,74.346,27.154
Rajasthan,Nagaur,Jayal-Hs-3(Gujaria Bas),74.1924,27.2355
Rajasthan,Nagaur,Kheevsar Block Hq,73.414,26.9647
Rajasthan,Nagaur,Ladnu            Block Hq,74.3908,27.6296
Rajasthan,Nagaur,Makrana,74.7574,27.0256
Rajasthan,Nagaur,Dagawas Block Hq,74.058,26.6458
Rajasthan,Nagaur,Dangawas(H,74.0611,26.6375
Rajasthan,Nagaur,Dangawas(Hs-2)Pratap Krishi Farm,74.0642,26.2392
Rajasthan,Nagaur,Dangawas(Hs-3),74.0701,26.6214
Rajasthan,Nagaur,Dangawas(Hs-4),74.0549,26.6318
Rajasthan,Nagaur,Mundawa Block Hq,73.82,27.058
Rajasthan,Nagaur,Mundwa,73.7902,27.0313
Rajasthan,Nagaur,Nagaur,73.75,27.1833
Rajasthan,Nagaur,Nagaur Hs-2(Gogelao),73.6742,27.2321
Rajasthan,Nagaur,Nagaur Hs-3,73.78,27.2268
Rajasthan,Nagaur,Nagaur Hs-4,73.7037,27.1976
Rajasthan,Nagaur,Nagaur1 (Gwd),73.75,27.183
Rajasthan,Nagaur,Bagot(Hs-3),74.5942,26.8019
Rajasthan,Nagaur,Bagot1,74.583,26.817
Rajasthan,Nagaur,Rian,74.25,26.533
Rajasthan,Pali,Radawas,73.292,25.183
Rajasthan,Pali,Ghanerao,73.525,25.233
Rajasthan,Pali,Bassi,74.0631,26.3294
Rajasthan,Pali,Prithipura,73.817,26.2
Rajasthan,Pali,Prithivipura(Hs-3),73.8052,26.2031
Rajasthan,Pali,Prithvipura,73.8167,26.2
Rajasthan,Pali,Marwar Junction Block Hq,73.601,25.723
Rajasthan,Pali,Gundoj,73.313,25.608
Rajasthan,Pali,Rani,73.3158,25.3425
Rajasthan,Pali,"Shiv Vatika Colony, Vaed",72.9634,25.7432
Rajasthan,Pali,Kariasoda,73.638,25.833
Rajasthan,Pali,Sojat Block Hq,73.6698,25.9283
Rajasthan,Pali,Sumerpur,73.0907,25.1437
Rajasthan,Pratapgarh,Choti Sadri,74.7,24.386
Rajasthan,Rajsamand,Bhim,74.0792,25.7433
Rajasthan,Rajsamand,Ghata,74.183,25.783
Rajasthan,Rajsamand,Thikarwas,73.98,25.6
Rajasthan,Rajsamand,Khamnor1,73.733,24.917
Rajasthan,Rajsamand,Kheti Khera (Dhaneriya),74.0971,24.8708
Rajasthan,Sawai Madhopur,Bamnawas,76.561,26.55
Rajasthan,Sawai Madhopur,Bhadoti,76.386,26.253
Rajasthan,Sawai Madhopur,Tond,76.397,26.367
Rajasthan,Sawai Madhopur,Tond (1Km Towards Lalsot),76.38,26.37
Rajasthan,Sawai Madhopur,Kushtala,76.267,25.967
Rajasthan,Sikar,Khandela,75.4992,27.5978
Rajasthan,Sirohi,Manpur,72.7592,24.5044
Rajasthan,Sirohi,Mount Abu,72.7102,24.5918
Rajasthan,Sirohi,Virwara,72.988,24.841
Rajasthan,Sirohi,Jeerawal,72.4917,24.6389
Rajasthan,Sirohi,Ambeshwarji,72.892,24.956
Rajasthan,Sirohi,Palri M,72.925,25.015
Rajasthan,Sirohi,Palri1,72.928,25.014
Rajasthan,Sirohi,Kalandri,72.688,24.925
Rajasthan,Tonk,Deoli,75.85,26.2417
Rajasthan,Tonk,Jaisinghpur,75.498,26.409
Rajasthan,Tonk,Malpura1,75.383,26.283
Rajasthan,Tonk,Ghans,75.8839,25.9325
Rajasthan,Tonk,Mehndwas,75.725,26.111
Rajasthan,Udaipur,Chirwa,73.75,24.7
Rajasthan,Udaipur,Semari,73.85,24.065
Tamil Nadu,Ariyalur,V.Ramanapuram Ow,79.1096,11.1754
Tamil Nadu,Chennai,Besant Nagar,80.27,13.0014
Tamil Nadu,Coimbatore,Anaimalaipz,77.0594,10.5097
Tamil Nadu,Coimbatore,P.N.Palayam,76.9922,11.2069
Tamil Nadu,Coimbatore,Kovilvazhi Iv,77.3889,11.0583
Tamil Nadu,Coimbatore,Vadavalli,76.9083,11.025
Tamil Nadu,Cuddalore,Teerthanagiri,79.679,11.5693
Tamil Nadu,Cuddalore,Tekkumellur (Therkumelur),79.5277,11.5894
Tamil Nadu,Cuddalore,Thaiyalkunapattinam,79.6832,11.5703
Tamil Nadu,Cuddalore,Theerthangari Ew,79.5563,11.5604
Tamil Nadu,Cuddalore,Vadalur(O.W),79.5542,11.5687
Tamil Nadu,Dharmapuri,Mukkareddipatti,78.4167,11.9667
Tamil Nadu,Dharmapuri,Nagadasampatti,77.9833,12.1333
Tamil Nadu,Dindigul,Chitterivu Pz,77.7708,10.2378
Tamil Nadu,Dindigul,Nandavanampatti,77.9853,10.3756
Tamil Nadu,Dindigul,Vadamadurai Pz,78.0612,10.263
Tamil Nadu,Dindigul,Palani2,77.5125,10.4333
Tamil Nadu,Dindigul,Pallapatti,77.5457,10.0805
Tamil Nadu,Dindigul,Thoppampatti,77.5269,10.59
Tamil Nadu,Erode,Murlipudur,77.656,11.6781
Tamil Nadu,Erode,Kolathupalayam,77.5842,10.7639
Tamil Nadu,Erode,Papayampudur,77.4678,10.6567
Tamil Nadu,Erode,Molengkuttipalayam,77.7022,11.0672
Tamil Nadu,Erode,Unjalur,77.875,11.125
Tamil Nadu,Erode,Indiampalayam,77.2694,11.45
Tamil Nadu,Erode,Kathampalayam Pz,77.2411,11.4256
Tamil Nadu,Karur,Thogamalai,78.425,10.7292
Tamil Nadu,Krishnagiri,Mallapadi,78.3752,12.5344
Tamil Nadu,Krishnagiri,Billanakuppam,78.1853,12.0626
Tamil Nadu,Krishnagiri,Tattarhalli,78.2458,12.3408
Tamil Nadu,Krishnagiri,Unichetty,77.8505,12.437
Tamil Nadu,Krishnagiri,Machinkanakottai,78.1708,12.4131
Tamil Nadu,Krishnagiri,Sulagiri,78.025,12.6667
Tamil Nadu,Krishnagiri,Udhanapalli,77.9395,12.6103
Tamil Nadu,Krishnagiri,Virupakshinagar,77.8681,12.5933
Tamil Nadu,Krishnagiri,Uttangarai,78.5292,12.2667
Tamil Nadu,Krishnagiri,Vanambli,78.555,12.3475
Tamil Nadu,Krishnagiri,Guruparapalli,78.1331,12.5974
Tamil Nadu,Madurai,Kolluveeranpatti Pz,77.5308,9.4225
Tamil Nadu,Madurai,Chellampatti,77.5346,9.5638
Tamil Nadu,Namakkal,Semmadaipalayam,77.9344,11.1472
Tamil Nadu,Namakkal,Velur,78.0033,11.1083
Tamil Nadu,Namakkal,Ezhur-Olapalayam D,78.1192,11.3658
Tamil Nadu,Namakkal,Mohanur1,78.1417,11.5125
Tamil Nadu,Nilgiris,Gudalur,76.4861,11.4997
Tamil Nadu,Nilgiris,Wellington,76.8083,11.3833
Tamil Nadu,Perambalur,Perambalur,78.9364,11.1586
Tamil Nadu,Perambalur,Perambalur,78.883,11.2333
Tamil Nadu,Perambalur,Ranjankudi(Mangalamedu),78.9412,11.3472
Tamil Nadu,Pudukkottai,Alavoyal Pz,78.5464,10.3234
Tamil Nadu,Pudukkottai,Viralimalai Dw,78.5499,10.6083
Tamil Nadu,Salem,Muttur (Karumalikoodal)Dw,77.8297,11.8075
Tamil Nadu,Salem,Pulaveri,78.1083,11.6083
Tamil Nadu,Theni,Balakombai Pz,77.6233,9.9036
Tamil Nadu,Theni,M.Subbalapuram Pz,77.5564,9.9717
Tamil Nadu,Theni,Kodangipatti Pz,77.4306,9.9917
Tamil Nadu,Theni,Dumbacheri Pz,77.3911,9.9586
Tamil Nadu,Theni,Cumbum,77.2847,9.7417
Tamil Nadu,Theni,Bodinaickanur Dw,77.5717,10.0989
Tamil Nadu,Theni,Gandamanur,77.5217,9.9183
Tamil Nadu,Tirunelveli,Kadayanallur1,77.35,9.0833
Tamil Nadu,Tirunelveli,Alankulam,77.475,8.9
Tamil Nadu,Tirunelveli,Sivalarkulam Ow,77.5294,8.8693
Tamil Nadu,Tirunelveli,Naduvapatty,77.8014,9.2417
Tamil Nadu,Tirunelveli,Tirunelveli1,77.7222,8.7056
Tamil Nadu,Tirunelveli,R.Pattinam,77.3542,8.9256
Tamil Nadu,Tirunelveli,Udayattur A/B Ow,77.7206,8.2325
Tamil Nadu,Tuticorin,Srivaikundam1,77.9083,8.625
Tamil Nadu,Tuticorin,Kayattar,77.775,8.9444
Tamil Nadu,Tuticorin,Kurukkuchalai,78.0917,8.9306
Tamil Nadu,Vellore,Kandili,78.4556,12.4778
Tamil Nadu,Vellore,Chinnapallikuppam Pz,78.8386,12.7633
Tamil Nadu,Vellore,Ponnai,79.4264,13.1111
Tamil Nadu,Villupuram,Allampundi,79.3406,12.2483
Tamil Nadu,Villupuram,Ollakkur,79.7245,12.2922
Tamil Nadu,Villupuram,Rishivandiyam,79.0947,11.8131
Tamil Nadu,Villupuram,Pidagam,79.1792,11.7206
Tamil Nadu,Virudhunagar,Palavanatham,78.075,9.5667
Tamil Nadu,Virudhunagar,Aviyur Dw,78.1008,9.7389
Tamil Nadu,Virudhunagar,Kanjannaickenpatti,78.1019,9.6097
Tamil Nadu,Virudhunagar,Choolapuram,77.5583,9.3833
Tamil Nadu,Virudhunagar,Vadapatti,77.755,9.5108
Tamil Nadu,Virudhunagar,Alangulam,77.6861,9.3639
Tamil Nadu,Virudhunagar,Vembakkottai-Ow,77.7667,9.3333
Tamil Nadu,Virudhunagar,Mudukkankulam,78.2058,9.1508
Tamil Nadu,Virudhunagar,Pattampudur Ow,77.9336,9.4914
Tamil Nadu,Virudhunagar,Virudunagar,77.9542,9.5833
Tamil Nadu,Virudhunagar,Nathampatti Ow,77.7486,9.6042
Uttar Pradesh,Agra,Block Office,77.7462,27.1774
Uttar Pradesh,Agra,Sbi Near Block Office,78.1233,27.0136
Uttar Pradesh,Aligarh,Roravar,78.0461,27.8725
Uttar Pradesh,Aligarh,Kalua,77.8702,27.7678
Uttar Pradesh,Aligarh,Block H.Q,77.8364,27.9435
Uttar Pradesh,Aligarh,Rudyat Urf Tarapur,77.8917,27.8419
Uttar Pradesh,Aligarh,Block H.Q,77.5792,28.0428
Uttar Pradesh,Auraiya,Akbarpur,79.3263,26.5078
Uttar Pradesh,Azamgarh,Block Office,83.0859,25.7832
Uttar Pradesh,Bulandshahar,Nawada,78.0632,28.2595
Uttar Pradesh,Farrukhabad,Block Office,79.4368,27.308
Uttar Pradesh,Fatehpur,Block Office,80.7058,26.0358
Uttar Pradesh,Firozabad,Block Office,78.6074,27.3791
Uttar Pradesh,Firozabad,Block Office,78.407,27.2904
Uttar Pradesh,G.B. Nagar,Block H.Q,77.5672,28.125
Uttar Pradesh,G.B. Nagar,Rampur Banger,77.5697,28.1665
Uttar Pradesh,Ghazipur,Block Office,83.3365,25.5462
Uttar Pradesh,Hathras,Mohari,78.1531,27.6494
Uttar Pradesh,Jhansi,Afarsua,79.0661,25.6117
Uttar Pradesh,Jhansi,Samserpura,79.0361,25.6881
Uttar Pradesh,Jhansi,Tharo-Ii,79.3181,25.7553
Uttar Pradesh,Jhansi,Banda,79.0558,25.1597
Uttar Pradesh,Jhansi,Ghanghri,78.9722,25.4403
Uttar Pradesh,Jhansi,Jawan,78.8553,25.3425
Uttar Pradesh,Jhansi,Shakti Bhairu,78.8539,25.5147
Uttar Pradesh,Jhansi,Bhasneh,79.1592,25.5417
Uttar Pradesh,Jhansi,Dadpura,79.0442,25.4258
Uttar Pradesh,Jhansi,Ghuraiya,79.0597,25.5464
Uttar Pradesh,Jhansi,Sinora,79.0758,25.36
Uttar Pradesh,Jhansi,Panarri,79.0233,25.7689
Uttar Pradesh,Kannauj,Block Office,79.358,26.9177
Uttar Pradesh,Kannauj,Thathiya,79.8913,26.9163
Uttar Pradesh,Kanpur Dehat,Hand Pump Infront Of Shri Ramleela,79.9563,26.382
Uttar Pradesh,Kanpur Dehat,Matikapur,80.1563,26.5159
Uttar Pradesh,Kanpur Nagar,Block Office,79.976,26.7424
Uttar Pradesh,Kaushambi,Chanderi,81.3,25.3944
Uttar Pradesh,Lalitpur,Baroda Swami,78.2961,24.8786
Uttar Pradesh,Lalitpur,Kumchri,78.7769,24.5242
Uttar Pradesh,Lalitpur,Gadoli,78.7722,24.4564
Uttar Pradesh,Lucknow,Malihabd Railway Station,81.1333,26.6197
Uttar Pradesh,Mahoba,Barbai,80.0435,25.4845
Uttar Pradesh,Mahoba,Srinagar,79.7789,25.1737
Uttar Pradesh,Mainpuri,Block Office,79.2656,27.0316
Uttar Pradesh,Mainpuri,"Near Katra Saman Chauraha, Shiv",79.1982,27.0305
Uttar Pradesh,Mathura,Block H.Q,77.82,27.4114
Uttar Pradesh,Mathura,Block H.Q,77.5793,27.6208
Uttar Pradesh,Mathura,Block H.Q,77.5008,27.7262
Uttar Pradesh,Mathura,Jatwari,77.5739,27.5739
Uttar Pradesh,Mathura,Karahari,77.5615,27.7604
Uttar Pradesh,Mathura,Umaraya,77.4742,27.6654
Uttar Pradesh,Mathura,Panigaon Khader,77.7583,27.5952
Uttar Pradesh,Mathura,Block H.Q,77.3848,27.7165
Uttar Pradesh,Mathura,Kamai,77.4336,27.6324
Uttar Pradesh,Mathura,Puthari,77.3194,27.7575
Uttar Pradesh,Mathura,Block H.Q,77.7848,27.5495
Uttar Pradesh,Mathura,Thok Bindavani,77.9041,27.5697
Uttar Pradesh,Meerut,In Block Office,77.7439,28.84
Uttar Pradesh,Pratapgarh,Block Office,82.0999,25.9072
Uttar Pradesh,Pratapgarh,Block Office,82.1056,25.7456
Uttar Pradesh,Pratapgarh,Tonipur,81.8925,25.8892
Uttar Pradesh,Pratapgarh,Bashuapur,81.7108,26.0158
Uttar Pradesh,Prayagraj,Dunnaiya,82.0017,25.6378
Uttar Pradesh,Prayagraj,Gadaya Lonipara,81.7031,25.0975
Uttar Pradesh,Prayagraj,Pratappur,81.5556,25.2878
Uttar Pradesh,Raebareli,Block Office,81.5184,26.1597
Uttar Pradesh,Raebareli,Block Office,80.9758,26.1705
Uttar Pradesh,Raebareli,Block Office,80.8282,26.1546
Uttar Pradesh,Raebareli,"Sekhapur, Guru Buxaganj",81.0258,26.2721
Uttar Pradesh,Sonbhadra,Adhoura,83.0348,23.9111
Uttar Pradesh,Sonbhadra,Mohua Dohar,82.9168,23.9096
Uttar Pradesh,Sonbhadra,Rogahi,83.2029,24.4438
Uttar Pradesh,Sonbhadra,Liladewa,82.9402,23.9928
Uttar Pradesh,Sonbhadra,Lovuhan,83.1156,24.0829
Uttar Pradesh,Sonbhadra,Nodiya,83.2139,24.0815
Uttar Pradesh,Unnao,Block Office,80.6653,26.3522
Uttarakhand,Almora,Dhalnagaon,79.3486,29.9322
West Bengal,Birbhum,Mohamad Bazar,87.568,23.9852
West Bengal,Dakshin Dinajpur,Durgapur,88.476,25.4066
West Bengal,Dakshin Dinajpur,Nayabazar,88.5235,25.3642
West Bengal,Dakshin Dinajpur,Shankarpur,88.6037,25.4193
West Bengal,Dakshin Dinajpur,Samjhia,88.7622,25.5174
West Bengal,Dakshin Dinajpur,Dikul,88.4992,25.5016
West Bengal,Paschim Bardhaman,Mondalpur,87.0845,23.6875
Karnataka,Bellary,Ganikallu,76.84,15.375
Karnataka,Bellary,Jogikallu,76.446,14.973
Karnataka,Bellary,Tekkalakote A,76.875,15.513
Karnataka,Bellary,Thorangal,76.675,15.196
Karnataka,Vijayanagara,Venkatapura,76.516,15.331
Karnataka,Bengaluru Rural,Avathi,77.7246,13.2953
Karnataka,Bijapur,Ambalanur,76.2553,16.6233
Karnataka,Bijapur,Basavanabagewadi,75.9558,16.565
Karnataka,Bijapur,Chadchan,75.6511,17.3111
Karnataka,Bijapur,Hullur,75.9972,16.3537
Karnataka,Bijapur,Huvinahipparagi,76.0772,16.5572
Karnataka,Bijapur,Maileswar A,76.3417,16.4667
Karnataka,Bijapur,Vibhutihalli,76.1833,17.1
Karnataka,Chikballapur,Upparpet,78.0031,13.4034
Karnataka,Chitradurga,Hosadurga,76.133,13.862
Karnataka,Chitradurga,Maskallu,76.69,13.988
Karnataka,Davanagere,Lokikere,75.918,14.304
Karnataka,Davanagere,Mangammnahalli,75.985,14.211
Karnataka,Davanagere,Vasana,75.651,14.408
Karnataka,Dharwad,Morab,75.1588,15.5834
Karnataka,Gadag,Basavapur,75.8339,15.1958
Karnataka,Gadag,Belhatti,75.6712,15.0848
Karnataka,Gadag,Gadag,75.6301,15.4239
Karnataka,Gadag,Gojanur,75.4994,15.1909
Karnataka,Gadag,Hirekoppa(Alt To Chikkoppa),75.6519,15.4776
Karnataka,Gadag,Hulkoti,75.5444,15.4245
Karnataka,Gadag,Kalikeri(A),75.8367,15.1639
Karnataka,Gadag,Magdi,75.5112,15.22
Karnataka,Gadag,Virupapur,75.8299,15.1435
Karnataka,Gulbarga,Revannur,76.7175,16.9917
Karnataka,Haveri,Vadarayanahalli,75.7656,14.547
Karnataka,Kolar,Torlakki,78.068,12.92
Karnataka,Kolar,Gadarajahalli,78.3,12.9644
Karnataka,Kolar,Kurudmale,78.3674,13.2134
Karnataka,Koppal,Kuknoor,75.984,15.491
Karnataka,Koppal,K. Hosur,76.283,15.828
Karnataka,Koppal,K. Gonal,75.284,15.839
Karnataka,Koppal,Kanakgiri,76.417,15.567
Karnataka,Mandya,Melukote-1,76.635,12.656
Karnataka,Mysore,Badakanakoppalu,76.38,12.51
Karnataka,Raichur,Chikkahonakuni,76.984,16.067
Karnataka,Raichur,Kakargal,77.067,16.35
Karnataka,Raichur,Mustoor,77.017,16.313
Karnataka,Raichur,Jalahalli A,76.768,16.368
Karnataka,Raichur,Hemanur,76.95,16.347
Karnataka,Raichur,Ankusha Doddy,76.601,16.034
Karnataka,Raichur,Chaatra,76.45,15.198
Karnataka,Raichur,Kalamangi,77.267,16.271
Karnataka,Raichur,Hanchihal,76.668,15.239
Karnataka,Ramanagara,Hegganur,77.45,12.333
Karnataka,Tumkur,Bidarigere,77.2299,13.8736
Karnataka,Tumkur,Giriyammana Palya,77.199,13.732
Karnataka,Tumkur,Kotagudda,77.1841,14.1405
Karnataka,Tumkur,Palivalli,77.2961,14.1582
Karnataka,Tumkur,Pavagada,77.28,14.082
Karnataka,Yadgir,Hulkal,76.7896,16.7555
Karnataka,Yadgir,Hunsagi,76.5202,16.4583
Karnataka,Yadgir,Malla K,76.5656,16.7394
Karnataka,Yadgir,Managinahal,77.037,16.7172
Karnataka,Yadgir,Mudubal,76.7761,16.8647
Karnataka,Raichur,Galaga,76.83,16.27
Karnataka,Raichur,Bagalwad,76.88,16.27
Karnataka,Raichur,Shaktinagar,77.27,16.27
Karnataka,Raichur,Chikbergi,76.5,15.76
Karnataka,Raichur,Sindhnur,76.75,15.31
Karnataka,Yadgir,Hunsihole,76.65,16.3708
Karnataka,Yadgir,Gurmitkal1,77.4,16.875
Haryana,Bhiwani,Sui,76.0592,28.8631
Haryana,Bhiwani,Alakhpura,76.0462,29.016
Haryana,Bhiwani,Badala,76.255,28.7572
Haryana,Bhiwani,Devsar (Bhiwani Jonpal),76.0915,28.7606
Haryana,Bhiwani,Halawas,76.1247,28.7594
Haryana,Bhiwani,Kalinga,76.3221,28.8737
Haryana,Bhiwani,Imlota,76.4142,28.6344
Haryana,Bhiwani,Loharwala,76.3603,28.6291
Haryana,Bhiwani,Bijna,76.1422,28.4636
Haryana,Bhiwani,Hetampura,75.9864,28.7031
Haryana,Bhiwani,Kairu,75.8584,28.695
Haryana,Bhiwani,Khaparbas,75.8307,28.6899
Haryana,Bhiwani,Mandholi Kalan,75.6875,28.7135
Haryana,Bhiwani,Barwa,75.6039,28.9675
Haryana,Bhiwani,Gadhwa / Khera,75.6505,28.901
Haryana,Bhiwani,Gudha,75.6287,28.8039
Haryana,Bhiwani,Gurera,75.5128,28.9208
Haryana,Bhiwani,Jhumpa Kalan,75.5294,28.7733
Haryana,Bhiwani,Mithi,75.5739,28.7061
Haryana,Bhiwani,Sisai Kalirawan,76.017,29.166
Haryana,Bhiwani,Bajina,75.9839,28.7658
Haryana,Bhiwani,Dulheri,75.9072,28.7993
Haryana,Bhiwani,Garanpura Kalan,74.9839,28.9038
Haryana,Bhiwani,Patodi,75.8106,28.7944
Haryana,Bhiwani,Tosham,75.9158,28.875
Haryana,Charkhi Dadri,Pentawas Khurd,76.1931,28.6669
Haryana,Charkhi Dadri,Mandola,76.2183,28.5234
Haryana,Fatehabad,Talwara,75.806,29.788
Haryana,Fatehabad,Chabarwal,75.427,29.3537
Haryana,Fatehabad,Bighar,75.4541,29.4466
Haryana,Fatehabad,Bangaon,75.4242,29.4493
Haryana,Fatehabad,Haroli,75.4631,29.6533
Haryana,Fatehabad,Alawalwas,75.4867,29.7155
Haryana,Fatehabad,Nangla,75.8914,29.6134
Haryana,Gurugram,Ikbalpur,76.9164,28.472
Haryana,Gurugram,Sultanpur,76.871,28.46
Haryana,Gurugram,Bhirawati,77.1442,28.224
Haryana,Gurugram,Binola,76.867,28.295
Haryana,Hisar,Adampur,75.4679,29.2901
Haryana,Hisar,Siwani Bolan,75.6833,29.4083
Haryana,Hisar,Barwala,75.9089,29.3564
Haryana,Hisar,Litani,75.9786,29.4787
Haryana,Hisar,Badchhapar,74.9929,29.1189
Haryana,Hisar,Singhwa Khas,76.2268,29.0189
Haryana,Hisar,Sorkhi,76.1241,29.0503
Haryana,Hisar,Bir Hansi (Bir Farm),75.9778,29.1433
Haryana,Hisar,Hazampur,75.9739,29.0028
Haryana,Hisar,Rampur Damundi,75.7876,29.4268
Haryana,Hisar,Kharar-Alipur,75.717,29.1542
Haryana,Hisar,Mangali,75.7392,29.0369
Haryana,Hisar,Kapro,76.084,29.3309
Haryana,Hisar,Sohu,75.8303,29.4911
Haryana,Jhajjar,Gabhana,76.8417,28.5708
Haryana,Jhajjar,Kulashi,76.91,28.7739
Haryana,Jhajjar,Mandothi,76.8156,28.7024
Haryana,Jhajjar,Bigoa,76.4306,28.6722
Haryana,Jhajjar,Chamanpura,76.6333,28.6958
Haryana,Jhajjar,Wazirpur,76.57,28.6825
Haryana,Jhajjar,Jhajjar,76.6603,28.5986
Haryana,Jhajjar,Chuchakwas,76.5083,28.6
Haryana,Jhajjar,Mudsa,76.4792,28.5458
Haryana,Jhajjar,Surkakhpur Viran,76.5635,28.5119
Haryana,Jhajjar,Salawas,76.4725,28.4572
Haryana,Jind,Alewa,76.4521,29.4784
Haryana,Jind,Bighana,76.4836,29.4991
Haryana,Jind,Chhater,76.3173,29.5153
Haryana,Jind,Katwal,76.4511,29.5043
Haryana,Jind,Raichandwala,76.4174,29.3966
Haryana,Jind,Chhabri,76.4583,29.2667
Haryana,Jind,Haibtatpur,76.3476,29.3369
Haryana,Jind,Jaipur,76.5838,29.3921
Haryana,Jind,Kharal,76.0654,29.6976
Haryana,Jind,Kishanpura,76.3214,29.2956
Haryana,Jind,Lochab,76.43,29.3578
Haryana,Jind,Jhamola,76.34,29.1404
Haryana,Jind,Julana,76.2719,29.4769
Haryana,Jind,Lajwana Kalan,76.4814,29.1587
Haryana,Jind,Chak Ujhana,76.1245,29.7145
Haryana,Jind,Dandoli,76.1623,29
Haryana,Jind,Datasinghwala,76.1287,29.7751
Haryana,Jind,Dhanauri,76.1753,29.7716
Haryana,Jind,Kalwan,75.9831,29.6898
Haryana,Jind,Napewala,76.146,29.754
Haryana,Jind,Narwana,76.1249,29.6165
Haryana,Jind,Pilukhera,76.4875,29.3361
Haryana,Jind,Bhuslana,76.7505,29.4524
Haryana,Jind,Muana,76.5729,29.4331
Haryana,Jind,Paju Khurd,76.626,29.4372
Haryana,Jind,Rojhla,76.6025,29.3637
Haryana,Jind,Baroda,76.1889,29.4389
Haryana,Jind,Kalta,76.2681,29.4345
Haryana,Jind,Surbrah,76.071,29.4866
Haryana,Jind,Uchana,76.1877,29.4775
Haryana,Jind,Nimna Bad,76.6993,29.455
Haryana,Karnal,Assandh Ruralpart,76.6298,29.5179
Haryana,Karnal,Jalwana,76.71,29.59
Haryana,Karnal,Padha,76.7633,29.5825
Haryana,Karnal,Rahra,76.5757,29.6056
Haryana,Karnal,Munak,76.8488,29.5215
Haryana,Karnal,Kairwali,77.0417,29.6222
Haryana,Karnal,Salarpur,77.0902,29.7859
Haryana,Karnal,Amargarh,76.9874,29.8497
Haryana,Karnal,Nilokheri,76.9309,29.8551
Haryana,Karnal,Sonkra,76.88,29.7847
Haryana,Karnal,Jundla,76.875,29.65
Haryana,Karnal,Hathlana,76.8455,29.6812
Haryana,Mahendragarh,Silarpur,76.2198,28.1542
Haryana,Mahendragarh,Deroli Ahir,76.1564,28.1733
Haryana,Mahendragarh,Kheri Talwana,76.2333,28.3761
Haryana,Mahendragarh,Mandalana,76.054,28.111
Haryana,Mahendragarh,Budwal,76.6462,27.89
Haryana,Mahendragarh,Khanpur,76.0143,28.0032
Haryana,Mahendragarh,Baproli,76.0493,28.149
Haryana,Mahendragarh,Bigohpur,76.0489,27.935
Haryana,Mahendragarh,Bsahirpur,76.0044,28.0059
Haryana,Mewat,Sikarwa,77.1415,27.9508
Haryana,Palwal,Kalsara,77.278,28.0685
Haryana,Palwal,Kondal,77.2674,28.0123
Haryana,Palwal,Acheja,77.4671,28.055
Haryana,Palwal,Bamnikhera,77.3417,28.0625
Haryana,Palwal,Khambi,77.4186,27.965
Haryana,Palwal,Pirgarhi,77.4742,28.0311
Haryana,Palwal,Bela,77.4264,28.0203
Haryana,Palwal,Kashipur,77.4995,28.0101
Haryana,Palwal,Palwal,77.3238,28.1532
Haryana,Panchkula,Batwal,76.9918,30.5905
Haryana,Panchkula,Nadah Sahib,76.8847,30.6938
Haryana,Panipat,Israna,76.85,29.2778
Haryana,Panipat,Khaila Majran,76.77,29.29
Haryana,Panipat,Sink,76.6403,29.3186
Haryana,Panipat,Alupur,76.7732,29.3235
Haryana,Panipat,Atawala,76.7401,29.3321
Haryana,Panipat,Lohari,76.8389,29.3583
Haryana,Panipat,Untala,76.85,29.3917
Haryana,Panipat,Urlana Kalan,76.6717,29.34
Haryana,Panipat,Kheri Nangal,76.975,29.3504
Haryana,Panipat,Mahmadpur,76.9427,29.4555
Haryana,Panipat,Panipat,76.9488,29.3702
Haryana,Panipat,Sikanderpur,76.9408,29.4142
Haryana,Panipat,Diwana,76.9713,29.313
Haryana,Panipat,Namunda,76.9463,29.2407
Haryana,Rewari,Masani,76.7295,28.2014
Haryana,Rewari,Sangwari,76.6867,28.1626
Haryana,Rohtak,Baliandpur,76.504,28.8812
Haryana,Rohtak,Lakhan Majra,76.4764,29.0464
Haryana,Rohtak,Madina,76.4342,28.9394
Haryana,Rohtak,Baland,76.5833,28.8
Haryana,Rohtak,Bohar,76.6521,28.8969
Haryana,Rohtak,Dhamar,76.6716,28.9618
Haryana,Rohtak,Kansala,76.7789,28.8922
Haryana,Rohtak,Ladhout,76.6679,28.9389
Haryana,Rohtak,Patwapur,76.4788,28.825
Haryana,Rohtak,Ritauli,76.5702,28.761
Haryana,Rohtak,Riwara,76.7408,29.0172
Haryana,Rohtak,Gandhra,76.7036,28.8113
Haryana,Rohtak,Gijji,76.779,28.8135
Haryana,Rohtak,Kharawar,76.6772,28.8453
Haryana,Rohtak,Sampla,76.7719,28.7736
Haryana,Sirsa,Biruwala Gudha,75.0572,29.7059
Haryana,Sirsa,Maleri,75.114,29.7263
Haryana,Sirsa,Nagoki,75.1132,29.6529
Haryana,Sirsa,Phaggu,75.114,29.775
Haryana,Sirsa,Raghuana,74.9812,29.6991
Haryana,Sirsa,Sukhchain,75.027,29.786
Haryana,Sirsa,Abubshahr,74.608,29.8525
Haryana,Sirsa,Chormar,74.8417,29.7833
Haryana,Sirsa,Rampura Bishnoian,74.7856,29.7692
Haryana,Sirsa,Rasaliya Khera,74.7667,29.7167
Haryana,Sirsa,Naiwala,74.7619,29.5844
Haryana,Sirsa,Brasari,75.0226,29.3302
Haryana,Sirsa,Ganja Rupana,75.2407,29.3479
Haryana,Sirsa,Gudia Khera,74.9929,29.3923
Haryana,Sirsa,Nehrana,75.2062,29.3798
Haryana,Sirsa,Nirban,75.0491,29.3939
Haryana,Sirsa,Bhamboor,74.9652,29.5082
Haryana,Sirsa,Bhoona,75.708,29.5381
Haryana,Sirsa,Gidranwali,74.8662,29.4619
Haryana,Sirsa,Mehna Khera,74.8125,29.4192
Haryana,Sonipat,Bhanwar,76.9528,29.1568
Haryana,Sonipat,Balli Qutabpur,76.9065,29.1999
Haryana,Sonipat,Datauli,77.0806,29.1597
Haryana,Sonipat,Kami,77.0159,29.05
Haryana,Sonipat,Bhuri,76.6153,29.1
Haryana,Sonipat,Ahulana,76.6453,29.1166
Haryana,Sonipat,Bhainswal,76.7917,29.0333
Haryana,Sonipat,Busana,76.7355,29.2298
Haryana,Sonipat,Gohana,76.7153,29.1394
Haryana,Sonipat,Jagssi,76.6639,29.2428
Haryana,Sonipat,Khanpur,76.7956,29.1579
Haryana,Sonipat,Lath,76.7847,29.0738
Haryana,Sonipat,Mundlana,76.7628,29.2084
Haryana,Sonipat,Niat,76.777,29.1217
Haryana,Sonipat,Mandaura,76.9993,28.883
Haryana,Sonipat,Mohana,76.8409,29.0381
Haryana,Sonipat,Sahoti-R,76.9369,28.8036
Haryana,Sonipat,Farmana,76.8125,28.9847
Haryana,Sonipat,Rohat,76.9774,28.9364
Haryana,Sonipat,Bichpuri,76.6644,29.2025
Haryana,Sonipat,Butana,76.625,29.1875
Haryana,Sonipat,Mohana,76.8693,29.0389
Haryana,Sonipat,Nahri,77.0376,28.8681
Haryana,Sonipat,Pinana,76.825,29.0655
Haryana,Sonipat,Rathdhana,77.0581,28.9542
Haryana,Sonipat,Salimsar Majra,76.8702,28.997
Haryana,Sonipat,Kharkhoda,76.9025,28.8645
Punjab,Amritsar,Boparai Baj Singh,74.7393,31.6447
Punjab,Amritsar,Amritsar Urban-06,74.8495,31.6571
Punjab,Amritsar,Amritsar Urban-07,74.8346,31.6315
Punjab,Bathinda,Kothaguru,75.0997,30.4336
Punjab,Bathinda,Mehma Bhagwana,74.8162,3.2862
Punjab,Bathinda,Ramgarh Bhundar,75.0949,30.0773
Punjab,Bathinda,Bhaini,75.1618,30.3441
Punjab,Bathinda,Bhucho Khurd,75.0492,30.2209
Punjab,Bathinda,Dial Pur Mirja,75.1167,30.4167
Punjab,Bathinda,Phulla,75.1333,30.0097
Punjab,Bathinda,Pirkot,75.3238,30.139
Punjab,Bathinda,Dhapali,75.242,30.363
Punjab,Bathinda,Chak Hira Singhwala Urf Pakka Khurd,74.8719,30.0052
Punjab,Bathinda,Kaljha Rani,74.7016,30.0928
Punjab,Bathinda,Phullo Mithi,74.845,30.098
Punjab,Bathinda,Raman,74.9613,29.968
Punjab,Bathinda,Bhagi Bandar,75.067,30.031
Punjab,Faridkot,Bir Chahal,74.8166,30.6557
Punjab,Faridkot,Chand Baja,74.862,30.739
Punjab,Faridkot,Daggo Romana,74.6965,30.6057
Punjab,Faridkot,Dalsinghwala,74.5536,30.2713
Punjab,Faridkot,Deep Singh Wala,74.4792,30.7389
Punjab,Faridkot,Jand Sahib,74.527,30.69
Punjab,Faridkot,Kamiana,74.7318,30.6557
Punjab,Faridkot,Mallewala,74.7488,30.7836
Punjab,Faridkot,Nawankilla,74.691,30.647
Punjab,Faridkot,Pakka,74.8004,30.7065
Punjab,Faridkot,Tehna,74.4726,30.4121
Punjab,Faridkot,Sadiq,74.656,30.71
Punjab,Faridkot,Bargari,74.9455,30.5252
Punjab,Faridkot,Fatehgarh,74.9453,30.4059
Punjab,Faridkot,Gumti Khurd,74.8868,30.4159
Punjab,Faridkot,Jaitu,74.8867,30.4504
Punjab,Faridkot,Madhak,74.7537,30.4588
Punjab,Faridkot,Romana Ajit Singh,75.0186,30.4016
Punjab,Faridkot,Bajakhana,74.977,30.455
Punjab,Faridkot,Dhilwan Kalan,74.867,30.571
Punjab,Faridkot,Karir Wali,74.828,30.406
Punjab,Faridkot,Kauni,74.5406,30.7359
Punjab,Faridkot,Kot Kapura,74.833,30.583
Punjab,Faridkot,Matta,74.5019,30.2858
Punjab,Faridkot,Wara Daraka,74.754,30.55
Punjab,Faridkot,Killi,74.483,30.841
Punjab,Fatehgarh Sahib,Dabhali,76.5598,30.6973
Punjab,Fatehgarh Sahib,Pawala,76.6097,30.6344
Punjab,Fatehgarh Sahib,Pola,76.4806,30.5161
Punjab,Fazilka,Baluana,74.3108,30.1728
Punjab,Fazilka,Dhaban Kokaryan,74.327,30.122
Punjab,Fazilka,Kundal,74.2682,30.2164
Punjab,Fazilka,Sitogano,74.3602,30.029
Punjab,Fazilka,Dhabwala Kalan,74.2525,30.3317
Punjab,Fazilka,Islamwala,74.1814,30.3586
Punjab,Fazilka,Jandwala Bhimeshah,74.4058,30.6409
Punjab,Fazilka,Deepulana,74.099,30.453
Punjab,Fazilka,Fazilka,74.032,30.3948
Punjab,Fazilka,Kauranwali,74.056,30.383
Punjab,Fazilka,Kirianwala,74.1503,30.4898
Punjab,Fazilka,Chak Mochanwala,74.1534,30.5459
Punjab,Fazilka,Chak Panj Kohi,74.2922,30.5189
Punjab,Fazilka,Hauj Alias Gander,74.1615,30.4746
Punjab,Fazilka,Jamal Ke,74.1027,30.5327
Punjab,Fazilka,Mohar Singhwala Hithar,74.1793,30.5898
Punjab,Fazilka,Mottiwala,74.3556,30.7125
Punjab,Fazilka,Sarian,74.2221,30.4701
Punjab,Fazilka,Sohangarh,74.389,30.601
Punjab,Fazilka,Swahwala,74.3009,30.6007
Punjab,Fazilka,Sabuana,74.0037,3.3301
Punjab,Fazilka,Danger Khera,74.1632,30.2096
Punjab,Fazilka,Alamgarh,74.1576,30.1269
Punjab,Fazilka,Bananwala,74.3074,30.3805
Punjab,Fazilka,Nihal Khera,74.1385,30.2348
Punjab,Ferozepur,Jhokharihar,74.611,30.862
Punjab,Ferozepur,Moharewala,74.5849,30.8287
Punjab,Ferozepur,Ghall Khurd,74.8113,30.8493
Punjab,Ferozepur,Lalleh,74.8948,30.8423
Punjab,Ferozepur,Shakoor,74.7575,30.834
Punjab,Ferozepur,Yare Shahwala,74.7258,30.9758
Punjab,Ferozepur,Guru Har Sahai,74.3998,30.7113
Punjab,Ferozepur,Jandwala,74.4058,30.6409
Punjab,Ferozepur,Ghangakhala,74.3385,30.5753
Punjab,Ferozepur,Sham Singhwala,74.5119,30.7921
Punjab,Ferozepur,Longe Deva,75.0153,30.9002
Punjab,Ferozepur,Mansurwal,74.9818,30.9271
Punjab,Gurdaspur,Hassanpura Khurd,75.1821,31.785
Punjab,Hoshiarpur,Saddarpur,76.1924,31.2165
Punjab,Hoshiarpur,Thakarwal,75.9222,31.3653
Punjab,Jalandhar,Nakodar,75.4757,31.1343
Punjab,Mansa,Saswali,75.6121,29.8294
Punjab,Mansa,Kot Dharmu,75.461,29.908
Punjab,Mansa,Bhikhi,75.5431,30.1125
Punjab,Mansa,Mansa,75.3857,29.9873
Punjab,Mansa,Nangal Khurd,75.3788,29.9369
Punjab,Mansa,Adamke,75.3255,29.7112
Punjab,Mansa,Fatta Maluka,75.2833,29.8
Punjab,Moga,Malke,74.9689,30.5766
Punjab,Moga,Daudhar Sharki,75.3334,30.7302
Punjab,Moga,Jai Singh Wala,75.072,30.728
Punjab,Muktsar,Dhaula,74.7008,30.2069
Punjab,Muktsar,Lambi,74.3626,30.0325
Punjab,Muktsar,Jhorar,74.4875,30.2799
Punjab,Muktsar,Kabarwala,74.41,30.193
Punjab,Muktsar,Khandehalal,74.403,30.364
Punjab,Muktsar,Khokhar,74.6803,30.4866
Punjab,Muktsar,Madahar Kalan,74.6783,30.5499
Punjab,Muktsar,Sheranwali,74.4644,30.0317
Punjab,Nawanshahr,Bharo Majra,76.0015,31.1666
Punjab,Nawanshahr,Balachor,75.8467,31.8617
Punjab,Patiala,Hari Majra,76.607,30.319
Punjab,Patiala,Haryaoo Kalan,76.0163,29.9071
Punjab,Patiala,Nariana,76.579,30.612
Punjab,Patiala,Rajpura,76.5889,30.4753
Punjab,Sangrur,Shadi Hari,75.9691,29.9487
Punjab,Sangrur,Shafipur Khurd,76.0603,30.0906
Punjab,Sangrur,Chural Kalan,75.8,29.819
Punjab,Sangrur,Haryao,75.7064,29.965
Punjab,Sangrur,Lehragaga,75.8185,29.9382
Punjab,Sangrur,Illwal,75.89,30.208
Punjab,Sas Nagar,Antala,76.9261,30.3973
Punjab,Sas Nagar,Gholu Majra,76.824,30.533
Punjab,Sas Nagar,Malakpur,76.8545,30.4779
Punjab,Sas Nagar,Sirsini,76.7781,30.4552
Punjab,Sas Nagar,Dheri,76.6958,30.625
Punjab,Sas Nagar,Mohali1,76.6737,30.7103
Punjab,Tarn Taran,Barwala,74.803,31.224
Punjab,Tarn Taran,Lauka,74.8756,31.3556
Andhra Pradesh,Alluri Sita Rama Raju,Folkspeta,81.8398,17.3139
Andhra Pradesh,Alluri Sita Rama Raju,Jaderu,81.9523,17.4805
Andhra Pradesh,Anakapalli,Anakapalli,82.9817,17.6809
Andhra Pradesh,Anakapalli,Yendapalli,82.6499,17.6112
Andhra Pradesh,Anakapalli,Rolugunta1,82.6668,17.7129
Andhra Pradesh,Ananthapur,Kalyandurg-Alt,77.1071,14.5483
Andhra Pradesh,Ananthapur,Viruppalli,77.14,14.64
Andhra Pradesh,Ananthapur,Rayampalli,76.9006,14.6644
Andhra Pradesh,Ananthapur,Chinnampalli,77.0624,14.4702
Andhra Pradesh,Ananthapur,Appilepalli,77.0522,14.3321
Andhra Pradesh,Ananthapur,Donnimukkala,77.3961,15.1277
Andhra Pradesh,Ananthapur,Donnimukkala,77.3961,15.1277
Andhra Pradesh,Ananthapur,Kondakinda Agraharam,77.7382,14.6741
Andhra Pradesh,Ananthapur,Regadikotturu,77.6238,14.7663
Andhra Pradesh,Ananthapur,Gummagatta,76.8669,14.5694
Andhra Pradesh,Ananthapur,Regadikotturu,77.6233,14.7664
Andhra Pradesh,Ananthapur,Bodapalli,77.077,14.399
Andhra Pradesh,Annamayya,Chinnamandyam,78.6885,13.9495
Andhra Pradesh,Annamayya,Vadipalli (Brahmagari Devalayam),79.2357,14.2484
Andhra Pradesh,Annamayya,"Somalavandlapalli,",78.6286,14.1331
Andhra Pradesh,Annamayya,Papireddygaripalli,78.7333,13.7528
Andhra Pradesh,Bapatla,Santamaguluru Pz,79.9597,16.1193
Andhra Pradesh,Chittoor,Muddu Ramapuram,78.9941,13.1077
Andhra Pradesh,East Godavari,Chityala,81.5966,17.0895
Andhra Pradesh,East Godavari,Dondapudi,81.544,17.2097
Andhra Pradesh,Kurnool,Naganathanahalli,77.2221,15.5607
Andhra Pradesh,Kurnool,Gulyam,76.8355,15.3837
Andhra Pradesh,Kurnool,Sullavai,77.1222,15.4321
Andhra Pradesh,Nandyal,Venkatapuram2,78.6544,15.8832
Andhra Pradesh,Nellore,Kondapuram,79.6821,14.9923
Andhra Pradesh,Nellore,Kaligiri,79.6965,14.8287
Andhra Pradesh,Nellore,Kandukur,79.9115,15.2185
Andhra Pradesh,Nellore,Chagollu,80.0065,15.1169
Andhra Pradesh,Nellore,Alluru,80.0497,14.6711
Andhra Pradesh,Nellore,Gattupalle,79.865,14.9105
Andhra Pradesh,Nellore,Bata (Naginenigunta Gp),79.2191,14.7178
Andhra Pradesh,Nellore,Pallavolu,79.3597,14.6447
Andhra Pradesh,Nellore,Rapuru,79.5621,14.1989
Andhra Pradesh,Nellore,Rapuru,79.5621,14.1992
Andhra Pradesh,Nellore,Bhyravaram,79.4569,14.7746
Andhra Pradesh,Ntr,Kakarla,80.6353,17.0561
Andhra Pradesh,Ntr,A Konduru-New,80.648,16.9632
Andhra Pradesh,Ntr,Makkapeta,80.1915,16.9251
Andhra Pradesh,Ntr,Narasimha Rao Palem,80.4281,16.7221
Andhra Pradesh,Palnadu,Pisapadu,80.1431,16.4979
Andhra Pradesh,Palnadu,Vinukonda,79.7434,16.0519
Andhra Pradesh,Palnadu,Murjampadu,79.9084,16.5906
Andhra Pradesh,Palnadu,Rompicherla,79.9133,16.21
Andhra Pradesh,Palnadu,Rompicherla Pz,79.9049,16.2128
Andhra Pradesh,Palnadu,Zullakallu,79.791,16.4451
Andhra Pradesh,Palnadu,Timmapuram,80.2048,16.1491
Andhra Pradesh,Palnadu,Thummalacheruvu,79.7987,16.5255
Andhra Pradesh,Palnadu,Gonuguntla Varipalem,79.7929,16.0276
Andhra Pradesh,Palnadu,Santagudipadu,79.9141,16.2534
Andhra Pradesh,Palnadu,Sattenapalli,80.1479,16.4063
Andhra Pradesh,Palnadu,Maddirala,80.0909,16.0947
Andhra Pradesh,Palnadu,Chagantivari Paelm,80.0972,16.3273
Andhra Pradesh,Palnadu,Dodleru Ow,80.0646,16.5418
Andhra Pradesh,Palnadu,Gundlapalli Ew,79.8867,16.4075
Andhra Pradesh,Palnadu,Chagallu Ew,80.0259,16.369
Andhra Pradesh,Palnadu,Uppalapadu,80.0299,16.1938
Andhra Pradesh,Palnadu,Bommarajupalli,79.7864,16.2742
Andhra Pradesh,Prakasham,Darsi-New,79.6817,15.7714
Andhra Pradesh,Prakasham,Kanigiri,78.5715,15.403
Andhra Pradesh,Prakasham,Venkupalem,79.7413,15.3029
Andhra Pradesh,Prakasham,Oneguruvaipalem,79.6461,15.6825
Andhra Pradesh,Prakasham,Voolagallu,79.7664,15.8053
Andhra Pradesh,Prakasham,Thummalacheruvu,79.2919,15.6589
Andhra Pradesh,Prakasham,Gajjalakonda,79.3953,15.7423
Andhra Pradesh,Prakasham,Mundlapadu,78.9035,15.3422
Andhra Pradesh,Prakasham,Nandanavanam,79.2733,15.4669
Andhra Pradesh,Prakasham,P Gogulapalle,79.3247,15.26
Andhra Pradesh,Prakasham,Kurichedu,79.58,15.8975
Andhra Pradesh,Prakasham,Juvvigunta,79.7289,15.4339
Andhra Pradesh,Prakasham,Kondepi,79.8681,15.4133
Andhra Pradesh,Prakasham,Pvenkatapuram,79.4762,15.7625
Andhra Pradesh,Prakasham,Marella,79.9039,15.8713
Andhra Pradesh,Prakasham,Umamaheswarapuram,79.8265,15.8385
Andhra Pradesh,Prakasham,Guntu Palle,79.5308,15.1504
Andhra Pradesh,Prakasham,Katurivaripalem,79.6398,15.598
Andhra Pradesh,Prakasham,Uppalapadu,79.7546,15.5857
Andhra Pradesh,Prakasham,Chitlamitta,79.2588,15.8908
Andhra Pradesh,Prakasham,Gundamcherla,79.126,15.7907
Andhra Pradesh,Prakasham,Yerrabalem,79.0154,15.5606
Andhra Pradesh,Prakasham,Kolabhimunipadu,79.2026,15.7565
Andhra Pradesh,Prakasham,Laxmakka Palli,79.3548,15.6371
Andhra Pradesh,Sri Satya Sai,Alampur,78.1656,14.194
Andhra Pradesh,Sri Satya Sai,Madakasira1,77.276,13.9411
Andhra Pradesh,Sri Satya Sai,Budipalli,77.1648,13.9738
Andhra Pradesh,Sri Satya Sai,Malakavemula-Rs,78.0575,14.27
Andhra Pradesh,Sri Satya Sai,Ingaluru,78.0388,14.0453
Andhra Pradesh,Sri Satya Sai,Nalla Cheruvu,78.1878,13.987
Andhra Pradesh,Sri Satya Sai,Tangdikunta,77.9345,13.9425
Andhra Pradesh,Sri Satya Sai,Kambalaparthi,77.9099,14.1377
Andhra Pradesh,Sri Satya Sai,Kothulagutta,77.2191,13.9206
Andhra Pradesh,Sri Satya Sai,"Asvattarayana Roppam, Ew Of Aq-I",77.2737,14.0269
Andhra Pradesh,Sri Satya Sai,Nayanivaripalli,77.9793,14.2285
Andhra Pradesh,Sri Satya Sai,Cheruvukinda Palli,77.8101,13.8808
Andhra Pradesh,Sri Satya Sai,Nagulagubbala,78.0126,14.3801
Andhra Pradesh,Sri Satya Sai,Malreddy Palli,78.2231,13.9622
Andhra Pradesh,Sri Satya Sai,Mekalacheruvu,78.31,14.04
Andhra Pradesh,Sri Satya Sai,Gudipalli,77.6305,13.9964
Andhra Pradesh,Sri Satya Sai,Korthikota,78.3229,13.9342
Andhra Pradesh,Sri Satya Sai,Mohammadabad,78.008,13.9713
Andhra Pradesh,Sri Satya Sai,Addakula Palli,77.5457,14.0403
Andhra Pradesh,Sri Satya Sai,Kodavandlapalli,77.9629,14.4677
Andhra Pradesh,Sri Satya Sai,Kodavandlapalli,77.9629,14.4677
Andhra Pradesh,Sri Satya Sai,Kotlapalli,77.7201,14.0732
Andhra Pradesh,Sri Satya Sai,Kotlapalli,77.7201,14.0732
Andhra Pradesh,Sri Satya Sai,Bukkapatnam,77.8622,14.1973
Andhra Pradesh,Sri Satya Sai,Dodagatta,77.3711,14.0283
Andhra Pradesh,Sri Satya Sai,Gunipalli,77.8973,14.2954
Andhra Pradesh,Sri Satya Sai,Narsingarayana Roppam,77.2019,14.0033
Andhra Pradesh,Srikakulam,Kotturu,83.8845,18.7725
Andhra Pradesh,Tirupathi,Aravapalem,80.0384,13.9305
Andhra Pradesh,Tirupathi,Valivedu,79.0762,13.5272
Andhra Pradesh,Ysr Kadapa,Vbmatham,78.8782,14.8209
Andhra Pradesh,Ysr Kadapa,Chowkpalli,78.924,14.8948
Andhra Pradesh,Ysr Kadapa,Chowdariwaripalli,78.9521,14.832
Andhra Pradesh,Ysr Kadapa,Donkapalli Satram,78.1463,14.7315
Andhra Pradesh,Ysr Kadapa,Jammalamadugu,78.3879,14.8523
Andhra Pradesh,Ysr Kadapa,Unknown,78.9788,14.7931
Andhra Pradesh,Ysr Kadapa,Sagileru,78.9549,14.9507
Andhra Pradesh,Ysr Kadapa,Prabhalaveedu,79.0091,14.7926
Andhra Pradesh,Ysr Kadapa,Narsapuram,78.9292,15.0517
Andhra Pradesh,Ysr Kadapa,Sunkesula,78.2116,14.6522
Andhra Pradesh,Ysr Kadapa,Mallepally,78.8826,13.8894
Telangana,Adilabad,Boath-Pz,78.3579,19.3441
Telangana,Adilabad,Indravalli-Pz,78.6622,19.5004
Telangana,Adilabad,Hasnapur,78.799,19.4168
Telangana,Adilabad,Kachkanti,78.5656,19.6541
Telangana,Adilabad,Kamatwada,78.3914,19.796
Telangana,Adilabad,Karatwada,78.2915,19.3464
Telangana,Adilabad,Babera Tanda,78.214,19.3525
Telangana,Adilabad,Sungapur,78.7973,19.5528
Telangana,B.Kothagudem,Ashwapuram,80.8303,17.8291
Telangana,B.Kothagudem,Mukundapuram,80.2506,17.5693
Telangana,B.Kothagudem,Anathagu1,80.4884,17.7942
Telangana,B.Kothagudem,Anathagu2,80.4884,17.7943
Telangana,B.Kothagudem,Sudimalla1,80.3532,17.5849
Telangana,Hanamkonda,Yelakaturthy1,79.4494,18.0996
Telangana,Hanamkonda,Kothakonda1,79.3267,18.0428
Telangana,Hanamkonda,Panthini,79.6074,17.8493
Telangana,Hanamkonda,Velair,79.3322,18.0055
Telangana,Hanamkonda,Peechara,79.2937,17.9673
Telangana,Hyderabad,Lalaguda-Pz,78.5287,17.4406
Telangana,Jagtial,Kothapet,79.1953,18.778
Telangana,Jagtial,Mohanraopet1,78.7803,18.8097
Telangana,Jagtial,Jagithyal  Pz,78.9096,18.7741
Telangana,Jagtial,Mallannapeta,79.0102,18.7995
Telangana,Jangaon,Raghunathapalli-Pz,79.2622,17.7658
Telangana,Jangaon,Thatikonda  Pz,79.3025,17.863
Telangana,Jangaon,Vavillala  Pz,79.5025,17.62
Telangana,Jangaon,Nidigonda,79.2336,17.7405
Telangana,Jangaon,Kolukonda2,79.3193,17.6629
Telangana,Jangaon,Bontagattu Nagaram,79.2146,17.9733
Telangana,Jangaon,Bachannapet,79.0401,17.7888
Telangana,Jangaon,Yellamala2,79.1161,17.7033
Telangana,Jangaon,Kannaipalle1,79.3064,17.71
Telangana,Jangaon,Kannaipalle2,79.3065,17.7101
Telangana,Jangaon,Kannaipalle3,79.3063,17.7102
Telangana,Kamareddy,Nizamsagar Dw,77.9357,18.2297
Telangana,Karimnagar,Mallapur,78.9608,18.5637
Telangana,Kb Asifabad,Isapur,79.0266,19.5231
Telangana,Kb Asifabad,Manduva1,79.5771,19.3819
Telangana,Kb Asifabad,Manduva2,79.5771,19.3819
Telangana,Kb Asifabad,Jakkulapalli1,79.541,19.2134
Telangana,Kb Asifabad,Jakkulapalli2,79.541,19.2134
Telangana,Khammam,Madharam,80.2265,17.5428
Telangana,Khammam,Madira1,80.3648,16.9245
Telangana,Khammam,Rebbavaram,80.3367,17.1169
Telangana,Khammam,Thutikuntla1,80.2836,17.1037
Telangana,Khammam,Peddamunagala1,80.2959,17.1648
Telangana,Khammam,Nakkalagarubu1,80.3538,16.9474
Telangana,Khammam,Krishnapuram(Vanamvari),80.1369,17.1163
Telangana,Khammam,Dendukuru1,80.4028,16.8943
Telangana,Khammam,K.M Banjara (Telagavaram),80.6583,17.14
Telangana,Khammam,Thutikuntla2,80.2834,17.1039
Telangana,Khammam,Vanama Krishnapuram,80.1368,17.1163
Telangana,Khammam,Vepakuntla,80.2261,17.2757
Telangana,Khammam,Madharam,80.227,17.545
Telangana,Khammam,Vootukuru,80.3047,17.4591
Telangana,Mahabubnagar,Jedcherla-Pz,78.1447,16.7475
Telangana,Mahabubnagar,Kandur-Aq-I,77.96,16.5567
Telangana,Mahabubnagar,Vennached,77.7671,16.9591
Telangana,Mahabubnagar,Narsullabad,78.2025,16.7273
Telangana,Mancherial,Tapalpur,79.0766,19.0626
Telangana,Mancherial,Jannaram,78.9965,19.117
Telangana,Medak,Bodagattu1,77.9756,18.0515
Telangana,Medak,Yusuf Peta,78.1442,18.0492
Telangana,Medak,Musapet,77.9567,18.0289
Telangana,Medak,Toopran,78.4709,17.8035
Telangana,Medak,Narsapur,78.2746,17.7524
Telangana,Medak,Patigadda Tanda,78.2486,18.0981
Telangana,Medchal Malkanjgiri,Thurkapally,78.5994,17.6697
Telangana,Medchal Malkanjgiri,Kondapuram,78.6977,17.4703
Telangana,Medchal Malkanjgiri,Keesara1,78.6806,17.5252
Telangana,Medchal Malkanjgiri,Keesara2,78.6806,17.5252
Telangana,Medchal Malkanjgiri,Singayapalli1,78.5472,17.5456
Telangana,Medchal Malkanjgiri,Singayapalli2,78.5472,17.5456
Telangana,Medchal Malkanjgiri,Thimaipalli,78.615,17.5425
Telangana,Nagarkurnool,Vangur-Pz,78.6211,16.6131
Telangana,Nagarkurnool,Urukonda1,78.4089,16.7281
Telangana,Nagarkurnool,Kalwakurthy- Aq-I,78.4858,16.6742
Telangana,Nagarkurnool,Vatem- Aq-I,78.2158,16.5914
Telangana,Nagarkurnool,Narsaiah Palli-Aq-I,78.2425,16.1811
Telangana,Nagarkurnool,Urukonda2,78.4089,16.7281
Telangana,Nalgonda,Chikatimamidi,79.0247,17.0984
Telangana,Nalgonda,Chikatguda,79.5213,17.1636
Telangana,Nalgonda,Antampet-Pz-I,78.8917,17.0325
Telangana,Nalgonda,Antampet-Pz-Ii,78.8917,17.0323
Telangana,Nalgonda,Kurumapalli Aq-I,78.7949,16.8869
Telangana,Nalgonda,Ajilapuram,78.8049,16.9823
Telangana,Nalgonda,Chinthapally,78.8226,16.8074
Telangana,Nalgonda,Narammagudem,79.4449,16.7707
Telangana,Nalgonda,Masangi,79.1853,16.809
Telangana,Nalgonda,Chennamnen Palli,79.0364,16.6392
Telangana,Nalgonda,Adavi Thumalapally2,79.0014,16.8246
Telangana,Nalgonda,Waddipatla1,79.1139,16.6374
Telangana,Nalgonda,Yellareddigudem1,79.2068,17.1583
Telangana,Nalgonda,Palwella1,79.0298,17.132
Telangana,Nirmal,Kallur - Pz,78.1037,19.1043
Telangana,Nizamabad,Vennel Bashirabad,78.3826,18.8534
Telangana,Nizamabad,Gadkol(Pusalatanda),78.4183,18.5241
Telangana,Nizamabad,Perket,78.3161,18.7937
Telangana,Nizamabad,Gouraram,78.2866,18.5404
Telangana,Nizamabad,Mupkal2,78.3581,18.9098
Telangana,Pedapalle,Penchikalpet,79.4102,18.1511
Telangana,Pedapalle,Vennampalli,79.4819,18.552
Telangana,R. Sircilla,Boinpally Pz,78.9364,18.5031
Telangana,R. Sircilla,Venkatraopalli Pz,78.9589,18.4356
Telangana,R. Sircilla,Nampalli Pz,78.8543,18.4427
Telangana,R. Sircilla,Nerall Pz,78.8227,18.3078
Telangana,Rangareddy,Vithayapalli- Aq-I,78.5283,16.8822
Telangana,Rangareddy,Bata Singaram,78.7284,17.303
Telangana,Rangareddy,Serlingampally,78.33,17.4689
Telangana,Rangareddy,Hayatnagar-1,78.6047,17.3292
Telangana,Rangareddy,Polkampalli,78.7069,17.2261
Telangana,Rangareddy,Karmanghat,78.5249,17.3403
Telangana,Rangareddy,Marripally,78.6083,17.3804
Telangana,Rangareddy,Guntapally,78.7052,17.2879
Telangana,Rangareddy,Manchal2,78.7288,17.1512
Telangana,Rangareddy,Kottapalli,78.6793,16.9704
Telangana,Rangareddy,D. Mailaram,78.7536,17.23
Telangana,Sangareddy,Chalki,77.6833,17.9086
Telangana,Siddipet,Siddipet-Pz,78.8356,18.1063
Telangana,Siddipet,Kistapur,78.714,17.9643
Telangana,Siddipet,Mirdoddi,78.674,18.0765
Telangana,Siddipet,Thoguta,78.7203,18.0092
Telangana,Siddipet,Nanganur,79.0461,18.0665
Telangana,Siddipet,Medipalli,78.9631,18.1632
Telangana,Siddipet,Velkatur1,78.9234,18.0606
Telangana,Siddipet,Devakkapalli1,79.1108,18.2771
Telangana,Siddipet,Devakkapalli2,79.1108,18.2771
Telangana,Suryapet,Arvepally-Pz,79.5171,17.3349
Telangana,Suryapet,Mothey-Pz,79.8081,17.1707
Telangana,Suryapet,Yerkaram,79.5727,17.2272
Telangana,Suryapet,Balwemla,79.5955,17.2103
Telangana,Suryapet,Kandagatla Pz-2,79.6282,17.2648
Telangana,Suryapet,Yerravaram,79.9492,16.8901
Telangana,Suryapet,Gudibanda,79.9719,16.9561
Telangana,Suryapet,Kudli,79.8166,17.2823
Telangana,Vikarabad,Marpalle,77.4671,17.1554
Telangana,Vikarabad,Dharur1,77.7606,17.289
Telangana,Wanaparthy,Kancharaopalli,78.0036,16.2347
Telangana,Wanaparthy,Palem-Aq-I,77.94,16.4206
Telangana,Warangal,Narsampet,79.8865,17.9238
Telangana,Warangal,Nekkonda,79.783,17.7919
Telangana,Warangal,Ashok Nagar,79.951,17.954
Telangana,Warangal,Nekkonda,79.783,17.7917
Telangana,Warangal,Akulatanda,79.9135,17.986
Telangana,Warangal,Konayamakula,79.6896,17.9536
Telangana,Warangal,Theegarajupalli,79.7077,17.8328
Telangana,Warangal,Gangadevipally,79.7149,17.9599
Telangana,Yadadri Bhuvanagiri,M.Turkapalli-Pz,78.8274,17.6535
Telangana,Yadadri Bhuvanagiri,Nagaram,79.0341,17.3579
Telangana,Yadadri Bhuvanagiri,Hasanabad,78.8831,17.5274
Telangana,Yadadri Bhuvanagiri,Veerawali,79.0093,17.4861
Telangana,Yadadri Bhuvanagiri,Malkapuram,78.796,17.2739
Telangana,Yadadri Bhuvanagiri,Ramannapet,79.0954,17.2938
Telangana,Yadadri Bhuvanagiri,Gujja -Pz-I,78.9746,17.1496
Telangana,Yadadri Bhuvanagiri,Gujja -Pz-Ii,78.9745,17.1496
Telangana,Yadadri Bhuvanagiri,Venkatapuram,78.8669,17.6419
Telangana,Yadadri Bhuvanagiri,Martoor,79.1061,17.5786
Telangana,Yadadri Bhuvanagiri,Koratikal,79.1605,17.4939
Telangana,Yadadri Bhuvanagiri,Mallapuram,78.9113,17.6336
Telangana,Yadadri Bhuvanagiri,Malkapur Aq-Ii,78.8009,17.2758
Telangana,Yadadri Bhuvanagiri,Salavari Aq-1(Swamiwari Lingotam),78.953,17.2928
Telangana,Yadadri Bhuvanagiri,Salavari Aq-Ii(Swamyvaari Lingotam),78.9528,17.2929
Telangana,Yadadri Bhuvanagiri,Munipampula,79.1581,17.3231
Telangana,Yadadri Bhuvanagiri,Chandepalli,79.0937,17.5337
Telangana,Yadadri Bhuvanagiri,Ennaram1,79.2092,17.3209
Telangana,Yadadri Bhuvanagiri,Ennaram2,79.2092,17.3209
Telangana,Yadadri Bhuvanagiri,Janakipuram,79.3609,17.473
Telangana,Yadadri Bhuvanagiri,Mariyala,78.8114,17.5678
Delhi,North,Alipur Garhi,77.1244,28.7981
Delhi,North,Barwala,77.0628,28.7583
Delhi,North,Bawana Je Store,77.03,28.7869
Delhi,North,Bhawana Wtp,77.0536,28.8233
Delhi,South West,Dwarka Sec-23 Dda Park,77.0508,28.5672
Delhi,South,Jamali Kamali Dw,77.1822,28.5061
Delhi,South West,Jhuljhuli,76.9047,28.5361
Delhi,North,Khera Kalan,77.1181,28.7694
Delhi,North West,Nizampur,76.9667,28.7194
Delhi,North West,Nizampur Mandir Dw,76.9636,28.72
Delhi,North West,Rani Khera,77.025,28.7069
Delhi,North,Rohini Sec-28,77.095,28.7528
Delhi,North West,Sanjay Van Pz,77.1419,28.6903
Delhi,North West,Sectpr - 5 Rohini (Pz) Rithala,77.1017,28.715
Delhi,New Delhi,Sunder Nursery,77.245,28.5961
Delhi,South West,Surheda,76.9322,28.6039
Delhi,Shahdara,Vivek Vihar,77.3131,28.6708
Madhya Pradesh,Alirajpur,Badaguda,74.5172,22.4297
Madhya Pradesh,Chhindwara,Mahaljhir,78.574,22.609
Madhya Pradesh,Dewas,Satwas New,76.682,22.534
Madhya Pradesh,Dhar,Kanwan New,75.258,22.87
Madhya Pradesh,Katni,Bilhari New,80.2514,23.9028
Madhya Pradesh,Mandla,Motinala,80.903,22.345
