State,District,Location,Longitude,Latitude
Andaman & Nicobar Islands,South Andaman,Wandur – 2,92.6166,11.5878
Assam,Goalpara,Salpara,90.7008,26.0128
Assam,Nagaon,Naderigaon/ Basin Dicate,92.6569,26.1592
Bihar,Aurangabad,Aurangabad,84.3845,24.7462
Bihar,Banka,Baunsi,87.0239,24.8013
Bihar,Begusarai,Parihara,86.2738,25.536
Bihar,Begusarai,Cheriya Bariyarpur,86.0906,25.5853
Bihar,Buxar,Kesath ( Pokhratola),84.2489,25.4125
Bihar,Buxar,Rajpur,84.1292,25.6847
Bihar,Darbhanga,Afzala Balia,86.2313,25.9297
Bihar,East Chamapran,Kasba Mehsi,85.1188,26.3564
Bihar,Gaya,Konch,84.7678,24.9181
Bihar,Gaya,Wazirganj,85.2208,24.8042
Bihar,Jehanabad,Kako,85.063,25.2286
Bihar,Jehanabad,Alubikha,85.0335,25.0721
Bihar,Katihar,Manihari,87.622,25.3392
Bihar,Khagaria,Pirnagra,86.729,25.611
Bihar,Khagaria,Dewari,86.714,25.363
Bihar,Lakhisarai,Arma,86.2464,25.2
Bihar,Madhepura,Murliganj,86.9963,25.8916
Bihar,Muzzafarpur,Dholi (Tola Jahangirpur),85.5888,25.9979
Bihar,Muzzafarpur,Japaha,85.3989,26.19
Bihar,Muzzafarpur,Rajwara,84.9395,26.2585
Bihar,Nalanda,Bhui,85.4183,25.1058
Bihar,Nalanda,B Sharif Rly Stn,85.5389,25.2017
Bihar,Nalanda,Muraura,85.5522,25.2031
Bihar,Nalanda,Ekangarsarai,85.2208,25.225
Bihar,Nalanda,Islampur,85.2139,25.1356
Bihar,Nalanda,Karaiparsurai,85.2672,25.3686
Bihar,Nalanda,Nirpur,85.4219,25.1372
Bihar,Nalanda,Silao,85.4511,25.075
Bihar,Nalanda,Sithaura,85.5122,25.0389
Bihar,Nalanda,Bhathar,85.3869,25.2975
Bihar,Nawada,Rupau,85.7525,24.8604
Bihar,Nawada,Pakribrawan Pond,85.7408,24.9553
Bihar,Nawada,Shahpur Morh,85.4183,24.6503
Bihar,Samastipur,Dalsinghsaray (Police),85.8363,25.6688
Bihar,Samastipur,Karain,86.0103,25.8604
Bihar,Samastipur,Raipur,85.7965,25.7599
Bihar,Samastipur,Kishanpur,85.8438,25.9276
Bihar,Saran,Majhanpura,84.595,25.8182
Bihar,Saran,Manjhi 2,84.5754,25.8376
Bihar,Sitamarhi,Mahadeopatti,85.6338,26.7238
Bihar,Supaul,Kario,86.6487,26.1187
Bihar,Vaishali,Mathura,85.3615,25.6298
Bihar,Vaishali,Namidih,85.181,25.8317
Bihar,Vaishali,Mushari Tola,85.5978,25.8036
Chhattisgarh,Balrampur,Rajpur,83.4042,23.3375
Chhattisgarh,Bemetara,Rampur (Bhand),81.5047,21.5226
Chhattisgarh,Durg,Dargaon,81.3944,21.4917
Chhattisgarh,Mahasamund,Badesara,83.09,21.3922
Chhattisgarh,Mungeli,Rajpur,81.6522,22.5417
Chhattisgarh,Mungeli,Daukapa,81.828,22.0092
Chhattisgarh,Mungeli,Fulwari,81.6262,22.4961
Chhattisgarh,Raigarh,Rajpur,83.4872,22.4353
Daman And Diu,Daman,Devka,72.8382,20.453
Daman And Diu,Diu,Vanakbara,70.8753,20.7099
Daman And Diu,Diu,Wadiwadi,70.8832,20.7125
Gujarat,Ahmedabad,Dhandhuka1,71.9877,22.3761
Gujarat,Ahmedabad,Dalod,71.9675,23.3532
Gujarat,Ahmedabad,Viramgam2,72.0384,23.1367
Gujarat,Amreli,Dhrai( Balmukand),71.1481,21.8077
Gujarat,Amreli,Kerala,71.2178,21.3897
Gujarat,Amreli,Sanaria,71.4319,21.5501
Gujarat,Amreli,Bhuva,71.3596,21.4277
Gujarat,Amreli,Fifad,71.5376,21.4241
Gujarat,Amreli,Piyava,71.4602,21.3795
Gujarat,Amreli,Vanda,71.5075,21.3897
Gujarat,Anand,Anklav2,72.9971,22.3764
Gujarat,Anand,Kansari1,72.6516,22.3413
Gujarat,Anand,Laxmipura,72.6103,22.4196
Gujarat,Anand,Dharmaj,72.7874,22.4207
Gujarat,Banaskantha,Amirgadh,72.6477,24.401
Gujarat,Banaskantha,Dudhba,71.669,24.4794
Gujarat,Bharuch,Raymal,72.8197,21.5191
Gujarat,Bharuch,Jambusar2,72.8086,22.0494
Gujarat,Bharuch,Kavi,72.6367,22.1954
Gujarat,Bharuch,Sarod,72.7557,22.161
Gujarat,Bharuch,Tankari,72.6691,21.9882
Gujarat,Bharuch,Luhara,72.5523,21.6721
Gujarat,Bhavnagar,Bhudel,72.1578,21.6889
Gujarat,Bhavnagar,Bhumbhali,72.2343,21.6845
Gujarat,Bhavnagar,Ghogha,72.2817,21.6803
Gujarat,Bhavnagar,Mahuva1,71.77,21.1
Gujarat,Bhavnagar,Umrala,71.8026,21.846
Gujarat,Bhavnagar,Ayodhyapuram(Narayan Dham),71.8845,21.9522
Gujarat,Bhavnagar,Vallbhipur,71.8784,21.9004
Gujarat,Botad,Barvala,71.8942,22.1624
Gujarat,Chhota Udepur,Govindpura,73.74,22.2155
Gujarat,Chhota Udepur,Bhindol,73.8971,22.2011
Gujarat,Devbhumi Dwarka,Aramda,69.035,22.4275
Gujarat,Gir Somnath,Una2,71.0416,20.8224
Gujarat,Kachchh,Samakhiali,70.5041,23.3067
Gujarat,Kachchh,Karagoga,69.6619,22.9381
Gujarat,Kachchh,Vadala,69.8538,22.9168
Gujarat,Mahesana,Dharpura,72.1118,23.544
Gujarat,Mahesana,Maguna,72.2904,23.5772
Gujarat,Mahesana,Unjha,72.3946,23.7976
Gujarat,Narmada,Rasela,73.4917,21.925
Gujarat,Narmada,Namaria,73.6235,22.0491
Gujarat,Navsari,Chinam,72.883,20.9986
Gujarat,Navsari,Dandi,72.8025,20.887
Gujarat,Navsari,Ubhrat,72.7423,21.0141
Gujarat,Navsari,Parujan,72.8363,20.0231
Gujarat,Panchmahal,Khadki Vadiya,73.5003,22.6622
Gujarat,Panchmahal,Shehra,73.625,22.9542
Gujarat,Patan,Piprala,71.0967,23.6462
Gujarat,Porbandar,Adwana2,69.5947,21.9154
Gujarat,Porbandar,Kolikhada Village?2,69.6368,21.6816
Gujarat,Porbandar,Bhoddar,69.8949,21.5751
Gujarat,Sabarkantha,Harsol1,73.0167,23.3778
Gujarat,Surat,Mota,73.0697,21.1706
Gujarat,Surat,Olpad2,72.7537,21.3371
Gujarat,Surendranagar,Moti Majethi,71.8853,23.0866
Gujarat,Surendranagar,Ranagarh,71.9885,22.779
Gujarat,Surendranagar,Surendranagar2,71.6167,22.7176
Gujarat,Vadodara,Vejpur2,73.3539,22.7435
Gujarat,Vadodara,Sinor,73.3376,21.9154
Gujarat,Vadodara,Ongc,73.207,22.2763
Gujarat,Vadodara,Saidal,73.5043,22.2789
Gujarat,Valsad,Malgalwad Fansa,72.7865,20.3448
Jammu & Kashmir,Reasi,Bhambla,74.5771,33.0519
Jammu & Kashmir,Jammu,Gura (Akhnoor),74.708,32.8813
Jammu & Kashmir,Jammu,Allah,74.8367,32.5175
Jammu & Kashmir,Jammu,Bishnah,74.857,32.608
Jammu & Kashmir,Jammu,Hamirpur Sidhar,74.5256,32.7765
Jammu & Kashmir,Jammu,Senth,74.5099,32.7765
Jammu & Kashmir,Jammu,Patyale Chak,74.776,32.7625
Jammu & Kashmir,Jammu,Makwal,74.7169,32.6933
Jammu & Kashmir,Jammu,Sohanjana,74.7431,32.6972
Jammu & Kashmir,Jammu,Nikowal,74.7056,32.5083
Jammu & Kashmir,Jammu,Suchetgarh Ii,74.6756,32.5675
Jammu & Kashmir,Kathua,Gangu Chak,75.2628,32.4014
Jammu & Kashmir,Rajouri,Bareri,74.2251,33.1554
Jammu & Kashmir,Samba,Patli,74.9458,32.6083
Jammu & Kashmir,Samba,Mahalshah Kalandrian,74.9425,32.5103
Jharkhand,Bokaro,Nutandih,86.3287,23.5256
Jharkhand,E. Singhbhum,Sundarnagar1,86.1725,22.8278
Jharkhand,E. Singhbhum,Kalikapur,86.285,22.6158
Jharkhand,Hazaribagh,Chalkusa,85.7136,24.2377
Jharkhand,Hazaribagh,Chauparan1,85.2508,24.3899
Jharkhand,Hazaribagh,Keradari,85.0867,23.8604
Jharkhand,Palamu,Daltenganj,84.0625,24.0669
Jharkhand,Saraikela,Nabibera,86.0069,22.6403
Maharashtra,Ahmednagar,Jamkhed,75.3167,18.7333
Maharashtra,Ahmednagar,Kolwadi,74.9833,18.5167
Maharashtra,Ahmednagar,Manjur,74.2808,19.95
Maharashtra,Ahmednagar,Shani Shingnapur,74.9544,19.5267
Maharashtra,Ahmednagar,Supe,74.5389,18.9597
Maharashtra,Ahmednagar,Brahmani,74.7489,19.3739
Maharashtra,Ahmednagar,Khamgaon,75.1703,19.3864
Maharashtra,Akola,Patsul,77.0181,20.9861
Maharashtra,Akola,Raundala,76.9683,20.9775
Maharashtra,Akola,Andura1,76.8528,20.8833
Maharashtra,Akola,Wadegaon,77.0675,20.4686
Maharashtra,Akola,Hatola,77.2044,20.5064
Maharashtra,Akola,Pinjar,77.2556,20.5472
Maharashtra,Akola,Ambashi,76.8592,20.4567
Maharashtra,Amravati,Walgaon,77.7,21.0167
Maharashtra,Amravati,Khargavan,77.3156,21.0669
Maharashtra,Amravati,Nimbhari,77.3125,21.05
Maharashtra,Amravati,Wadgaon (Fattepur),77.275,21.2806
Maharashtra,Amravati,Yevda,77.4586,20.9947
Maharashtra,Amravati,Khanapur,77.9542,21.3153
Maharashtra,Amravati,Khed,77.8611,21.3094
Maharashtra,Amravati,Amner_Old,78.4014,21.3917
Maharashtra,Amravati,Chandas,78.3444,21.4372
Maharashtra,Amravati,Shignapur,77.4978,20.9517
Maharashtra,Aurangabad,Abad Vidhyapeeth,75.3125,19.9025
Maharashtra,Aurangabad,Tunki,74.85,20.1333
Maharashtra,Beed,Hirapur,75.7417,19.1194
Maharashtra,Beed,Wadwani,76.0333,18.9833
Maharashtra,Beed,Manur,75.3167,19.0667
Maharashtra,Beed,Pithi,75.6333,18.9333
Maharashtra,Buldhana,Pahurjira,76.6492,20.6739
Maharashtra,Buldhana,Motala,76.2,20.6833
Maharashtra,Buldhana,Dighi,76.3367,20.8625
Maharashtra,Buldhana,Tunki New,76.6911,21.1067
Maharashtra,Buldhana,Kalkheda,76.6764,20.8697
Maharashtra,Buldhana,Shegaon,76.7,20.8
Maharashtra,Chandrapur,Chora,79.2344,20.1992
Maharashtra,Chandrapur,Tumdi Menda,79.8014,20.6025
Maharashtra,Chandrapur,Chichpalli,79.4861,20.0003
Maharashtra,Chandrapur,Jambhulghat,79.4583,20.5417
Maharashtra,Chandrapur,Kawadsi,79.4917,20.5833
Maharashtra,Chandrapur,Navegaon More,71.6667,19.8539
Maharashtra,Chandrapur,Rajura-1,79.3714,19.7858
Maharashtra,Chandrapur,Sondo,79.3333,19.6667
Maharashtra,Chandrapur,Ladbori,79.6308,20.3125
Maharashtra,Chandrapur,Ralegaon-1,79.1964,20.4094
Maharashtra,Chandrapur,Wandhali-1,78.8864,20.2972
Maharashtra,Gadchiroli,Allapalli,80.0667,19.4333
Maharashtra,Jalna,Talni,76.4444,19.8833
Maharashtra,Nagpur,Metpanjara,78.7128,21.2514
Maharashtra,Nagpur,Ringnabodi-1,78.9683,21.2019
Maharashtra,Nagpur,Mouda-1,79.4003,21.1347
Maharashtra,Nagpur,Tarsha,79.3811,21.2258
Maharashtra,Nagpur,Jaialkheda_1,78.4175,21.3847
Maharashtra,Nagpur,Chorbaoli,79.3167,21.4667
Maharashtra,Nagpur,Bhasali Takli,78.9906,21.3533
Maharashtra,Nagpur,Kothulna,79.0356,21.4194
Maharashtra,Nagpur,Saoner-1,78.9406,21.3897
Maharashtra,Nanded,Dorli,77.6344,19.4239
Maharashtra,Nandurbar,Shahada-1,74.4761,21.5272
Maharashtra,Nashik,Satana,74.2042,20.6
Maharashtra,Nashik,Pathre Bk,74.3356,19.8297
Maharashtra,Parbhani,Jintur,76.6833,19.6167
Maharashtra,Parbhani,Karegaon,76.8225,19.2661
Maharashtra,Parbhani,Singanapur,76.7417,19.175
Maharashtra,Parbhani,Hadgaon-1,76.3133,19.3136
Maharashtra,Pune,Kalamb,73.9611,19.0583
Maharashtra,Pune,Pabal New,74.0503,18.8358
Maharashtra,Pune,Karanje,74.2542,18.1336
Maharashtra,Pune,Patas,74.4333,18.4333
Maharashtra,Sangli,Jath,75.2167,17.05
Maharashtra,Sangli,Karnal-1,74.5669,16.9169
Maharashtra,Sangli,Sangli_Sangalwadi,74.5536,16.8831
Maharashtra,Sangli,Kirloskarwadi,74.4122,17.0883
Maharashtra,Sangli,Tasgaon,74.9006,17.4236
Maharashtra,Sangli,Borgaon,74.3258,17.0808
Maharashtra,Satara,Mhaswad,74.7833,17.6333
Maharashtra,Satara,Lonand,74.1883,18.0458
Maharashtra,Solapur,Madha,75.5164,18.0383
Maharashtra,Solapur,Dharmpuri,74.6833,17.9333
Maharashtra,Solapur,Mahud (Bk)-1,75.0933,17.6056
Maharashtra,Solapur,Nagaj,74.95,17.15
Maharashtra,Thane,Bramhanwadi,72.7833,19.425
Maharashtra,Wardha,Ajansara,78.6713,20.4093
Maharashtra,Wardha,Khandali,78.9256,20.7375
Maharashtra,Wardha,Sukli-1,78.7172,20.7894
Maharashtra,Wardha,Yelakeli,78.5903,20.8139
Maharashtra,Washim,Dhanaj Khurd,77.5861,20.7167
Maharashtra,Washim,Kamargaon,77.5028,20.6139
Maharashtra,Washim,Risod,76.7833,19.9667
Maharashtra,Yavatmal,Digras,77.7167,20.1
Odisha,Bargarh,Burdapali,83.4692,21.1594
Odisha,Bargarh,Padampur 2,83.0711,20.9992
Odisha,Cuttack,Sankhmiri,85.3361,20.375
Odisha,Cuttack,Kanapur,85.1833,20.4056
Odisha,Dhenkanal,Dhaulpur,85.3569,20.7944
Odisha,Khordha,Odakhanda-Dw,85.9756,20.1167
Odisha,Nayagarh,Mali Bareni,85.2983,20.3
Odisha,Nayagarh,Benagadia,85.1736,20.2628
Odisha,Nayagarh,Kana Singhi,85.1092,20.38
Odisha,Nayagarh,Kalyanpur Ii,85.0881,20.0572
Odisha,Nayagarh,Nuagaon1,84.9728,20.2528
Odisha,Nuapada,Chanabeda,82.4558,20.1758
Odisha,Nuapada,Paraskhol,82.5761,20.8069
Odisha,Nuapada,Sahipala,82.6778,20.8281
Odisha,Nuapada,Sarabong,82.4689,20.8111
Odisha,Puri,P-19 Kashi Jagannathpur,85.8064,19.8167
Odisha,Puri,Sakhigopal 3,85.8089,19.95
Odisha,Sambalpur,Bausenmura,83.9808,21.3394
Odisha,Sonapur,Singhijuba,83.7394,21.0833
Odisha,Sonapur,Tebhapadar,84.1769,20.9075
Odisha,Sonapur,Karlajuri,83.4653,21.0117
Odisha,Sonapur,Sargaj 1,83.6719,20.7069
Odisha,Sonapur,Phulmuthi,83.7922,20.995
Pondicherry,Pondicherry,Villanur,79.7557,11.9158
Rajasthan,Ajmer,Barora,75.036,26.213
Rajasthan,Ajmer,Tabiji,74.617,26.363
Rajasthan,Ajmer,Sarwad,75,26.05
Rajasthan,Ajmer,Kanpura1,74.867,26.4
Rajasthan,Alwar,Bansur,76.356,27.692
Rajasthan,Alwar,Bolni,76.796,27.866
Rajasthan,Alwar,Lachmangarh,76.86,27.35
Rajasthan,Alwar,Rajgarh1,76.6,27.236
Rajasthan,Alwar,Reni,76.7389,27.1775
Rajasthan,Banswara,Charakni,74.38,23.313
Rajasthan,Barmer,"Mandal Eido Ki Dhani, Derasar",71.1422,25.8118
Rajasthan,Barmer,Gadra Road,70.639,25.74
Rajasthan,Barmer,"Rathoro Ki Dhani, Gudamalani",71.7031,25.2121
Rajasthan,Barmer,Doli,72.667,26.067
Rajasthan,Barmer,Dhanwa,72.1199,25.5475
Rajasthan,Barmer,Khara Mahecha,72.0265,25.5103
Rajasthan,Barmer,Samdari(Hs-4),72.5757,25.8489
Rajasthan,Bharatpur,Nadbai,77.213,27.208
Rajasthan,Bharatpur,Gopalgarh,77.0633,27.6547
Rajasthan,Bharatpur,Nagar,77.1,27.417
Rajasthan,Bharatpur,Gopalgarh,77.05,27.65
Rajasthan,Bharatpur,Pahari,77.083,27.7
Rajasthan,Bharatpur,Ludhawai_Gwd,77.395,27.175
Rajasthan,Bharatpur,Weir,77.1773,27.0126
Rajasthan,Bhilwara,Asind,74.3347,25.7328
Rajasthan,Bhilwara,Jeewaliya,74.508,25.544
Rajasthan,Bhilwara,Raila Road,74.6,25.633
Rajasthan,Bhilwara,Mangtala,75.2975,25.3475
Rajasthan,Bhilwara,Rampuriya_Pz,75.3288,25.2935
Rajasthan,Bhilwara,Gulabpura,74.67,25.9
Rajasthan,Bhilwara,Borani,75.333,25.683
Rajasthan,Bhilwara,Kotari,74.892,25.397
Rajasthan,Bhilwara,Malas,74.3294,25.5242
Rajasthan,Bhilwara,Mandalgarh1,75.094,25.183
Rajasthan,Bikaner,Chak Mulajman,72.8977,27.8393
Rajasthan,Bikaner,Kolayat,72.954,27.842
Rajasthan,Bikaner,Arjansar,73.883,28.933
Rajasthan,Bikaner,Baderan,73.764,28.701
Rajasthan,Bundi,Dahi Khera,76.167,25.517
Rajasthan,Churu,Jawanipur,75.04,28.52
Rajasthan,Churu,Shyampura,74.89,28.27
Rajasthan,Churu,Lambor Chhoti,75.41,28.59
Rajasthan,Churu,Ludi Jhandar,75.43,28.66
Rajasthan,Churu,Neema,75.4722,28.4667
Rajasthan,Churu,Rajgarh1,75.375,28.633
Rajasthan,Churu,Almorsar,74.55,28.37
Rajasthan,Churu,Sajansar,74.51,28.37
Rajasthan,Churu,Sardarshahar,74.486,28.439
Rajasthan,Churu,Sujangarh,74.4808,27.7069
Rajasthan,Dausa,Dausa1,76.326,26.898
Rajasthan,Dausa,Jasuta Hs 1,76.3222,26.9678
Rajasthan,Dausa,Jasuta Hs 2,76.3267,26.9667
Rajasthan,Dausa,Jasuta Hs 3,76.3256,26.9617
Rajasthan,Ganganagar,Birdhwal1,73.919,29.117
Rajasthan,Ganganagar,Piperan,73.9,29.248
Rajasthan,Hanumangarh,Bhadra,75.1622,29.1176
Rajasthan,Hanumangarh,Dungrana,75.097,29.014
Rajasthan,Hanumangarh,Munsari,75.033,29.1
Rajasthan,Hanumangarh,Bhukarka,74.75,29.233
Rajasthan,Hanumangarh,Bolanwali,74.41,29.838
Rajasthan,Jaipur,Tootoli,75.7994,26.6342
Rajasthan,Jaipur,Nasnota,75.443,26.8
Rajasthan,Jaipur,Pallukhurd,75.325,26.736
Rajasthan,Jaipur,Bhojpura,75.614,26.622
Rajasthan,Jaipur,Chakwara,75.513,26.606
Rajasthan,Jaipur,Chittora,75.702,26.638
Rajasthan,Jaipur,Dawach,75.754,26.567
Rajasthan,Jaipur,Madhorajpur,75.656,26.577
Rajasthan,Jaipur,Majhi Renwal,75.683,26.696
Rajasthan,Jaipur,Sambhar,75.2269,26.9265
Rajasthan,Jaipur,Sambhar,75.2024,26.899
Rajasthan,Jaisalmer,Janpatpura,71.6896,26.6985
Rajasthan,Jaisalmer,Kalewa,71.904,26.806
Rajasthan,Jaisalmer,Lawan,72.05,26.872
Rajasthan,Jaisalmer,Luna Kalan,71.571,26.623
Rajasthan,Jaisalmer,Rajgarh1,71.545,26.538
Rajasthan,Jalore,Bhinmal,72.2625,25.0125
Rajasthan,Jalore,Jalore,72.6306,25.3346
Rajasthan,Jalore,Sanchore (H/S),71.7805,24.7524
Rajasthan,Jhunjhunu,Alsisar,75.2931,28.3037
Rajasthan,Jhunjhunu,Bhara Ks Bas,75.32,28.31
Rajasthan,Jhunjhunu,Birmi,75.196,28.196
Rajasthan,Jhunjhunu,Ghasi Ram Ka Bas,75.3,28.29
Rajasthan,Jhunjhunu,Kankaru Khurd,75.34,28.31
Rajasthan,Jhunjhunu,Rampura,75.31,28.26
Rajasthan,Jhunjhunu,Amirwas,75.15,28.19
Rajasthan,Jhunjhunu,Kabilsar,75.18,28.19
Rajasthan,Jhunjhunu,Piplani Khurd,75.14,28.21
Rajasthan,Jodhpur,Gangani,73.212,26.51
Rajasthan,Jodhpur,Gangani(Hs-1),73.2059,26.4929
Rajasthan,Jodhpur,Gangani(Hs-2),73.2003,26.4868
Rajasthan,Jodhpur,Devatra,73.378,26.51
Rajasthan,Jodhpur,Ramdawas,73.3658,26.3658
Rajasthan,Jodhpur,Ramrawas(Hs-2)Khedi Salva,73.3474,26.4281
Rajasthan,Jodhpur,Ramrawas(Sh-4),73.4366,26.4552
Rajasthan,Jodhpur,Nandiya,73.3498,26.5143
Rajasthan,Jodhpur,Bhavi,73.6067,26.2317
Rajasthan,Jodhpur,Bhavi (Hs-3)Olvi,73.4547,26.2226
Rajasthan,Jodhpur,Bhavi(Hs-1)Lamba,73.5777,26.2139
Rajasthan,Jodhpur,Bhavi(Hs-2),73.6078,26.2181
Rajasthan,Jodhpur,Bhawi,73.607,26.232
Rajasthan,Jodhpur,Olvi,73.458,26.233
Rajasthan,Jodhpur,Jasnath Nagar,72.7679,26.3261
Rajasthan,Jodhpur,Bhandu(Hs-1),72.8959,26.1172
Rajasthan,Jodhpur,Deela,73.0651,26.104
Rajasthan,Jodhpur,Dhawa,72.742,26.058
Rajasthan,Jodhpur,Gelawas,72.7789,26.0671
Rajasthan,Jodhpur,Guda Rayka,73.0937,26.1323
Rajasthan,Jodhpur,Manj Form House,73.0481,26.1603
Rajasthan,Jodhpur,Pariharon Ki Dhani,72.7492,26.1375
Rajasthan,Jodhpur,Raron Ki Dhani,72.775,26.194
Rajasthan,Jodhpur,Salawas,73.0136,26.1427
Rajasthan,Karauli,Hindaun,77.033,26.733
Rajasthan,Karauli,Hindaun Hs,77.0297,26.7342
Rajasthan,Karauli,Islampur,77.017,26.7
Rajasthan,Nagaur,Chosli Hs-2,74.2636,26.9337
Rajasthan,Nagaur,Chosli(Khinwtana)Hs-3,74.1907,26.9916
Rajasthan,Nagaur,Degana,74.3547,26.8181
Rajasthan,Nagaur,Chhoti Khatu,74.346,27.154
Rajasthan,Nagaur,Makrana,74.7574,27.0256
Rajasthan,Nagaur,Dangawas(Hs-1)Pancholiya,74.0901,26.6172
Rajasthan,Nagaur,Dangawas(Hs-3),74.0701,26.6214
Rajasthan,Nagaur,Dangawas(Hs-4),74.0549,26.6318
Rajasthan,Nagaur,Nagaur,73.75,27.1833
Rajasthan,Nagaur,Nagaur Hs-4,73.7037,27.1976
Rajasthan,Nagaur,Nagaur1 (Gwd),73.75,27.183
Rajasthan,Nagaur,Bagot,74.5911,26.8131
Rajasthan,Nagaur,Bagot(Hs),74.5922,26.8084
Rajasthan,Nagaur,Bagot1,74.583,26.817
Rajasthan,Pali,Ghanerao,73.525,25.233
Rajasthan,Pali,Prithvipura,73.8167,26.2
Rajasthan,Pali,Marwar Junction Block Hq,73.601,25.723
Rajasthan,Pali,Kariasoda,73.638,25.833
Rajasthan,Pali,Sojat Block Hq,73.6698,25.9283
Rajasthan,Rajsamand,Railmagra1,74.117,25.033
Rajasthan,Rajsamand,Rajsamand,73.883,25.067
Rajasthan,Sawai Madhopur,Bamnawas,76.561,26.55
Rajasthan,Sawai Madhopur,Tond (1Km Towards Lalsot),76.38,26.37
Rajasthan,Sawai Madhopur,Tond (1Km Towards Sawai Madhopur),76.38,26.37
Rajasthan,Sawai Madhopur,Tond (Infront Of Canara Bank),76.38,26.37
Rajasthan,Sikar,Khatu Shamji,75.392,27.367
Rajasthan,Sikar,Fatehpur,74.9622,27.9814
Rajasthan,Tonk,Jaisinghpur,75.498,26.409
Rajasthan,Tonk,Malpura1,75.383,26.283
Rajasthan,Tonk,Mehndwas,75.725,26.111
Rajasthan,Tonk,Tonk (Near Romji Garments),76.2542,26.3542
Rajasthan,Udaipur,Mavli1,73.983,24.783
Rajasthan,Udaipur,Semari,73.85,24.065
Tamil Nadu,Coimbatore,Ponnaiyur,76.9375,10.675
Tamil Nadu,Coimbatore,Vadavalli,76.9083,11.025
Tamil Nadu,Dharmapuri,Dharmapuri2,78.1708,12.1375
Tamil Nadu,Dharmapuri,Kaveripattinathankottai,78.1733,12.1461
Tamil Nadu,Dharmapuri,A.Pallipatti,78.4017,11.9403
Tamil Nadu,Dharmapuri,Echambadi Dw,78.4942,12.1128
Tamil Nadu,Dharmapuri,Harur2,78.4833,12.0514
Tamil Nadu,Dharmapuri,Mukkareddipatti,78.4167,11.9667
Tamil Nadu,Dharmapuri,Mullaivanam,78.6289,12.0975
Tamil Nadu,Dharmapuri,Thirthamalai Dw,78.5892,12.1017
Tamil Nadu,Dharmapuri,Karthankulam Dw,78.3197,12.1331
Tamil Nadu,Dharmapuri,Morappur Dw,78.3989,12.1247
Tamil Nadu,Dharmapuri,Odasalapatti X Road,78.2844,12.1431
Tamil Nadu,Dharmapuri,Athikarapatti,78.3909,11.934
Tamil Nadu,Dharmapuri,Boothanatham,78.4688,11.9508
Tamil Nadu,Dharmapuri,Sittilingiri,78.6212,11.9098
Tamil Nadu,Dharmapuri,Nagadasampatti,77.9833,12.1333
Tamil Nadu,Dharmapuri,Pattarakaran Kottai,77.8104,12.0274
Tamil Nadu,Dindigul,Natham1,78.2472,10.2222
Tamil Nadu,Kancheepuram,Perungulathur,80.1083,12.9167
Tamil Nadu,Kancheepuram,Kalakshetra,80.2636,10.4633
Tamil Nadu,Krishnagiri,Machinayampalli,77.7844,12.6156
Tamil Nadu,Krishnagiri,Kaveripatnam,78.2292,12.4125
Tamil Nadu,Krishnagiri,Enusonai,78.0175,12.6138
Tamil Nadu,Krishnagiri,Rayakottai,78.5111,12.5111
Tamil Nadu,Krishnagiri,Uttangarai,78.5292,12.2667
Tamil Nadu,Krishnagiri,Vanambli,78.555,12.3475
Tamil Nadu,Krishnagiri,Vappanapalli,78.1925,12.6998
Tamil Nadu,Madurai,Thirumangalam New,77.9792,9.8167
Tamil Nadu,Madurai,Madurai Rly Colony,78.1036,9.9272
Tamil Nadu,Nagapattinam,Valagarai,79.7483,10.6289
Tamil Nadu,Perambalur,Ranjankudi(Mangalamedu),78.9412,11.3472
Tamil Nadu,Perambalur,Veppur(Nallur),79.0636,11.3167
Tamil Nadu,Perambalur,Vijayagopalapuram,79.0314,11.27
Tamil Nadu,Pudukkottai,Aranthangi Dw,78.9981,10.175
Tamil Nadu,Pudukkottai,Tiruvadanai Dw,78.9149,9.7857
Tamil Nadu,Pudukkottai,Viralimalai Dw,78.5499,10.6083
Tamil Nadu,Ramanathapuram,Parthibanur Dw,78.4511,9.5805
Tamil Nadu,Ramanathapuram,Kizhakakarai,78.784,9.2394
Tamil Nadu,Salem,Athur,78.5861,11.5917
Tamil Nadu,Salem,S.K.Garden Nathimedi,78.125,11.6392
Tamil Nadu,Salem,Yercaud,78.2111,11.7833
Tamil Nadu,Thiruvannamalai,Chetpet1,79.3583,12.4611
Tamil Nadu,Thiruvannamalai,Polur,79.5167,12.5167
Tamil Nadu,Tiruvallur,Sangaibedu,80.2977,13.3298
Tamil Nadu,Tiruvallur,Kanakammachatrm,79.75,13.2083
Tamil Nadu,Trichy,Mudaliarchatram,78.6967,10.8003
Tamil Nadu,Trichy,Tiruvasi,78.5317,10.8906
Tamil Nadu,Trichy,Thiruvallarai,78.6675,10.9569
Tamil Nadu,Vellore,Chinnapallikuppam Pz,78.8386,12.7633
Tamil Nadu,Vellore,Ponnai,79.4264,13.1111
Tamil Nadu,Villupuram,Gingee,79.4076,12.2543
Tamil Nadu,Villupuram,Vellaiyur,79.3317,11.7043
Tamil Nadu,Virudhunagar,Palavanatham,78.075,9.5667
Tamil Nadu,Virudhunagar,Devadanam1,77.4656,9.3833
Tamil Nadu,Virudhunagar,Vembakkottai-Ow,77.7667,9.3333
Tamil Nadu,Virudhunagar,Mudukkankulam,78.2058,9.1508
Tamil Nadu,Virudhunagar,Pattampudur Ow,77.9336,9.4914
Tamil Nadu,Virudhunagar,Virudunagar,77.9542,9.5833
Uttar Pradesh,Agra,City(Sai Ki Takia Crossing),78.0095,27.1707
Uttar Pradesh,Agra,Block Office,78.0601,27.1206
Uttar Pradesh,Agra,Block Office,77.8919,27.1727
Uttar Pradesh,Agra,Block Office,77.6678,27.0942
Uttar Pradesh,Agra,Block Office,78.7049,26.8282
Uttar Pradesh,Aligarh,Shahwazpur,78.1504,27.7782
Uttar Pradesh,Aligarh,Block H.Q,78.3912,27.9254
Uttar Pradesh,Aligarh,Block H.Q,77.8796,27.8367
Uttar Pradesh,Aligarh,Kalua,77.8702,27.7678
Uttar Pradesh,Aligarh,Block H.Q,77.8364,27.9435
Uttar Pradesh,Allahabad/ Prayagraj,"Bdo, Office",82.1602,25.5215
Uttar Pradesh,Amethi,Pwd Dak Bangla,81.8086,26.1562
Uttar Pradesh,Auraiya,Bidhuna Block Office,79.5024,26.8025
Uttar Pradesh,Azamgarh,Block Office,83.0281,25.9621
Uttar Pradesh,Azamgarh,Block Office,83.0859,25.7832
Uttar Pradesh,Baghpat,In Block Office,77.3711,28.9378
Uttar Pradesh,Ballia,Block Office,84.2163,25.8742
Uttar Pradesh,Balrampur,Sonepur More,82.4877,27.5298
Uttar Pradesh,Balrampur,Block Office,82.5475,27.5294
Uttar Pradesh,Balrampur,Haraiya Bazar,82.2794,27.6559
Uttar Pradesh,Banda,Hand Pump Of Block Office,80.7094,25.5545
Uttar Pradesh,Banda,Narauli,80.4436,25.8604
Uttar Pradesh,Banda,Badhauni,80.8693,25.6152
Uttar Pradesh,Bulandshahar,Block H.Q,77.6918,28.4549
Uttar Pradesh,Bulandshahar,Gesupur,77.7012,28.5286
Uttar Pradesh,Chandauli,Sakaldiha,83.2583,25.3553
Uttar Pradesh,Chitrakoot,Rajapur,81.1488,25.3822
Uttar Pradesh,Farrukhabad,Block Office,79.4368,27.308
Uttar Pradesh,Farrukhabad,Block Office,79.6008,27.3396
Uttar Pradesh,Fatehpur,Hand Pump Of Block Office,81.1028,25.7698
Uttar Pradesh,Fatehpur,Chakiwa,81.0231,25.8929
Uttar Pradesh,Fatehpur,Block Office,80.7959,25.9522
Uttar Pradesh,Firozabad,Block Office,78.6074,27.3791
Uttar Pradesh,Firozabad,Block Office,78.407,27.2904
Uttar Pradesh,G.B. Nagar,Block H.Q,77.5559,28.3533
Uttar Pradesh,Ghaziabad,Near Meadows Café,77.4474,28.7214
Uttar Pradesh,Ghazipur,Block Office,83.3365,25.5462
Uttar Pradesh,Ghazipur,Biraich,83.5585,25.6117
Uttar Pradesh,Hamirpur,Hand Pump Of Block Office,79.9845,25.9788
Uttar Pradesh,Hamirpur,Urdana,80.1758,25.6228
Uttar Pradesh,Hamirpur,Bewar,79.9272,25.761
Uttar Pradesh,Hamirpur,Hand Pump Of Block Office,79.7946,25.6604
Uttar Pradesh,Hamirpur,Imaliya,79.9112,25.6592
Uttar Pradesh,Hamirpur,Hand Pump Of Block Office,79.6824,25.7729
Uttar Pradesh,Hamirpur,Lalpura,80.0449,25.8618
Uttar Pradesh,Hathras,Aharai,77.9512,27.5275
Uttar Pradesh,Hathras,Dist. H.Q,78.0551,27.573
Uttar Pradesh,Hathras,Block H.Q,78.0741,27.6911
Uttar Pradesh,Jaunpur,Block Office,82.7278,25.6717
Uttar Pradesh,Jhansi,Baral,78.8581,25.6122
Uttar Pradesh,Kanpur Dehat,Hand Pump Infront Of Shri Ramleela,79.9563,26.382
Uttar Pradesh,Kanpur Dehat,Mohammadpur,79.8977,26.3743
Uttar Pradesh,Kanpur Dehat,----Do----,79.7932,26.4175
Uttar Pradesh,Kanpur Dehat,Matikapur,80.1563,26.5159
Uttar Pradesh,Kanpur Dehat,Pitampur,79.6015,26.3906
Uttar Pradesh,Kanpur Nagar,Fazalganj  Police Station,80.1952,26.2337
Uttar Pradesh,Lalitpur,Kathwar,78.6617,24.8833
Uttar Pradesh,Mahoba,Bari,79.8887,25.5397
Uttar Pradesh,Mainpuri,Block Office,79.1071,27.1697
Uttar Pradesh,Mainpuri,Block Office,79.2656,27.0316
Uttar Pradesh,Mainpuri,"Near Katra Saman Chauraha, Shiv",79.1982,27.0305
Uttar Pradesh,Mathura,Block H.Q,77.5008,27.7262
Uttar Pradesh,Mathura,Block H.Q,77.3848,27.7165
Uttar Pradesh,Mathura,Block H.Q,77.7848,27.5495
Uttar Pradesh,Meerut,In Side Balajee Temple,77.6572,28.9433
Uttar Pradesh,Mirzapur,Chhanbey (Gaigpura),82.3939,25.1272
Uttar Pradesh,Pratapgarh,Block Office,82.0999,25.9072
Uttar Pradesh,Pratapgarh,Tonipur,81.8925,25.8892
Uttar Pradesh,Raebareli,Block Office,81.5184,26.1597
Uttar Pradesh,Raebareli,Block Office,80.9758,26.1705
Uttar Pradesh,Sant Ravidas Nagar,Bhadohi,82.5642,25.3953
Uttar Pradesh,Shamli,Kandela,77.2451,29.4287
Uttar Pradesh,Unnao,Block Office,80.6759,26.6211
Uttar Pradesh,Varanasi,Kashividyapeeth,82.9628,25.3064
West Bengal,Hooghly,Mashra (Ghoshpara),88.4122,23.1303
West Bengal,Howrah,Burikhali,88.297,22.589
West Bengal,Kolkata,Keorapukur,88.3463,22.4895
West Bengal,Malda,Choto Mohanpara (2),88.0472,25.0255
West Bengal,Malda,Deotala,88.0081,24.8547
West Bengal,Malda,Birnagar(1),87.952,24.8361
West Bengal,Murshidabad,Begunbari Dug,88.2776,23.921
West Bengal,North 24 Parganas,Rafipur,88.5132,22.8185
West Bengal,North 24 Parganas,Dharampukur,88.8151,23.085
West Bengal,Paschim Bardhaman,Burnpur,86.9462,23.6729
West Bengal,Paschim Bardhaman,Silampur(New),87.4321,23.4155
West Bengal,Purba Bardhaman,Haibatpur,88.0032,23.1473
West Bengal,South 24 Parganas,Dhopagachi,88.4006,22.3686
West Bengal,South 24 Parganas,Kulti,88.4608,22.5211
West Bengal,South 24 Parganas,Falta,88.1058,22.3021
West Bengal,South 24 Parganas,Arampur Gosaba,88.7988,22.1653
West Bengal,South 24 Parganas,Jotirampur Ferryghat,88.7991,22.1657
West Bengal,South 24 Parganas,Hatuganj,88.2539,22.1689
Karnataka,Bagalkot,Alagur,75.3486,16.5722
Karnataka,Bagalkot,Amingad,75.9417,16.0542
Karnataka,Bagalkot,Badagandi,75.6458,16.3467
Karnataka,Belgaum,Soundatti,75.1137,15.7644
Karnataka,Belgaum,Gumachinmaradi,74.6998,16.1001
Karnataka,Belgaum,Belakud,74.6537,16.3611
Karnataka,Belgaum,Eksamba,74.604,16.529
Karnataka,Belgaum,Rupnal,74.645,16.507
Karnataka,Vijayanagara,Uthangi,76.205,14.987
Karnataka,Bengaluru Rural,Kodagurki,77.7004,13.2999
Karnataka,Bengaluru Rural,Avathi,77.7246,13.2953
Karnataka,Bijapur,Bhudihaldon,76.1456,16.7103
Karnataka,Bijapur,Chadchan,75.6511,17.3111
Karnataka,Bijapur,Devanagao,76.3,17.1333
Karnataka,Bijapur,Huvinahipparagi,76.0772,16.5572
Karnataka,Bijapur,Maileswar A,76.3417,16.4667
Karnataka,Bijapur,Nebageri,76.1125,16.2833
Karnataka,Bijapur,Vibhutihalli,76.1833,17.1
Karnataka,Chamarajanagara,Maddur (Yelandur),77.0667,12.0778
Karnataka,Chamarajanagara,Hanur,77.3006,12.0917
Karnataka,Chikballapur,Gajalahalli,78.0666,13.3154
Karnataka,Chikballapur,Murugmale,78.1285,13.4413
Karnataka,Chikkamagaluru,Ajjampura,76.009,13.695
Karnataka,Chitradurga,Arehalli,76.173,14.042
Karnataka,Chitradurga,Belagur,76.293,13.628
Karnataka,Chitradurga,Biravara,76.3,14.293
Karnataka,Chitradurga,Dummi,76.067,14.029
Karnataka,Chitradurga,Gutikatte,76.226,13.885
Karnataka,Chitradurga,Hanumali,76.084,13.999
Karnataka,Chitradurga,Hartikote,76.649,14.071
Karnataka,Chitradurga,Maskallu,76.69,13.988
Karnataka,Chitradurga,Molakalmuru,76.75,14.716
Karnataka,Chitradurga,Talya,76.272,14.018
Karnataka,Davanagere,Attigere,75.993,14.322
Karnataka,Davanagere,Avaragere,75.963,14.41
Karnataka,Davanagere,Belavanoor,75.917,14.39
Karnataka,Davanagere,Byaladahalli,75.768,14.436
Karnataka,Davanagere,Harakanalu,75.834,14.847
Karnataka,Davanagere,Kukuvada,75.884,14.333
Karnataka,Davanagere,Mathi,75.885,14.286
Karnataka,Dharwad,Bidnal,75.1463,15.3293
Karnataka,Dharwad,Gudgeri,75.3667,15.1199
Karnataka,Dharwad,Morab,75.1588,15.5834
Karnataka,Dharwad,Tale Morab,75.1492,15.5562
Karnataka,Gadag,Basavapur,75.8339,15.1958
Karnataka,Gadag,Chabbi,75.5963,15.1712
Karnataka,Gadag,Dass Hadagali,75.6524,15.5849
Karnataka,Gadag,Gojanur,75.4994,15.1909
Karnataka,Gadag,Hirekoppa(Alt To Chikkoppa),75.6519,15.4776
Karnataka,Gadag,Hulkoti,75.5444,15.4245
Karnataka,Gadag,Hungundi,75.6901,15.783
Karnataka,Gadag,Kalikeri(A),75.8367,15.1639
Karnataka,Gadag,Laxmeswar(A),75.4703,15.1327
Karnataka,Gadag,Nargund,75.383,15.729
Karnataka,Gadag,Shirhatti,75.5804,15.2347
Karnataka,Haveri,Vadarayanahalli,75.7656,14.547
Karnataka,Kolar,Sangaandra,78.4033,13.2175
Karnataka,Kolar,Pethandahalli,78.5027,13.246
Karnataka,Kolar,Kurudmale,78.3674,13.2134
Karnataka,Koppal,Kuknoor,75.984,15.491
Karnataka,Koppal,K. Hosur,76.283,15.828
Karnataka,Koppal,K. Gonal,75.284,15.839
Karnataka,Koppal,Igalkere,76.318,15.344
Karnataka,Mandya,Anchedoddi,77.077,12.395
Karnataka,Mandya,Mandya Dw,76.885,12.531
Karnataka,Mandya,Shivanasamudra,77.1,12.25
Karnataka,Mysore,Ranganathapura,76.82,12.32
Karnataka,Mysore,Varuna,76.74,12.26
Karnataka,Mysore,Bheerya,76.34,12.59
Karnataka,Mysore,Badakanakoppalu,76.38,12.51
Karnataka,Mysore,Shiriyur,76.39,12.38
Karnataka,Mysore,Beeredevanapura/,76.52,11.93
Karnataka,Raichur,Mustoor,77.017,16.313
Karnataka,Raichur,Jalahalli A,76.768,16.368
Karnataka,Raichur,Hemanur,76.95,16.347
Karnataka,Raichur,Kurdi A,77.201,16.051
Karnataka,Raichur,Chikksarur,76.634,16.111
Karnataka,Raichur,Bomanhal,76.334,16.072
Karnataka,Raichur,Lingasugur A,76.517,16.117
Karnataka,Raichur,Hanchihal,76.668,15.239
Karnataka,Raichur,Jawalgeri A,76.801,15.865
Karnataka,Ramanagara,Hegganur,77.45,12.333
Karnataka,Tumkur,Huliyar,76.5548,13.5848
Karnataka,Tumkur,Irkasandra,76.9454,13.4144
Karnataka,Tumkur,Medihalli,76.5297,13.3916
Karnataka,Tumkur,Suragondanahalli,76.4321,13.4057
Karnataka,Yadgir,Hunsagi,76.5202,16.4583
Karnataka,Yadgir,Malla K,76.5656,16.7394
Karnataka,Yadgir,Managinahal,77.037,16.7172
Karnataka,Yadgir,Ukkinal,76.664,16.756
Karnataka,Gadag,Shirhatti 1,75.5675,15.2292
Karnataka,Raichur,Galaga,76.83,16.27
Karnataka,Raichur,Bagalwad,76.88,16.27
Karnataka,Raichur,Shaktinagar,77.27,16.27
Karnataka,Raichur,Chikbergi,76.5,15.76
Karnataka,Raichur,Sindhnur,76.75,15.31
Haryana,Ambala,Balana,76.73,30.32
Haryana,Ambala,Mohra,76.854,30.2677
Haryana,Ambala,Pinjokhara,76.8458,30.4083
Haryana,Bhiwani,Sui,76.0592,28.8631
Haryana,Bhiwani,Damkora,75.7147,28.5043
Haryana,Bhiwani,Gujrani,76.17,28.8456
Haryana,Bhiwani,Mehrana,76.3261,28.555
Haryana,Bhiwani,Paju,75.6704,28.5638
Haryana,Bhiwani,Patwan,75.6157,28.6231
Haryana,Bhiwani,Patodi,75.8106,28.7944
Haryana,Faridabad,Ballabgarh,77.335,28.347
Haryana,Fatehabad,Samain,75.9373,29.6191
Haryana,Fatehabad,Bighar,75.4541,29.4466
Haryana,Fatehabad,Bangaon,75.4242,29.4493
Haryana,Fatehabad,Dariyapur,75.3516,29.5322
Haryana,Fatehabad,Haroli,75.4631,29.6533
Haryana,Fatehabad,Nagpur,75.4228,29.6417
Haryana,Gurugram,Siwari,76.7277,28.4632
Haryana,Gurugram,Wazirpur,76.9179,28.422
Haryana,Gurugram,Halley Mandi,76.771,28.313
Haryana,Gurugram,Ikbalpur,76.9164,28.472
Haryana,Hisar,Nangthala,75.7051,29.3283
Haryana,Hisar,Litani,75.9786,29.4787
Haryana,Hisar,Singhwa Khas,76.2268,29.0189
Haryana,Hisar,Balawas,75.8222,28.9583
Haryana,Hisar,Rajthal,76.1911,29.256
Haryana,Jhajjar,Mandothi,76.8156,28.7024
Haryana,Jhajjar,Wazirpur,76.57,28.6825
Haryana,Jind,Raichandwala,76.4174,29.3966
Haryana,Jind,Haibtatpur,76.3476,29.3369
Haryana,Jind,Kharal,76.0654,29.6976
Haryana,Jind,Kishanpura,76.3214,29.2956
Haryana,Jind,Jhamola,76.34,29.1404
Haryana,Jind,Kinana,76.4148,29.2416
Haryana,Jind,Rojhla,76.6025,29.3637
Haryana,Jind,Surbrah,76.071,29.4866
Haryana,Jind,Uchana,76.1877,29.4775
Haryana,Kaithal,Balbehra,76.3947,30.0253
Haryana,Kaithal,Balhera,76.6614,29.8472
Haryana,Kaithal,Manaspatti,76.3367,29.8173
Haryana,Kaithal,Kelram,76.3623,29.7017
Haryana,Kaithal,Matour,76.2658,29.618
Haryana,Kaithal,Barsana,76.5985,29.7171
Haryana,Kaithal,Bhana,76.5184,29.666
Haryana,Kaithal,Jatheri,76.5539,29.7507
Haryana,Kaithal,Siwan,76.36,29.8751
Haryana,Karnal,Assandh Ruralpart,76.6298,29.5179
Haryana,Karnal,Gangteri,76.48,29.48
Haryana,Karnal,Jalwana,76.71,29.59
Haryana,Karnal,Padha,76.7633,29.5825
Haryana,Karnal,Sonkra,76.88,29.7847
Haryana,Karnal,Nissing,76.7932,29.6864
Haryana,Karnal,Jundla,76.875,29.65
Haryana,Kurukshetra,Pabnawa,76.6582,29.8946
Haryana,Kurukshetra,Isaque,76.4917,30.0167
Haryana,Mahendragarh,Narnaul,76.1125,28.05
Haryana,Mewat,Malab,77.0124,28.0404
Haryana,Mewat,(Buda) Dhudholi,77.217,27.829
Haryana,Mewat,Gulaltha,77.1792,27.9167
Haryana,Mewat,Sikarwa,77.1415,27.9508
Haryana,Mewat,Indri,77.1003,28.1892
Haryana,Palwal,Kondal,77.2674,28.0123
Haryana,Panchkula,Batwal,76.9918,30.5905
Haryana,Panipat,Khaila Majran,76.77,29.29
Haryana,Panipat,Puther,76.87,29.22
Haryana,Panipat,Urlana Kalan,76.6717,29.34
Haryana,Panipat,Panipat Taraf Afghan,76.9889,29.3709
Haryana,Panipat,Dakadla,77.0667,29.2236
Haryana,Panipat,Dehra,77.0687,29.2089
Haryana,Rohtak,Kahnaur,76.4843,28.7597
Haryana,Rohtak,Madina,76.4342,28.9394
Haryana,Rohtak,Nidhana,76.3747,29.0117
Haryana,Rohtak,Rukhi,76.6491,29.0334
Haryana,Sirsa,Biruwala Gudha,75.0572,29.7059
Haryana,Sirsa,Raghuana,74.9812,29.6991
Haryana,Sirsa,Rampura Bishnoian,74.7856,29.7692
Haryana,Sirsa,Rasaliya Khera,74.7667,29.7167
Haryana,Sirsa,Kumharia,75.1529,29.2514
Haryana,Sonipat,Bhanwar,76.9528,29.1568
Haryana,Sonipat,Pugthala,76.8726,29.2174
Haryana,Sonipat,Khanpur,76.7956,29.1579
Haryana,Sonipat,Sahoti-R,76.9369,28.8036
Haryana,Sonipat,Sisnah,76.84,28.9019
Haryana,Sonipat,Murthal,77.0846,29.0356
Haryana,Sonipat,Khatker,77.164,28.8745
Haryana,Sonipat,Pinana,76.825,29.0655
Haryana,Sonipat,Salimsar Majra,76.8702,28.997
Punjab,Amritsar,Bhindi Saidan,74.641,31.811
Punjab,Amritsar,Boparai Baj Singh,74.7393,31.6447
Punjab,Amritsar,Chogawan,74.6651,31.7039
Punjab,Amritsar,Dala,74.5894,31.6715
Punjab,Amritsar,Chogawan,75.1221,31.6625
Punjab,Amritsar,Amritsar Urban-07,74.8346,31.6315
Punjab,Barnala,Barnala,75.5325,30.3592
Punjab,Barnala,Kot Duna,75.3228,30.1876
Punjab,Barnala,Pandori,75.6145,30.5486
Punjab,Barnala,Chananwal,75.4838,30.5049
Punjab,Barnala,Mehal Kalan,75.559,30.523
Punjab,Barnala,Bahadaur,75.324,30.475
Punjab,Barnala,Chung,75.4106,30.4617
Punjab,Bathinda,Balluana,74.782,30.2236
Punjab,Bathinda,Kot Shamir,75.0083,30.1125
Punjab,Bathinda,Nahianwala,74.9097,30.3056
Punjab,Bathinda,Kothaguru,75.0997,30.4336
Punjab,Bathinda,Jandanwala,75.259,29.8725
Punjab,Bathinda,Mehma Bhagwana,74.8162,3.2862
Punjab,Bathinda,Ramgarh Bhundar,75.0949,30.0773
Punjab,Bathinda,Dial Pur Bhlaike,75.133,30.396
Punjab,Bathinda,Dial Pur Mirja,75.1167,30.4167
Punjab,Bathinda,Rampur Phull,75.1667,30.25
Punjab,Bathinda,Mansa Khurd,75.3857,29.9873
Punjab,Bathinda,Pirkot,75.3238,30.139
Punjab,Bathinda,Badiala,75.32,30.23
Punjab,Bathinda,Chak Hira Singhwala Urf Pakka Khurd,74.8719,30.0052
Punjab,Bathinda,Jassi Bhagwali,74.801,30.068
Punjab,Bathinda,Ram Tirath Jaga,75.1506,29.9517
Punjab,Bathinda,Raman,74.9613,29.968
Punjab,Bathinda,Bhagi Bandar,75.067,30.031
Punjab,Bathinda,Gurusar,75.092,29.993
Punjab,Bathinda,Maiser Khanna,75.5028,30.1528
Punjab,Faridkot,Chand Baja,74.862,30.739
Punjab,Faridkot,Deep Singh Wala,74.4792,30.7389
Punjab,Faridkot,Kamiana,74.7318,30.6557
Punjab,Faridkot,Mumaru,74.656,30.708
Punjab,Faridkot,Pakka,74.8004,30.7065
Punjab,Faridkot,Tehna,74.4726,30.4121
Punjab,Faridkot,Sadiq,74.656,30.71
Punjab,Faridkot,Fatehgarh,74.9453,30.4059
Punjab,Faridkot,Romana Ajit Singh,75.0186,30.4016
Punjab,Faridkot,Killi,74.483,30.841
Punjab,Fatehgarh Sahib,Ramgarh,76.198,30.6591
Punjab,Fatehgarh Sahib,Bhangrana,76.578,30.611
Punjab,Fazilka,Abohar,74.1901,30.148
Punjab,Fazilka,Dhaban Kokaryan,74.327,30.122
Punjab,Fazilka,Khatwa,74.1839,30.283
Punjab,Fazilka,Sitogano,74.3602,30.029
Punjab,Fazilka,Deepulana,74.099,30.453
Punjab,Fazilka,Kauranwali,74.056,30.383
Punjab,Fazilka,Chak Panj Kohi,74.2922,30.5189
Punjab,Fazilka,Sohangarh,74.389,30.601
Punjab,Fazilka,Sabuana,74.0037,3.3301
Punjab,Fazilka,Khuiyan Serovar,74.078,30.113
Punjab,Fazilka,Ranjitgarh,74.443,30.6104
Punjab,Ferozepur,Lalleh,74.8948,30.8423
Punjab,Ferozepur,Mohkamwala,74.8199,30.8935
Punjab,Ferozepur,Ghangakhala,74.3385,30.5753
Punjab,Ferozepur,Sham Singhwala,74.5119,30.7921
Punjab,Ferozepur,Mansurwal,74.9818,30.9271
Punjab,Hoshiarpur,Mahilpur,76.0417,31.3583
Punjab,Kapurthala,Fatehgarh,75.8244,31.2448
Punjab,Kapurthala,Madhopur,75.7128,31.2832
Punjab,Ludhiana,Mallah,75.4015,30.6862
Punjab,Ludhiana,Rohnon Kalan,76.1342,30.6476
Punjab,Ludhiana,Ber Khurd,75.9745,30.6572
Punjab,Ludhiana,Ramgarh Sardaran,75.9073,30.6401
Punjab,Ludhiana,Jatpura,75.5,30.6789
Punjab,Mansa,Dhalewan,75.5756,30.0278
Punjab,Mansa,Kotra Kalan,75.493,30.055
Punjab,Mansa,Borawal,75.5421,29.9986
Punjab,Mansa,Juglan,75.6985,29.8277
Punjab,Mansa,Saswali,75.6121,29.8294
Punjab,Mansa,Dialpura,75.665,29.893
Punjab,Mansa,Kot Dharmu,75.461,29.908
Punjab,Mansa,Budhlada,75.542,29.93
Punjab,Mansa,Dalelwala,75.4169,29.8283
Punjab,Mansa,Burj Bhalaika,75.279,29.84
Punjab,Mansa,Burj Rathi,75.3419,30.0786
Punjab,Mansa,Jawaharke,75.4045,29.9676
Punjab,Mansa,Kalho,75.2708,3.0292
Punjab,Mansa,Khiala Khurd,75.4382,30.0443
Punjab,Mansa,Khokhar Kalan,75.3464,3.0217
Punjab,Mansa,Mansa,75.3857,29.9873
Punjab,Mansa,Nangal Khurd,75.3788,29.9369
Punjab,Mansa,Adamke,75.3255,29.7112
Punjab,Mansa,Fatta Maluka,75.2833,29.8
Punjab,Moga,Rajiana,75.0723,30.6601
Punjab,Moga,Randiala,75.0999,30.9209
Punjab,Moga,Chougawan,75.269,30.836
Punjab,Moga,Darapur,74.9589,30.8414
Punjab,Moga,Nihal Singh Wala,75.2783,30.5933
Punjab,Muktsar,Lambi,74.3626,30.0325
Punjab,Muktsar,Kabarwala,74.41,30.193
Punjab,Muktsar,Khandehalal,74.403,30.364
Punjab,Muktsar,Bhalaiana,74.4247,30.1949
Punjab,Muktsar,Labanianwali,74.3253,30.3509
Punjab,Muktsar,Madahar Kalan,74.6783,30.5499
Punjab,Muktsar,Mahan Bhaddar,74.4428,30.413
Punjab,Muktsar,Sheranwali,74.4644,30.0317
Punjab,Nawanshahr,Taunsa,76.4405,31.0052
Punjab,Patiala,Hari Majra,76.607,30.319
Punjab,Patiala,Lacharu Kalan,76.64,30.3433
Punjab,Patiala,Rajgarh,76.7322,30.4156
Punjab,Patiala,Ramgarh,76.7147,30.555
Punjab,Patiala,Sangat Pura Panki,76.2258,30.3425
Punjab,Patiala,Bir Kauli,76.514,30.414
Punjab,Patiala,Ranbirpura,76.3239,30.328
Punjab,Patiala,Basma Pepla,76.4069,30.685
Punjab,Patiala,Chhat,76.796,30.614
Punjab,Patiala,Nariana,76.579,30.612
Punjab,Patiala,Rajpura,76.5889,30.4753
Punjab,Patiala,Thuha,76.6636,30.501
Punjab,Patiala,Balbhera,76.3585,30.1579
Punjab,Patiala,Mardan Heri,76.2054,30.0563
Punjab,Sangrur,Bhulan,76.01,29.763
Punjab,Sangrur,Bhuraj,76.0445,30.2356
Punjab,Sangrur,Benra,75.848,30.338
Punjab,Sangrur,Chural Kalan,75.8,29.819
Punjab,Sangrur,Badru Khan,75.7971,30.2507
Punjab,Sangrur,Illwal,75.89,30.208
Punjab,Sangrur,Lohgowal,75.675,30.192
Punjab,Sangrur,Sangrur Ow,75.8412,30.2565
Punjab,Sangrur,Togawal,75.6095,30.158
Punjab,Sangrur,Kamalpur,76.0449,30.116
Punjab,Sangrur,Sunam,76.3539,30.6097
Punjab,Sas Nagar,Gholu Majra,76.824,30.533
Punjab,Sas Nagar,Handesra,76.892,30.417
Punjab,Sas Nagar,Issapur,76.8299,30.5942
Punjab,Sas Nagar,Joli,76.9,30.55
Punjab,Sas Nagar,Malakpur,76.8545,30.4779
Punjab,Sas Nagar,Landran,76.6637,30.6952
Punjab,Tarn Taran,Nathupur Toda,74.9012,31.2906
Andhra Pradesh,Alluri Sita Rama Raju,Folkspeta,81.8398,17.3139
Andhra Pradesh,Anakapalli,Kotauratla,82.6866,17.5649
Andhra Pradesh,Anakapalli,Narsipatnam,82.5956,17.6761
Andhra Pradesh,Anakapalli,Kothakota,82.7051,17.7562
Andhra Pradesh,Ananthapur,Guntakal2,77.3837,15.1557
Andhra Pradesh,Ananthapur,Gooty-Alt,77.64,15.1179
Andhra Pradesh,Ananthapur,Kalyandurg-Alt,77.1071,14.5483
Andhra Pradesh,Ananthapur,Waddipalli,77.4562,14.6777
Andhra Pradesh,Ananthapur,Rekulakunta-Pz,77.669,14.693
Andhra Pradesh,Ananthapur,Viruppalli,77.14,14.64
Andhra Pradesh,Ananthapur,Gonchireddi Palli,77.0173,14.592
Andhra Pradesh,Ananthapur,Gooty,77.6155,15.1132
Andhra Pradesh,Ananthapur,N. Chekkepalli,77.9216,15.056
Andhra Pradesh,Ananthapur,Regadikotturu,77.6238,14.7663
Andhra Pradesh,Ananthapur,Gummagatta,76.8669,14.5694
Andhra Pradesh,Ananthapur,Regadikotturu,77.6233,14.7664
Andhra Pradesh,Annamayya,Kalakoda,78.7878,13.8275
Andhra Pradesh,Annamayya,Madanapalle,78.5015,13.5564
Andhra Pradesh,Annamayya,"Somalavandlapalli,",78.6286,14.1331
Andhra Pradesh,Annamayya,Papireddygaripalli,78.7333,13.7528
Andhra Pradesh,Annamayya,Ramapuram,78.7604,14.1937
Andhra Pradesh,Annamayya,"Kayalwandlapalli,",78.6865,13.9207
Andhra Pradesh,Bapatla,Repalle,80.8397,16.0288
Andhra Pradesh,Bapatla,Nijampatnam,80.6639,15.9024
Andhra Pradesh,Chittoor,Karvetnagar1,79.4531,13.4262
Andhra Pradesh,Chittoor,Venkatagirikota,78.4793,13.0008
Andhra Pradesh,Chittoor,Tayyuru,79.3113,13.3029
Andhra Pradesh,Chittoor,Chittoor,79.0981,13.2075
Andhra Pradesh,Chittoor,Chittipirala,79.1209,13.4171
Andhra Pradesh,Chittoor,Aragonda,78.9605,13.2779
Andhra Pradesh,Chittoor,Pudipatla,78.6375,13.3925
Andhra Pradesh,Chittoor,T Kothur,78.6831,13.3507
Andhra Pradesh,Chittoor,Rallabaduguru,78.3452,12.8567
Andhra Pradesh,Chittoor,Gollakandrika,79.696,13.3234
Andhra Pradesh,Chittoor,Yadamari,79.0383,13.1605
Andhra Pradesh,Chittoor,Brahmanapalle,79.3,13.43
Andhra Pradesh,Chittoor,Govardhanagiri,78.8914,13.1629
Andhra Pradesh,Chittoor,Govardhanagiri,78.8914,13.163
Andhra Pradesh,Chittoor,Chittoor,79.0967,13.1937
Andhra Pradesh,Chittoor,Nangamangalam,79.1832,13.0412
Andhra Pradesh,Chittoor,Govindapalle,78.4561,12.8156
Andhra Pradesh,Chittoor,Rompicherla,79.0438,13.6703
Andhra Pradesh,Chittoor,Somala,78.8106,13.4769
Andhra Pradesh,Chittoor,Kothapalli,79.0473,13.4282
Andhra Pradesh,Chittoor,Ugranampalli,79.1859,13.322
Andhra Pradesh,Chittoor,Ugranampalli,79.186,13.322
Andhra Pradesh,Chittoor,Netteri (Kaipakkam),79.668,13.3429
Andhra Pradesh,Chittoor,Nallisettipalli,79.0336,13.2219
Andhra Pradesh,Chittoor,Dhandikuppam,78.4435,12.8681
Andhra Pradesh,East Godavari,Bhavujipet,81.8467,17.2083
Andhra Pradesh,East Godavari,Gopalpuram,81.5482,17.1011
Andhra Pradesh,East Godavari,Tallapudi,81.6687,17.124
Andhra Pradesh,East Godavari,Dondapudi,81.544,17.2097
Andhra Pradesh,East Godavari,Lakshmipuram,81.0484,17.7197
Andhra Pradesh,Eluru,Kaikaluru1,81.2006,16.5451
Andhra Pradesh,Eluru,Kopparagudem (Upparagudem),81.1741,16.4083
Andhra Pradesh,Eluru,Palevada,81.2867,16.5794
Andhra Pradesh,Eluru,Sarepalle,81.4654,16.6886
Andhra Pradesh,Eluru,Majeru,81.0205,16.1287
Andhra Pradesh,Guntur,Ponnekallu,80.4022,16.4043
Andhra Pradesh,Guntur,Thullur,80.4703,16.5305
Andhra Pradesh,Guntur,Kollipara,80.7496,16.2866
Andhra Pradesh,Guntur,Kolakaluru,80.6189,16.3032
Andhra Pradesh,Kakinada,Uppada,82.3355,17.0805
Andhra Pradesh,Kakinada,Fishing Horbour,82.2757,16.985
Andhra Pradesh,Kakinada,Santhacheruvu,82.237,16.9503
Andhra Pradesh,Kakinada,Tallarevu,82.2303,16.7828
Andhra Pradesh,Kakinada,Chollangi,82.2339,16.8854
Andhra Pradesh,Konaseema,Vegayamma Peta,82.0879,16.7764
Andhra Pradesh,Konaseema,Mummidivarampad,81.8325,16.7029
Andhra Pradesh,Konaseema,Kothapeta,81.8964,16.7159
Andhra Pradesh,Konaseema,Annaipeta,82.066,16.7898
Andhra Pradesh,Konaseema,Draksharamam,82.0637,16.7921
Andhra Pradesh,Konaseema,Ainavalli,82.0125,16.6613
Andhra Pradesh,Konaseema,Rally,81.8027,16.7796
Andhra Pradesh,Konaseema,Mummidivaram,82.1014,16.6442
Andhra Pradesh,Krishna,Bantumilli1,81.2722,16.3697
Andhra Pradesh,Krishna,Angaluru,81.0343,16.3819
Andhra Pradesh,Krishna,Pedana_New,81.1495,16.2584
Andhra Pradesh,Krishna,Gudlavalleru-New,81.0547,16.3436
Andhra Pradesh,Krishna,Kurumaddali,80.9261,16.3311
Andhra Pradesh,Krishna,Ayyanki,80.9437,16.2657
Andhra Pradesh,Krishna,Tadanki,80.8803,16.3581
Andhra Pradesh,Krishna,Gudur,81.0849,16.2201
Andhra Pradesh,Krishna,Mandapakala,81.0001,15.9741
Andhra Pradesh,Krishna,Kautaram,81.0778,16.3354
Andhra Pradesh,Krishna,Pamarru,80.9675,16.3218
Andhra Pradesh,Kurnool,Holagondi,77.0402,15.4896
Andhra Pradesh,Kurnool,Haradgiri-Pn-3,77.1882,15.3012
Andhra Pradesh,Kurnool,Naganathanahalli,77.2221,15.5607
Andhra Pradesh,Kurnool,Kodumuru,77.7736,15.6857
Andhra Pradesh,Kurnool,Gulyam,76.8355,15.3837
Andhra Pradesh,Kurnool,Sullavai,77.1222,15.4321
Andhra Pradesh,Kurnool,Adoni Kota Veerabhadra Swamigudi,77.2875,15.6667
Andhra Pradesh,Nellore,Muthukuru1,80.0947,14.2901
Andhra Pradesh,Nellore,Ramathirdam,80.1429,14.6399
Andhra Pradesh,Nellore,Kondapuram,79.6821,14.9923
Andhra Pradesh,Nellore,Tatiparthi-Alt,79.7661,14.5179
Andhra Pradesh,Nellore,Kaligiri,79.6965,14.8287
Andhra Pradesh,Nellore,Nellore,79.9642,14.4366
Andhra Pradesh,Nellore,Aduripalli,79.6046,14.4426
Andhra Pradesh,Nellore,Nagulavellaturu,79.5195,14.4942
Andhra Pradesh,Nellore,Bodipadu,79.575,14.5164
Andhra Pradesh,Nellore,Karatamoadu,79.5385,14.6795
Andhra Pradesh,Nellore,Vasili,79.6727,14.617
Andhra Pradesh,Nellore,Isakapalli,80.0968,14.7334
Andhra Pradesh,Nellore,Vadlapudi,79.7792,14.3031
Andhra Pradesh,Nellore,Bitragunta,80.0031,14.766
Andhra Pradesh,Nellore,Kandukur,79.9115,15.2185
Andhra Pradesh,Nellore,Chagollu,80.0065,15.1169
Andhra Pradesh,Nellore,Pentrala,79.7147,15.0722
Andhra Pradesh,Nellore,Malakonda,79.6387,15.1152
Andhra Pradesh,Nellore,Alluru,80.0497,14.6711
Andhra Pradesh,Nellore,Mutukuru,80.09,14.2957
Andhra Pradesh,Nellore,Althurthy,79.6923,14.4427
Andhra Pradesh,Nellore,Boyila Chiruvella,79.5606,14.6799
Andhra Pradesh,Nellore,Somalaregada,79.3667,14.8582
Andhra Pradesh,Nellore,Somalaregada,79.3668,14.8582
Andhra Pradesh,Nellore,Turpu Rompidodla,79.5046,15.036
Andhra Pradesh,Nellore,Bata (Naginenigunta Gp),79.2191,14.7178
Andhra Pradesh,Nellore,Gannepalli,79.278,14.9441
Andhra Pradesh,Nellore,Narrawada,79.4159,14.9001
Andhra Pradesh,Nellore,Pallavolu,79.3597,14.6447
Andhra Pradesh,Nellore,Rapuru,79.5621,14.1989
Andhra Pradesh,Nellore,Rapuru,79.5621,14.1992
Andhra Pradesh,Nellore,Ramanujapuram,79.7791,14.9477
Andhra Pradesh,Nellore,Bhyravaram,79.4569,14.7746
Andhra Pradesh,Ntr,Tiruvur,80.6142,17.1143
Andhra Pradesh,Ntr,Kakarla,80.6353,17.0561
Andhra Pradesh,Ntr,Gampala Gudem,80.5242,16.9996
Andhra Pradesh,Ntr,Tiruvuru-Pz,80.613,17.0987
Andhra Pradesh,Ntr,Itavaram,80.3044,16.735
Andhra Pradesh,Ntr,Vissannapet-New,80.7835,16.942
Andhra Pradesh,Ntr,Veenagadapa,80.5312,16.9721
Andhra Pradesh,Ntr,Ramchandrapuram,80.6393,16.8726
Andhra Pradesh,Ntr,Narasimha Rao Palem,80.4281,16.7221
Andhra Pradesh,Palnadu,Rentachintala,79.5477,16.5514
Andhra Pradesh,Palnadu,Krosur,80.1393,16.5429
Andhra Pradesh,Palnadu,Pisapadu,80.1431,16.4979
Andhra Pradesh,Palnadu,Guttikonda,79.8322,16.4306
Andhra Pradesh,Palnadu,Rompicherla,79.9133,16.21
Andhra Pradesh,Palnadu,Chikatigalapalem,79.6903,16.0067
Andhra Pradesh,Palnadu,Timmapuram,80.2048,16.1491
Andhra Pradesh,Palnadu,Inovolu,79.6704,15.9932
Andhra Pradesh,Palnadu,Vykuntapuram,80.4127,16.566
Andhra Pradesh,Palnadu,Gonuguntla Varipalem,79.7929,16.0276
Andhra Pradesh,Palnadu,Narakullapadu,80.3663,16.5329
Andhra Pradesh,Palnadu,Sattenapalli,80.1479,16.4063
Andhra Pradesh,Palnadu,Maddirala,80.0909,16.0947
Andhra Pradesh,Palnadu,Kavuru-Ew,80.1205,16.1394
Andhra Pradesh,Palnadu,Kavuru-Ow,80.1212,16.1419
Andhra Pradesh,Palnadu,Uppalapadu,80.0299,16.1938
Andhra Pradesh,Palnadu,Bommarajupalli,79.7864,16.2742
Andhra Pradesh,Palnadu,Inametla,79.9825,16.3784
Andhra Pradesh,Parvathipuram Manyam,Saluru,83.2076,18.5245
Andhra Pradesh,Parvathipuram Manyam,Chilakalapalli,83.5333,18.593
Andhra Pradesh,Prakasham,Guttalaumadivrm,79.5581,16.0164
Andhra Pradesh,Prakasham,Tadivaripalli,79.2755,15.5899
Andhra Pradesh,Prakasham,Venkupalem,79.7413,15.3029
Andhra Pradesh,Prakasham,Venkupalem,79.7469,15.3022
Andhra Pradesh,Prakasham,Ayyavarepalli,79.5663,15.1126
Andhra Pradesh,Prakasham,Bestavaripeta,79.1088,15.5537
Andhra Pradesh,Prakasham,Dhupadu,79.3669,15.9164
Andhra Pradesh,Prakasham,Uyyalavada,78.8953,15.2133
Andhra Pradesh,Prakasham,Nandanavanam,79.2733,15.4669
Andhra Pradesh,Prakasham,Malepadu,79.7106,15.2397
Andhra Pradesh,Prakasham,Juvvigunta,79.7289,15.4339
Andhra Pradesh,Prakasham,Kondepi,79.8681,15.4133
Andhra Pradesh,Prakasham,Guntu Palle,79.5308,15.1504
Andhra Pradesh,Prakasham,Uppalapadu,79.7546,15.5857
Andhra Pradesh,Prakasham,Ravipadu,79.153,15.5739
Andhra Pradesh,Prakasham,Chitlamitta,79.2588,15.8908
Andhra Pradesh,Prakasham,Pachala Venkatapuram,79.1276,15.3997
Andhra Pradesh,Prakasham,Maguturu,79.0833,15.6913
Andhra Pradesh,Prakasham,Yerrabalem,79.0154,15.5606
Andhra Pradesh,Prakasham,Y.Cherlopalle,78.9589,15.8779
Andhra Pradesh,Prakasham,Chettireddypalle,78.9091,15.3575
Andhra Pradesh,Prakasham,Laxmakka Palli,79.3548,15.6371
Andhra Pradesh,Sri Satya Sai,Penukonda,77.5976,14.0863
Andhra Pradesh,Sri Satya Sai,Madakasira1,77.276,13.9411
Andhra Pradesh,Sri Satya Sai,Ingaluru,78.0388,14.0453
Andhra Pradesh,Sri Satya Sai,Penukonda-Pz,77.597,14.0865
Andhra Pradesh,Sri Satya Sai,Kanchisamudrqam,77.6117,13.7752
Andhra Pradesh,Sri Satya Sai,"Timmalapuram, Ew Of Aq-Ii",77.0612,13.9657
Andhra Pradesh,Sri Satya Sai,"Madhudi, Ew Of Aq-Ii",77.0236,13.8186
Andhra Pradesh,Sri Satya Sai,Amadguru,78.0227,13.8886
Andhra Pradesh,Sri Satya Sai,Charupalle,78.0765,14.1953
Andhra Pradesh,Sri Satya Sai,Mohammadabad,78.008,13.9713
Andhra Pradesh,Sri Satya Sai,Inagaluru,78.0403,14.0449
Andhra Pradesh,Sri Satya Sai,Dubbaraparthi,77.3788,14.344
Andhra Pradesh,Sri Satya Sai,Kanumukkala,77.7508,14.3052
Andhra Pradesh,Sri Satya Sai,Kodavandlapalli,77.9629,14.4677
Andhra Pradesh,Sri Satya Sai,Kodavandlapalli,77.9629,14.4677
Andhra Pradesh,Sri Satya Sai,Kodavandlapalli,77.9629,14.4677
Andhra Pradesh,Sri Satya Sai,Kotlapalli,77.7201,14.0732
Andhra Pradesh,Sri Satya Sai,Kotlapalli,77.7201,14.0732
Andhra Pradesh,Sri Satya Sai,Madulacheruvu,77.3586,14.4294
Andhra Pradesh,Sri Satya Sai,Dodagatta,77.3711,14.0283
Andhra Pradesh,Sri Satya Sai,Dodagatta,77.3711,14.0283
Andhra Pradesh,Srikakulam,Aldu,84.0536,18.5781
Andhra Pradesh,Srikakulam,Tharli Bodapadu,84.1842,18.5587
Andhra Pradesh,Srikakulam,Buragam,84.3094,18.6066
Andhra Pradesh,Tirupathi,Aravapalem,80.0384,13.9305
Andhra Pradesh,Tirupathi,Budankm,79.891,14.0722
Andhra Pradesh,Tirupathi,Gopalpuram (Or) Matu Madugu,79.6261,14.0216
Andhra Pradesh,Tirupathi,Ramareddypalem,80.0066,14.1404
Andhra Pradesh,Tirupathi,Damalcheruvu,79.0482,13.478
Andhra Pradesh,Tirupathi,Nilavaai,79.9008,13.6371
Andhra Pradesh,Tirupathi,Baita Kodiam Bedu,79.8143,13.3695
Andhra Pradesh,Tirupathi,Valivedu,79.0762,13.5272
Andhra Pradesh,Tirupathi,Puttur,79.5463,13.4574
Andhra Pradesh,Tirupathi,Madalli,79.9572,14.0412
Andhra Pradesh,Tirupathi,Kamakuru,79.7108,13.9711
Andhra Pradesh,Tirupathi,Ojilli,79.9068,14.002
Andhra Pradesh,Visakhapatnam,Bhimunipatnam-2,83.4521,17.8876
Andhra Pradesh,Visakhapatnam,Bandavaripalem X,83.2291,17.8324
Andhra Pradesh,Visakhapatnam,Lawson'S Bay,83.3417,17.7328
Andhra Pradesh,Vizianagaram,S.Kota,83.1378,18.1159
Andhra Pradesh,Vizianagaram,Lakkavarapu  Kota,83.1755,17.9673
Andhra Pradesh,Vizianagaram,Gowripuram,83.1318,18.155
Andhra Pradesh,Vizianagaram,Tarapuram,83.2538,18.5023
Andhra Pradesh,West Godavari,Attili,81.6052,16.686
Andhra Pradesh,West Godavari,Veeravasaram,81.606,16.5417
Andhra Pradesh,West Godavari,Undi,81.4613,16.5862
Andhra Pradesh,West Godavari,Akiveedu - Pz,81.3882,16.586
Andhra Pradesh,West Godavari,Vissakoduru,81.5713,16.5505
Andhra Pradesh,West Godavari,Polamuru,81.6409,16.6162
Andhra Pradesh,West Godavari,Penumantra,81.6488,16.6457
Andhra Pradesh,West Godavari,Narsimhapuram,81.5017,16.5582
Andhra Pradesh,West Godavari,Kolamuru,81.4673,16.6322
Andhra Pradesh,West Godavari,Amaravaram,81.0057,17.5853
Andhra Pradesh,Ysr Kadapa,Chowdariwaripalli,78.9521,14.832
Andhra Pradesh,Ysr Kadapa,Donkapalli Satram,78.1463,14.7315
Andhra Pradesh,Ysr Kadapa,Unknown,78.9788,14.7931
Andhra Pradesh,Ysr Kadapa,Mallegudupadu,78.5179,14.2098
Andhra Pradesh,Ysr Kadapa,Prabhalaveedu,79.0091,14.7926
Andhra Pradesh,Ysr Kadapa,Narsapuram,78.9292,15.0517
Andhra Pradesh,Ysr Kadapa,Nandimandalam,78.5247,14.407
Andhra Pradesh,Ysr Kadapa,Mahadevpally,78.5177,14.2097
Andhra Pradesh,Ysr Kadapa,"Machupally,",78.8939,14.4891
Andhra Pradesh,Ysr Kadapa,"Kumbagiri,",79.0369,14.5733
Telangana,Adilabad,Mandagada1,78.5608,19.7986
Telangana,Adilabad,Mandagada2,78.5615,19.7983
Telangana,B.Kothagudem,Tegad,80.8401,18.0379
Telangana,B.Kothagudem,Manuguru,80.8189,17.9365
Telangana,B.Kothagudem,Bomanapalli,80.5708,17.5704
Telangana,B.Kothagudem,Thungaram-Tekula Banjara1,80.6021,17.4336
Telangana,B.Kothagudem,Yellandu1,80.3448,17.5816
Telangana,B.Kothagudem,Baswataraka Colony,80.7273,17.6046
Telangana,B.Kothagudem,Markode2,80.5057,17.9103
Telangana,B.Kothagudem,Karakagudem,80.5714,18.0403
Telangana,B.Kothagudem,Bittu Thanda1,80.5063,17.4643
Telangana,B.Kothagudem,Bittu Thanda2,80.5063,17.4643
Telangana,B.Kothagudem,Yellandu2,80.3449,17.5813
Telangana,B.Kothagudem,Chintoni Chilka3,80.56,17.6351
Telangana,Hanamkonda,Yelakaturthy1,79.4494,18.0996
Telangana,Hanamkonda,Peechara,79.2937,17.9673
Telangana,Hyderabad,Shanti Nagar-Pz,78.4553,17.3981
Telangana,J.Bhupalapally,Vallamkuntla2,79.8271,18.6042
Telangana,Jagtial,Kothapet,79.1953,18.778
Telangana,Jagtial,Jagithyal  Pz,78.9096,18.7741
Telangana,Jagtial,Sirikonda,78.6983,18.7603
Telangana,Jangaon,Raghunathapalli-Pz,79.2622,17.7658
Telangana,Jangaon,Devrupala 1,79.3561,17.5377
Telangana,Jangaon,Vavillala  Pz,79.5025,17.62
Telangana,Jangaon,Uppugal,79.4611,17.8551
Telangana,Jangaon,Yellamala1,79.1162,17.7033
Telangana,Jogulamba,Mitta Nandimala,77.6836,16.3831
Telangana,Jogulamba,Alampur-Aq-I,78.1256,15.8792
Telangana,Jogulamba,Beechapally,77.9286,16.1603
Telangana,Jogulamba,Boravalle,77.975,16.0284
Telangana,Kamareddy,Pitlam,77.8505,18.3206
Telangana,Kamareddy,Biknoor,78.4129,18.1524
Telangana,Kb Asifabad,Asifabad,79.2833,19.3656
Telangana,Kb Asifabad,Rebbenna,79.4147,19.2596
Telangana,Khammam,Yerupalem,80.4707,16.822
Telangana,Khammam,Madira1,80.3648,16.9245
Telangana,Khammam,Enkur - Pz,80.4421,17.3369
Telangana,Khammam,Annarugudem,80.4263,17.2604
Telangana,Khammam,Rebbavaram,80.3367,17.1169
Telangana,Khammam,Rangam Banjar Malsur Tanda,80.5088,17.1947
Telangana,Khammam,Sitarampuram,80.6426,17.2008
Telangana,Khammam,Nakkalagarubu1,80.3538,16.9474
Telangana,Khammam,Adasarlapadu1,80.7079,17.1284
Telangana,Khammam,K.M Banjara (Telagavaram),80.6583,17.14
Telangana,Khammam,Vepakuntla,80.2261,17.2757
Telangana,Khammam,Yadavalli,80.0522,17.1952
Telangana,Khammam,Dendukuru2,80.4029,16.8942
Telangana,Khammam,Kattakuru2,80.0375,17.1745
Telangana,Khammam,Kattakuru3,80.0375,17.1745
Telangana,Khammam,Adasarlapadu2,80.7079,17.1284
Telangana,Mahabubabad,Inugurthi,79.805,17.6732
Telangana,Mahabubnagar,Devarakhadra,77.8383,16.6317
Telangana,Mahabubnagar,Kandur-Aq-I,77.96,16.5567
Telangana,Mahabubnagar,Ajilapur,77.8038,16.6916
Telangana,Mancherial,Jannaram,78.9965,19.117
Telangana,Mancherial,Jaipur,79.5857,18.8484
Telangana,Mancherial,Koteshwararaopalli,79.4586,18.9462
Telangana,Mancherial,Jaipur,79.5059,18.8484
Telangana,Medak,Yusuf Peta,78.1442,18.0492
Telangana,Medak,Rangampeta,78.117,17.9425
Telangana,Medchal Malkanjgiri,Thurkapally,78.5994,17.6697
Telangana,Mulugu,Projectnagar-3,80.1919,18.2463
Telangana,Nagarkurnool,Vangur-Pz,78.6211,16.6131
Telangana,Nagarkurnool,Jupally- Aq-I,78.6031,16.6592
Telangana,Nagarkurnool,Mamaipalli- Aq-I,78.1672,16.4733
Telangana,Nagarkurnool,Amarabad-Aq-I,78.82,16.3747
Telangana,Nagarkurnool,Kollapur-Aq-I,78.3075,16.1072
Telangana,Nagarkurnool,Janumpalle,78.2742,16.29
Telangana,Nagarkurnool,Bondalapalle,78.2826,16.4394
Telangana,Nagarkurnool,Mahasamudram1,78.3085,16.2199
Telangana,Nalgonda,Thungapadu,79.5027,16.831
Telangana,Nalgonda,Nidamanuru,79.3684,16.8227
Telangana,Nalgonda,Yellammagudem,79.4996,17.0803
Telangana,Nalgonda,Antampet-Pz-I,78.8917,17.0325
Telangana,Nalgonda,Antampet-Pz-Ii,78.8917,17.0323
Telangana,Nalgonda,Kurumapalli Aq-I,78.7949,16.8869
Telangana,Nalgonda,Kandakur,78.7839,16.655
Telangana,Nalgonda,Yellareddigudem1,79.2068,17.1583
Telangana,Nalgonda,Palwella1,79.0298,17.132
Telangana,Narayanpet,Dhanwada-Pz,77.6564,16.6411
Telangana,Narayanpet,Kalwal,77.6081,16.4226
Telangana,Narayanpet,Jawlapur,77.6268,16.5583
Telangana,Narayanpet,Rudrasamudram,77.5572,16.4635
Telangana,Nirmal,Kallur - Pz,78.1037,19.1043
Telangana,Pedapalle,Manthani1,79.6702,18.6521
Telangana,Pedapalle,Manthani3,79.6701,18.6521
Telangana,Rangareddy,Bata Singaram,78.7284,17.303
Telangana,Rangareddy,Kismatpur,78.3971,17.337
Telangana,Sangareddy,Narayankhed,77.7722,18.0389
Telangana,Sangareddy,Nizampet,77.8844,18.0955
Telangana,Sangareddy,Nizampet,77.8773,18.0941
Telangana,Siddipet,Dommata,78.9799,17.9763
Telangana,Siddipet,Nanganur,79.0461,18.0665
Telangana,Siddipet,Nanganoor1,79.0327,18.0582
Telangana,Suryapet,Kudakuda,79.6278,17.1649
Telangana,Suryapet,Balwemla,79.5955,17.2103
Telangana,Vikarabad,Goka Paslabad,77.5736,16.9603
Telangana,Wanaparthy,Ramanpadu,77.8636,16.3592
Telangana,Wanaparthy,Veepangandla,78.1379,16.1146
Telangana,Wanaparthy,Kistagiri,78.0083,16.3009
Telangana,Wanaparthy,Mummallapalle,77.9503,16.32
Telangana,Warangal,Urugonda,79.6899,18.0683
Telangana,Warangal,Sangem,79.7129,17.8825
Telangana,Warangal,Ashok Nagar,79.951,17.954
Telangana,Warangal,Nekkonda,79.783,17.7917
Telangana,Warangal,Dammannapet,79.5218,17.7526
Telangana,Warangal,Gangadevipally,79.7149,17.9599
Telangana,Yadadri Bhuvanagiri,Nagaram,79.0341,17.3579
Delhi,South West,Dwarka Sec-23 Dda Park,77.0508,28.5672
Delhi,South West,Dwarka Sec-5 Dda Park,77.0569,28.5944
Delhi,South,Hauz Khas,77.2022,28.5453
Delhi,South,Jamali Kamali Dw,77.1822,28.5061
Delhi,North West,Kanjhawala,77,28.725
Delhi,West,Mayapuri,77.1111,28.6186
Delhi,North,Narela Djb Wtp,77.1344,28.8367
Delhi,North West,Nizampur,76.9667,28.7194
Delhi,North West,Nizampur Mandir Dw,76.9636,28.72
Delhi,North West,Rani Khera,77.025,28.7069
Delhi,New Delhi,Sunder Nursery,77.245,28.5961
Madhya Pradesh,Agar Malwa,Kashi Bardiya,76.044,23.773
Madhya Pradesh,Bhind,Ratanpura,78.825,25.968
Madhya Pradesh,Burhanpur,Pipalpani,76.6792,21.43
Madhya Pradesh,Chhindwara,Mahaljhir,78.574,22.609
Madhya Pradesh,Dewas,Satwas New,76.682,22.534
Madhya Pradesh,Gwalior,Dongarpur,77.964,25.822
Madhya Pradesh,Gwalior,Suro,78.0417,26.2499
Madhya Pradesh,Gwalior,Jahangirpur,78.2906,26.2756
Madhya Pradesh,Gwalior,Maithana,78.2905,26.2902
Madhya Pradesh,Gwalior,Padampur Kheria,78.2687,26.2665
Madhya Pradesh,Harda,Handia,76.981,22.484
Madhya Pradesh,Morena,Pahargarh,77.639,26.2
Madhya Pradesh,Morena,Porsa,78.369,26.671
Madhya Pradesh,Neemuch,Neemuch,74.874,24.454
Madhya Pradesh,Rewa,Senhuda,81.365,25.03
Madhya Pradesh,Sagar,Garhakota,79.129,23.784
Madhya Pradesh,Sagar,Rehli,79.065,23.641
Madhya Pradesh,Satna,Chorhata,80.917,24.388
Madhya Pradesh,Shajapur,Salsalai,76.538,23.464
Madhya Pradesh,Sheopur,Pandola,76.6444,25.5458
Madhya Pradesh,Shivpuri,Sehore,78.106,25.665
