State,District,Location,Longitude,Latitude
Assam,Goalpara,Salpara,90.7008,26.0128
Bihar,Arwal,Bansi Surajpur,84.7324,25.1146
Bihar,Aurangabad,Aurangabad,84.3845,24.7462
Bihar,Bhagalpur,Ramchandrapur Navtoliya,86.89,25.2367
Bihar,Buxar,Kesath ( Pokhratola),84.2489,25.4125
Bihar,Jehanabad,Kako,85.063,25.2286
Bihar,Jehanabad,Alubikha,85.0335,25.0721
Bihar,Katihar,Manihari,87.622,25.3392
Bihar,Muzzafarpur,Rajwara,84.9395,26.2585
Bihar,Samastipur,Karain,86.0103,25.8604
Bihar,Samastipur,Raipur,85.7965,25.7599
Bihar,Sitamarhi,Mahadeopatti,85.6338,26.7238
Bihar,Siwan,Tarwara Block,84.4863,26.1832
Bihar,Siwan,Jamanpura,84.2852,26.0778
Bihar,Siwan,Bhagar,84.3715,25.9514
Bihar,Supaul,Kario,86.6487,26.1187
Bihar,Vaishali,Mathura,85.3615,25.6298
Bihar,Vaishali,Namidih,85.181,25.8317
Bihar,Vaishali,Yadunathpur Chadbar,85.1823,25.8734
Chhattisgarh,Bemetara,Rampur (Bhand),81.5047,21.5226
Chhattisgarh,Durg,Sagona,81.4656,21.8131
Chhattisgarh,Kanker,Govindpur,81.4833,20.2833
Chhattisgarh,Korba,Tilkeja,82.7631,22.4714
Chhattisgarh,Korba,Kothari Naka,82.6805,22.1263
Chhattisgarh,Mungeli,Daukapa,81.828,22.0092
Chhattisgarh,Mungeli,Patharia (Chorbhatti),81.8389,22.115
Chhattisgarh,Raigarh,Jamgaon(Basti),83.5519,21.8692
Chhattisgarh,Rajnandgaon,Dhara,80.8594,21.255
Chhattisgarh,Rajnandgaon,Govindpur,80.7017,21.0998
Chhattisgarh,Rajnandgaon,Patewa,81.1038,21.3399
Chhattisgarh,Rajnandgaon,Ranitarai,81.0542,20.9978
Daman And Diu,Diu,Vanakbara,70.8753,20.7099
Daman And Diu,Diu,Wadiwadi,70.8832,20.7125
Daman And Diu,Diu,Zolawadi,70.9306,20.7242
Gujarat,Ahmedabad,Dalod,71.9675,23.3532
Gujarat,Amreli,Devaliya,71.1083,21.8208
Gujarat,Amreli,Dhrai( Balmukand),71.1481,21.8077
Gujarat,Amreli,Bagasara,70.9608,21.4768
Gujarat,Amreli,Luvariya,71.3958,21.625
Gujarat,Amreli,Mandal,71.5793,21.0994
Gujarat,Anand,Adas_Dw,73.0352,22.4725
Gujarat,Anand,Kansari1,72.6516,22.3413
Gujarat,Arvalli,Boral,73.2083,23.125
Gujarat,Banaskantha,Amirgadh,72.6477,24.401
Gujarat,Banaskantha,Gangodra,72.3647,24.4397
Gujarat,Banaskantha,Dudhba,71.669,24.4794
Gujarat,Bharuch,Navetha,72.8281,21.7091
Gujarat,Bharuch,Raymal,72.8197,21.5191
Gujarat,Bharuch,Sarod,72.7557,22.161
Gujarat,Bharuch,Tankari,72.6691,21.9882
Gujarat,Bhavnagar,Bhudel,72.1578,21.6889
Gujarat,Bhavnagar,Bhutia,71.7,21.7472
Gujarat,Bhavnagar,Jalia,71.611,21.7999
Gujarat,Devbhoomi Dwarka,Nawagam,69.7656,21.9763
Gujarat,Devbhoomi Dwarka,Gojines,69.2042,22.0246
Gujarat,Devbhoomi Dwarka,Khakharda,69.3721,22.1048
Gujarat,Devbhumi Dwarka,Kalyanpur,69.0542,22.3076
Gujarat,Devbhumi Dwarka,Hanzdapur,69.4368,22.1889
Gujarat,Devbhumi Dwarka,Mojap,68.9796,22.3615
Gujarat,Devbhumi Dwarka,Samrasar1,69.1063,22.3699
Gujarat,Devbhumi Dwarka,Varwada,68.9615,22.2977
Gujarat,Gir Somnath,Dolasa,70.8472,20.8194
Gujarat,Jamnagar,Badanpar,70.3125,22.6875
Gujarat,Jamnagar,Keshiya,70.3971,22.6966
Gujarat,Junagadh,Osa,70.0642,21.3729
Gujarat,Junagadh,Shardagram,70.1431,21.1038
Gujarat,Kachchh,Mothala,69.1355,23.2031
Gujarat,Kachchh,Kakarwa,70.4066,23.4799
Gujarat,Kachchh,Samakhiali,70.5041,23.3067
Gujarat,Kachchh,Kotay,69.7847,23.3847
Gujarat,Kachchh,Lodai,69.9,23.3971
Gujarat,Kachchh,Sukhpar,69.6071,23.1987
Gujarat,Kachchh,Kharai_1,68.684,23.4723
Gujarat,Kachchh,Lakhpat1,68.7749,23.8232
Gujarat,Kachchh,Bambhdai,69.0826,22.9415
Gujarat,Kachchh,Adesar,70.9597,23.5549
Gujarat,Mahesana,Maguna,72.2904,23.5772
Gujarat,Morbi,Halvad2,71.1854,23.0196
Gujarat,Morbi,Sarvad,70.7071,23.0065
Gujarat,Morbi,Chhatar,70.7531,22.5055
Gujarat,Morbi,Bhalgam,71.0826,22.4357
Gujarat,Narmada,Namaria,73.6235,22.0491
Gujarat,Panchmahal,Ranipura,73.7583,22.725
Gujarat,Panchmahal,Kalol Ur_2,73.4514,22.5897
Gujarat,Patan,Gochanad,71.6246,23.7713
Gujarat,Patan,Moti Chander,71.7703,23.5992
Gujarat,Patan,Piprala,71.0967,23.6462
Gujarat,Porbandar,Kadegi,69.9801,21.4519
Gujarat,Porbandar,Kutiyana1,70.0113,21.6284
Gujarat,Porbandar,Mojiwana,69.5743,21.86
Gujarat,Rajkot,Viranagar,71.13,22.0301
Gujarat,Rajkot,Movaiya,70.6275,22.4579
Gujarat,Rajkot,Targhari,70.6728,22.3821
Gujarat,Rajkot,Halenda,71.0541,22.0876
Gujarat,Rajkot,Sanosara,71.2304,22.2989
Gujarat,Rajkot,Ganod,70.1693,21.6888
Gujarat,Sabarkantha,Silwad,73.1167,24.0083
Gujarat,Surendranagar,Bamanbor,71.0373,22.4147
Gujarat,Surendranagar,Moti Moladi,71.104,22.4179
Gujarat,Surendranagar,Gavana,71.8632,23.3409
Gujarat,Surendranagar,Ratanpur1,71.2747,22.8555
Gujarat,Surendranagar,Moti Kathechi,71.9884,22.8919
Gujarat,Surendranagar,Ranagarh,71.9885,22.779
Gujarat,Surendranagar,Nagadka,71.5791,22.4269
Gujarat,Surendranagar,Vaghela,71.6572,22.6577
Gujarat,Vadodara,Sinor,73.3376,21.9154
Gujarat,Vadodara,Ongc,73.207,22.2763
Gujarat,Vadodara,Saidal,73.5043,22.2789
Gujarat,Valsad,Magod,72.9049,20.5659
Jharkhand,Koderma,Jainagar,85.643,24.3759
Jharkhand,Koderma,Jhumri Tilaiya,85.5279,24.4342
Jharkhand,Palamu,Baraw,84.0414,24.0703
Jharkhand,Palamu,Sagalim,84.3489,24.065
Maharashtra,Ahmednagar,Jamkhed,75.3167,18.7333
Maharashtra,Ahmednagar,Manjur,74.2808,19.95
Maharashtra,Ahmednagar,Mushadpur,74.4442,19.8969
Maharashtra,Ahmednagar,Rahata,74.4833,19.7167
Maharashtra,Ahmednagar,Jeur1,74.8031,19.2128
Maharashtra,Ahmednagar,Gondegaon,74.6425,19.7289
Maharashtra,Ahmednagar,Nevasa Bk,74.9544,19.5267
Maharashtra,Ahmednagar,Rastapur,74.5644,19.7881
Maharashtra,Ahmednagar,Malkup,74.5308,19.1256
Maharashtra,Ahmednagar,Malharwadi,74.5819,19.3833
Maharashtra,Ahmednagar,Bodhgaon,75.4233,19.3069
Maharashtra,Ahmednagar,Ghotan,75.3,19.4
Maharashtra,Ahmednagar,Khamgaon,75.1703,19.3864
Maharashtra,Ahmednagar,Chikhale,74.7167,18.8667
Maharashtra,Akola,Wadegaon,77.0675,20.4686
Maharashtra,Akola,Sasti,76.8331,20.5081
Maharashtra,Amravati,Pathrot-2,77.365,21.2144
Maharashtra,Amravati,Samda Kasmpur,77.2631,20.9269
Maharashtra,Amravati,Yevda,77.4586,20.9947
Maharashtra,Amravati,Khed,77.8611,21.3094
Maharashtra,Amravati,Chandas,78.3444,21.4372
Maharashtra,Amravati,Loni,78.1903,21.3764
Maharashtra,Aurangabad,Nipani,75.4628,19.8153
Maharashtra,Aurangabad,Shendra,75.4714,19.8683
Maharashtra,Aurangabad,Taherpur,75.3353,19.6511
Maharashtra,Aurangabad,Tunki,74.85,20.1333
Maharashtra,Aurangabad,Waghalgaon,74.8311,19.8475
Maharashtra,Beed,Khadkhat,75.15,18.6667
Maharashtra,Beed,Georai-1,75.7386,19.2747
Maharashtra,Beed,Hirapur,75.7417,19.1194
Maharashtra,Beed,Manur,75.3167,19.0667
Maharashtra,Bhandara,Shrinagar,79.6764,21.0403
Maharashtra,Buldhana,Karwand,76.375,20.4583
Maharashtra,Buldhana,Waghul,76.2667,20.8717
Maharashtra,Buldhana,Dhamangaon,76.0333,20.6667
Maharashtra,Buldhana,Dighi,76.3367,20.8625
Maharashtra,Buldhana,Shegaon,76.7,20.8
Maharashtra,Chandrapur,Mendki,79.8333,20.4667
Maharashtra,Chandrapur,Kolara-1,79.3694,20.4072
Maharashtra,Chandrapur,Rajura-1,79.3714,19.7858
Maharashtra,Dhule,Ner-1,74.5147,20.9361
Maharashtra,Dhule,Phagne,74.8381,20.89
Maharashtra,Dhule,Dhavda,74.4925,21.3378
Maharashtra,Dhule,Palasner,75.0472,21.525
Maharashtra,Gadchiroli,Chaudampalli,79.85,19.6
Maharashtra,Jalgaon,Narvel,76.1208,21.1944
Maharashtra,Jalgaon,Naseerabad,75.6583,21.0003
Maharashtra,Jalgaon,Lasgaon,75.4556,20.7897
Maharashtra,Jalna,Hasnabad-1,75.6931,20.1269
Maharashtra,Jalna,Jafrabad,76.0167,20.2
Maharashtra,Jalna,Navha,76.0389,19.9167
Maharashtra,Nagpur,Manegaon Tek,79.4222,21.6806
Maharashtra,Nagpur,Bhasali Takli,78.9906,21.3533
Maharashtra,Nagpur,Kothulna,79.0356,21.4194
Maharashtra,Nagpur,Saoner-1,78.9406,21.3897
Maharashtra,Nanded,Talani,77.6117,18.7925
Maharashtra,Nanded,Dhanegaon,77.3297,19.13
Maharashtra,Nandurbar,Khuntamodi,74.0972,21.8056
Maharashtra,Nandurbar,Ghuli,74.2536,21.4311
Maharashtra,Nashik,Boyegaon,74.1744,20.2347
Maharashtra,Nashik,Kalvan,74.0356,20.4925
Maharashtra,Nashik,Umrane-1,74.35,20.4219
Maharashtra,Nashik,Marhal Kh,74.1822,19.78
Maharashtra,Nashik,Purangaon-Jalgaon,74.3681,20.0503
Maharashtra,Parbhani,Pedgaon2,76.6583,19.325
Maharashtra,Parbhani,Hadgaon-1,76.3133,19.3136
Maharashtra,Parbhani,Moregaon,76.455,19.8531
Maharashtra,Raigad,Dapoli,73,18.4778
Maharashtra,Raigad,Sukeli,73.1842,18.4875
Maharashtra,Ratnagiri,Jaitapur,73.5369,16.6275
Maharashtra,Sangli,Karnal-1,74.5669,16.9169
Maharashtra,Sangli,Yevali,74.5167,17.0667
Maharashtra,Satara,Mayani,74.6969,17.7844
Maharashtra,Satara,Thakurki_Phaltan,74.6969,17.7844
Maharashtra,Solapur,Bhosre,75.4336,18.0806
Maharashtra,Solapur,Eklaspur,75.3833,17.5333
Maharashtra,Solapur,Angar,75.575,17.8953
Maharashtra,Thane,Kolimb,73.2667,19.2833
Maharashtra,Wardha,Sahur,78.2417,21.3083
Maharashtra,Wardha,Ajansara,78.6713,20.4093
Maharashtra,Wardha,Khandali,78.9256,20.7375
Maharashtra,Wardha,Samudrapur,78.9639,20.6389
Maharashtra,Wardha,Helodi,78.845,20.8053
Maharashtra,Wardha,Yelakeli,78.5903,20.8139
Maharashtra,Wardha,Anji,78.5167,20.85
Maharashtra,Yavatmal,Vai (Lingi),77.7717,20.1917
Maharashtra,Yavatmal,Pusad,77.6,19.9333
Odisha,Balangir,Phulajharan,83.4678,20.7194
Odisha,Nuapada,Chanabeda,82.4558,20.1758
Odisha,Puri,P-01 Krupa Sindura Patna,85.8361,19.8336
Rajasthan,Ajmer,Narbadkhera,74.283,26.05
Rajasthan,Ajmer,Ludiyana,74.583,25.997
Rajasthan,Ajmer,Tabiji,74.617,26.363
Rajasthan,Alwar,Lachmangarh,76.86,27.35
Rajasthan,Alwar,Bairawas,76.399,27.461
Rajasthan,Barmer,Koloo,71.713,26.0274
Rajasthan,Barmer,Chawa,71.663,25.746
Rajasthan,Barmer,Dhani At Sansiyon Ka Tala,71.3916,25.6918
Rajasthan,Barmer,Dhorimana,71.4352,25.2344
Rajasthan,Barmer,"Meethano Ki Basti, Derasar",71.1515,25.7922
Rajasthan,Barmer,"Phed Campus, Darziyon Ki Dhani,",71.4033,25.4632
Rajasthan,Barmer,Sanawara,71.4,25.48
Rajasthan,Barmer,Sansiyan Ka Tala,71.4125,25.7042
Rajasthan,Barmer,"Gaushala, Nerinadi",71.406,25.2229
Rajasthan,Barmer,Panchla,70.167,25.992
Rajasthan,Barmer,Gudamalani,71.6988,25.214
Rajasthan,Barmer,Thob,72.358,26.05
Rajasthan,Barmer,Ramsar,70.8719,25.7303
Rajasthan,Barmer,Bisukalan,71.278,26.241
Rajasthan,Barmer,Arniyali,71.968,25.467
Rajasthan,Barmer,Khara Mahecha,72.0265,25.5103
Rajasthan,Barmer,Samdari(Hs),72.5869,25.8182
Rajasthan,Barmer,Samdari(Hs-3),72.5972,25.8251
Rajasthan,Bharatpur,Mandhera,77.353,27.395
Rajasthan,Bharatpur,Kaman,77.2697,27.6572
Rajasthan,Bharatpur,Gopalgarh,77.0633,27.6547
Rajasthan,Bharatpur,Ludhawai_Gwd,77.395,27.175
Rajasthan,Bharatpur,Sewar,77.4403,27.1822
Rajasthan,Bhilwara,Asind,74.3347,25.7328
Rajasthan,Bhilwara,Daulatgarh,74.32,25.633
Rajasthan,Bhilwara,Rampuriya_Pz,75.3288,25.2935
Rajasthan,Bhilwara,Gulabpura,74.67,25.9
Rajasthan,Bhilwara,Borani,75.333,25.683
Rajasthan,Bhilwara,Kotari,74.892,25.397
Rajasthan,Bhilwara,Dahimatha,74.301,25.528
Rajasthan,Bhilwara,Malas,74.3294,25.5242
Rajasthan,Bhilwara,Mandalgarh1,75.094,25.183
Rajasthan,Bikaner,Barala,73.3101,28.3254
Rajasthan,Bikaner,Kelan,73.2522,28.4686
Rajasthan,Bikaner,Lakhansar,73.35,28.87
Rajasthan,Bikaner,Raner,73.288,28.885
Rajasthan,Bikaner,Sahjasar,73.7594,28.3453
Rajasthan,Bikaner,Nokha,73.4672,27.5525
Rajasthan,Bundi,Dahi Khera,76.167,25.517
Rajasthan,Bundi,Keshoraipatan,75.931,25.319
Rajasthan,Churu,Bidasar,74.283,27.839
Rajasthan,Churu,Churu,74.9275,28.2955
Rajasthan,Churu,Jawanipur,75.04,28.52
Rajasthan,Churu,Kheriya,74.87,28.3
Rajasthan,Churu,Sirsala,75.131,28.433
Rajasthan,Churu,Sirsali,75.13,28.46
Rajasthan,Churu,Gagor,75.34,28.6
Rajasthan,Churu,Lambor Chhoti,75.41,28.59
Rajasthan,Churu,Ludi Jhandar,75.43,28.66
Rajasthan,Churu,Parihara,74.5619,27.9244
Rajasthan,Churu,Tidiyasar,74.754,28.066
Rajasthan,Churu,Melusar,74.738,28.504
Rajasthan,Churu,Rattanpura,75.2581,28.5347
Rajasthan,Churu,Shawa,74.842,28.875
Rajasthan,Churu,Taranagar,75.0342,28.6879
Rajasthan,Dausa,Bapi,76.292,26.975
Rajasthan,Dausa,Jasuta Hs 1,76.3222,26.9678
Rajasthan,Dausa,Jasuta Hs 2,76.3267,26.9667
Rajasthan,Ganganagar,Ganganagar,73.8517,29.9087
Rajasthan,Ganganagar,Rupnagar,73.4411,29.7958
Rajasthan,Ganganagar,Raisinghnagar,73.45,29.542
Rajasthan,Hanumangarh,Panditawali,74.2,29.4101
Rajasthan,Hanumangarh,Bhukarka,74.75,29.233
Rajasthan,Hanumangarh,Gandehali,74.533,29.217
Rajasthan,Hanumangarh,Purabsar,74.283,29.033
Rajasthan,Hanumangarh,Rawatsar,74.414,29.253
Rajasthan,Hanumangarh,Bolanwali,74.41,29.838
Rajasthan,Hanumangarh,Sangariya,74.4636,29.8123
Rajasthan,Jaipur,Mozmabad,75.363,26.683
Rajasthan,Jaipur,Jaisingpur Khor,75.8806,26.9448
Rajasthan,Jaipur,Chittora,75.702,26.638
Rajasthan,Jaipur,Dawach,75.7636,26.5641
Rajasthan,Jaipur,Lasariya,75.509,26.557
Rajasthan,Jaipur,Majhi Renwal,75.683,26.696
Rajasthan,Jaipur,Sambhar,75.2269,26.9265
Rajasthan,Jaipur,Sambhar,75.2024,26.899
Rajasthan,Jaisalmer,Jaisalmer,70.91,26.942
Rajasthan,Jaisalmer,Khariakua_Dw,70.325,27.717
Rajasthan,Jaisalmer,Longewala,70.162,27.525
Rajasthan,Jaisalmer,Sadewala,70.244,27.635
Rajasthan,Jaisalmer,Tanot,70.367,27.8
Rajasthan,Jaisalmer,Guddi,71.7755,26.7883
Rajasthan,Jaisalmer,Kalewa,71.904,26.806
Rajasthan,Jalore,Bhinmal,72.2625,25.0125
Rajasthan,Jalore,Pradhan Ki Dhani,72.2,25.0314
Rajasthan,Jalore,Bagra,72.6,25.1922
Rajasthan,Jalore,Jalore,72.6306,25.3346
Rajasthan,Jhalawar,Saredi,76.672,24.35
Rajasthan,Jhunjhunu,Alsisar,75.2931,28.3037
Rajasthan,Jhunjhunu,Kankaru Khurd,75.34,28.31
Rajasthan,Jhunjhunu,Rampura,75.31,28.26
Rajasthan,Jodhpur,Gangani,73.212,26.51
Rajasthan,Jodhpur,Gangani(Hs-3),73.2154,26.494
Rajasthan,Jodhpur,Ramrawas(Hs-2)Khedi Salva,73.3474,26.4281
Rajasthan,Jodhpur,Devatra(Irandi Ka Bera),73.3957,26.5031
Rajasthan,Jodhpur,Bhavi(Hs-1)Lamba,73.5777,26.2139
Rajasthan,Jodhpur,Bhavi(Hs-2),73.6078,26.2181
Rajasthan,Jodhpur,Bhawi,73.607,26.232
Rajasthan,Jodhpur,Bilara Block Hq,73.7106,26.1969
Rajasthan,Jodhpur,Dechu Pz,72.327,26.773
Rajasthan,Jodhpur,Bhandu(Hs),72.894,26.0971
Rajasthan,Jodhpur,Bhandu(Hs-2),72.9107,26.0885
Rajasthan,Jodhpur,Chicharli,72.7128,26.2042
Rajasthan,Jodhpur,Narnadi,72.926,26.154
Rajasthan,Jodhpur,Raron Ki Dhani,72.775,26.194
Rajasthan,Jodhpur,Salawas,73.0136,26.1427
Rajasthan,Jodhpur,Sinli,72.7567,26.0313
Rajasthan,Jodhpur,Bisalpur,73.314,26.233
Rajasthan,Jodhpur,Benan,73.421,26.317
Rajasthan,Karauli,Hindaun Hs,77.0297,26.7342
Rajasthan,Karauli,Karsai,76.933,26.425
Rajasthan,Karauli,Sahar1,76.711,26.608
Rajasthan,Nagaur,Datau,74.4567,27.4906
Rajasthan,Nagaur,Chosli Hs-2,74.2636,26.9337
Rajasthan,Nagaur,Chosli(Hs-1)Langod,74.2828,26.914
Rajasthan,Nagaur,Chosli(Khinwtana)Hs-3,74.1907,26.9916
Rajasthan,Nagaur,Degana,74.3547,26.8181
Rajasthan,Nagaur,Singhana,74.5125,27.4753
Rajasthan,Nagaur,Jayal (Didwana Road),74.2282,27.2309
Rajasthan,Nagaur,Jayal Block Hq,74.1863,27.2186
Rajasthan,Nagaur,Jayal-Hs-2(Mataji Ka Xhoraha),74.1766,27.2173
Rajasthan,Nagaur,Kheevsar Block Hq,73.414,26.9647
Rajasthan,Nagaur,Ladnu            Block Hq,74.3908,27.6296
Rajasthan,Nagaur,Sanward,74.517,27.517
Rajasthan,Nagaur,Dagawas Block Hq,74.058,26.6458
Rajasthan,Nagaur,Dangawas(H,74.0611,26.6375
Rajasthan,Nagaur,Dangawas(Hs-2)Pratap Krishi Farm,74.0642,26.2392
Rajasthan,Nagaur,Dangawas(Hs-3),74.0701,26.6214
Rajasthan,Nagaur,Dangawas(Hs-4),74.0549,26.6318
Rajasthan,Nagaur,Nagaur Hs-3,73.78,27.2268
Rajasthan,Nagaur,Nawa,75.0021,27.0329
Rajasthan,Nagaur,Bagot1,74.583,26.817
Rajasthan,Pali,Bali,73.2832,25.1911
Rajasthan,Pali,Prithivipura(Hs-3),73.8052,26.2031
Rajasthan,Pali,Gundoj,73.313,25.608
Rajasthan,Pali,"Shiv Vatika Colony, Vaed",72.9634,25.7432
Rajasthan,Pali,Vaed,72.967,25.724
Rajasthan,Pratapgarh,Arnod_Pz,74.813,23.9
Rajasthan,Rajsamand,Gugli,73.88,25.23
Rajasthan,Rajsamand,Dariba,74.1125,24.9588
Rajasthan,Rajsamand,Railmagra1,74.117,25.033
Rajasthan,Sawai Madhopur,Bhadoti,76.386,26.253
Rajasthan,Sawai Madhopur,Tond,76.397,26.367
Rajasthan,Sirohi,Palri1,72.928,25.014
Rajasthan,Sirohi,Kalandri,72.688,24.925
Rajasthan,Tonk,Bantholi,75.567,25.883
Rajasthan,Tonk,Mehndwas,75.725,26.111
Rajasthan,Tonk,Tonk (Gate Of Rsenl 132 Kv,75.79,26.16
Rajasthan,Tonk,Tonk (Near Hundai Showroom),75.79,26.16
Rajasthan,Tonk,Tonk (Raivens Industry),75.79,26.16
Rajasthan,Udaipur,Mavli1,73.983,24.783
Rajasthan,Udaipur,Kheroda,74.059,24.58
Rajasthan,Udaipur,Jhadol,73.4963,24.4138
Tamil Nadu,Chennai,Adayar Dw,80.2678,13.0192
Tamil Nadu,Chennai,Tondiarpet,80.275,13.1167
Tamil Nadu,Coimbatore,Ambarampalayam,76.9411,10.6353
Tamil Nadu,Coimbatore,Angalakurichi,76.9994,10.525
Tamil Nadu,Coimbatore,Thathanur Aanaikalpalayam Pz,77.2789,11.3067
Tamil Nadu,Coimbatore,P.N.Palayam,76.9922,11.2069
Tamil Nadu,Coimbatore,Gopalapuaram,76.9375,10.6958
Tamil Nadu,Coimbatore,Ponnaiyur,76.9375,10.675
Tamil Nadu,Coimbatore,Tn Urban Studies Pz,76.9419,11.0219
Tamil Nadu,Dharmapuri,Dharmapuri2,78.1708,12.1375
Tamil Nadu,Dharmapuri,Kaveripattinathankottai,78.1733,12.1461
Tamil Nadu,Dharmapuri,A.Pallipatti,78.4017,11.9403
Tamil Nadu,Dharmapuri,Echambadi Dw,78.4942,12.1128
Tamil Nadu,Dharmapuri,Harur2,78.4833,12.0514
Tamil Nadu,Dharmapuri,Kottapatti Pz,78.6717,11.985
Tamil Nadu,Dharmapuri,Mukkareddipatti,78.4167,11.9667
Tamil Nadu,Dharmapuri,Maniyampadi,78.2847,12.1246
Tamil Nadu,Dharmapuri,Morappur Dw,78.3989,12.1247
Tamil Nadu,Dharmapuri,Athikarapatti,78.3909,11.934
Tamil Nadu,Dharmapuri,Boothanatham,78.4688,11.9508
Tamil Nadu,Dharmapuri,Sittilingiri,78.6212,11.9098
Tamil Nadu,Dharmapuri,Hogenakkal,77.8083,12.1236
Tamil Nadu,Dharmapuri,Nagadasampatti,77.9833,12.1333
Tamil Nadu,Dharmapuri,Pattarakaran Kottai,77.8104,12.0274
Tamil Nadu,Dindigul,Chitterivu Pz,77.7708,10.2378
Tamil Nadu,Dindigul,Natham1,78.2472,10.2222
Tamil Nadu,Dindigul,Nattam,78.2333,10.2328
Tamil Nadu,Dindigul,Pittalaipatti,77.9333,10.3278
Tamil Nadu,Dindigul,R.Vellodu,78.0116,10.4502
Tamil Nadu,Dindigul,P.Alagapuri,77.9756,10.5983
Tamil Nadu,Dindigul,Vedasandur New,77.9711,10.5475
Tamil Nadu,Erode,Chennampatti Pz,77.6736,11.7019
Tamil Nadu,Erode,Settunampalayam Pz,77.6033,11.52
Tamil Nadu,Erode,Ganapathipalayam,77.6547,10.7681
Tamil Nadu,Erode,Karaiyur1,77.5944,10.7639
Tamil Nadu,Erode,Pattaidurai,77.7394,10.7011
Tamil Nadu,Erode,Kambaliyampatti Pz,77.5253,11.2314
Tamil Nadu,Erode,Chengapalli,77.4436,11.225
Tamil Nadu,Erode,Kunnathur,77.4106,11.2692
Tamil Nadu,Kancheepuram,Perungulathur,80.1083,12.9167
Tamil Nadu,Kancheepuram,Arasanimangalam,79.7233,12.5689
Tamil Nadu,Kancheepuram,Kalakshetra,80.2636,10.4633
Tamil Nadu,Kanyakumari,Boothapandy,77.4528,8.2583
Tamil Nadu,Karur,Veerapalayam Dw,78.1975,10.7789
Tamil Nadu,Karur,Ayyampalayam Pz,78.0361,11.0625
Tamil Nadu,Krishnagiri,Machinayampalli,77.7844,12.6156
Tamil Nadu,Krishnagiri,Guruvinayanpalli,78.3292,12.65
Tamil Nadu,Krishnagiri,Rayakottai,78.5111,12.5111
Tamil Nadu,Krishnagiri,Uttangarai,78.5292,12.2667
Tamil Nadu,Krishnagiri,Vanambli,78.555,12.3475
Tamil Nadu,Madurai,Chekkanoorani Pz,77.9681,9.9414
Tamil Nadu,Madurai,Tirumangalam Pz,77.8833,9.9208
Tamil Nadu,Madurai,Nallathevanpatti,77.4701,9.5611
Tamil Nadu,Madurai,Kolluveeranpatti Pz,77.5308,9.4225
Tamil Nadu,Madurai,Kolluveeranpatti,77.8856,9.7069
Tamil Nadu,Madurai,Madurai Rly Colony,78.1036,9.9272
Tamil Nadu,Nagapattinam,Valagarai,79.7483,10.6289
Tamil Nadu,Namakkal,Semmadaipalayam,77.9344,11.1472
Tamil Nadu,Namakkal,Uthandipalayam,77.8361,11.2464
Tamil Nadu,Namakkal,Thoppur (N),78.1517,11.1011
Tamil Nadu,Namakkal,Paramarthi Dw,78.0214,11.1567
Tamil Nadu,Namakkal,Ezhur-Olapalayam D,78.1192,11.3658
Tamil Nadu,Namakkal,Minnampalli,78.1865,11.3165
Tamil Nadu,Namakkal,Chittalandur Dw,77.9242,11.315
Tamil Nadu,Namakkal,Kokkarayanpettai D,77.7947,11.3147
Tamil Nadu,Perambalur,Padalur,78.8252,11.096
Tamil Nadu,Perambalur,Kallampudur,78.8025,11.235
Tamil Nadu,Perambalur,Veppur(Nallur),79.0636,11.3167
Tamil Nadu,Perambalur,Vijayagopalapuram,79.0314,11.27
Tamil Nadu,Pudukkottai,Sundarapatti Pz,78.7069,10.3588
Tamil Nadu,Pudukkottai,Vathiripatti Pz,78.6803,10.4839
Tamil Nadu,Pudukkottai,Avudayarkoil,79.0424,10.0749
Tamil Nadu,Pudukkottai,Vegupatti Pz,78.5619,10.2755
Tamil Nadu,Pudukkottai,Mandangudi Dw,78.9283,10.4853
Tamil Nadu,Pudukkottai,Tiruvadanai Dw,78.9149,9.7857
Tamil Nadu,Ramanathapuram,Parthibanur Dw,78.4511,9.5805
Tamil Nadu,Ramanathapuram,Kizhakakarai,78.784,9.2394
Tamil Nadu,Salem,Athur,78.5861,11.5917
Tamil Nadu,Salem,Tivettipatti,78.0875,11.8667
Tamil Nadu,Salem,Panamarathupatti2,78.1931,11.5903
Tamil Nadu,Thanjavur,T Budalur,78.9972,10.7667
Tamil Nadu,Thanjavur,Vaduvakudi,79.0356,10.8781
Tamil Nadu,Theni,Silverpatti,77.3732,10.0713
Tamil Nadu,Theni,Bodinaickanur Dw,77.5717,10.0989
Tamil Nadu,Theni,Devadanapatti,77.6583,10.1528
Tamil Nadu,Theni,Koduvilarpatti Pz,77.4919,9.9719
Tamil Nadu,Theni,Appipatti Alagapuri,77.41,9.81
Tamil Nadu,Thiruvallur,Nallur,80.1605,13.2198
Tamil Nadu,Thiruvannamalai,Andampallam (Isukalikatteri) Ow,79.1694,12.0989
Tamil Nadu,Thiruvannamalai,Polur,79.5167,12.5167
Tamil Nadu,Tirunelveli,Alankulam,77.475,8.9
Tamil Nadu,Tirunelveli,Palayamkottai,77.7333,8.7333
Tamil Nadu,Tirunelveli,Kilpaur,77.3833,8.9167
Tamil Nadu,Tirunelveli,Therkuvalliyur Ow,77.624,8.3331
Tamil Nadu,Tiruvallur,Sangaibedu,80.2977,13.3298
Tamil Nadu,Tiruvarur,Pangal,79.6417,10.7208
Tamil Nadu,Trichy,Mudaliarchatram,78.6967,10.8003
Tamil Nadu,Trichy,Tiruchchirappalli1,78.7125,10.7917
Tamil Nadu,Trichy,Koppampatti,78.4972,11.3008
Tamil Nadu,Trichy,Uppiliyapuram,78.5167,11.2622
Tamil Nadu,Tuticorin,Kayattar,77.775,8.9444
Tamil Nadu,Tuticorin,Nakkalamuthanpatty,77.7732,9.2323
Tamil Nadu,Tuticorin,Kurukkuchalai,78.0917,8.9306
Tamil Nadu,Vellore,Chinnapallikuppam Pz,78.8386,12.7633
Tamil Nadu,Villupuram,Gingee,79.4076,12.2543
Tamil Nadu,Villupuram,Gingee,79.4259,12.2521
Tamil Nadu,Villupuram,Kallakurichi,78.9538,11.7386
Tamil Nadu,Villupuram,Tehzbasar                     (Tenpasiyar),79.626,12.1921
Tamil Nadu,Villupuram,Sankarapuram,78.9178,11.8857
Tamil Nadu,Villupuram,Kiliyanur,79.7458,12.1008
Tamil Nadu,Virudhunagar,Palavanatham,78.075,9.5667
Tamil Nadu,Virudhunagar,Aviyur Dw,78.1008,9.7389
Tamil Nadu,Virudhunagar,Ammayappapuram,77.5369,9.44
Tamil Nadu,Virudhunagar,Choolapuram,77.5583,9.3833
Tamil Nadu,Virudhunagar,Rajapalayam1,77.5417,9.4625
Tamil Nadu,Virudhunagar,Nenmeni1,78.0083,9.325
Tamil Nadu,Virudhunagar,Srivilliputhur1,77.6333,9.5
Tamil Nadu,Virudhunagar,Alangulam,77.6861,9.3639
Tamil Nadu,Virudhunagar,Vembakkottai-Ow,77.7667,9.3333
Uttar Pradesh,Agra,Block Office,77.7462,27.1774
Uttar Pradesh,Agra,Block Office,77.6678,27.0942
Uttar Pradesh,Agra,Hiraman,77.7825,27.035
Uttar Pradesh,Agra,Block Office,78.7049,26.8282
Uttar Pradesh,Agra,Block Office,78.0296,27.3165
Uttar Pradesh,Aligarh,Block H.Q,78.2811,28.0442
Uttar Pradesh,Aligarh,Dayapur,77.869,27.648
Uttar Pradesh,Amethi,Pwd Dak Bangla,81.8086,26.1562
Uttar Pradesh,Azamgarh,Block Office,83.0281,25.9621
Uttar Pradesh,Etawah,Kaneshighar,79.0562,26.6298
Uttar Pradesh,Fatehpur,Chaudgara,80.585,26.123
Uttar Pradesh,Firozabad,Block Office,78.5041,27.2291
Uttar Pradesh,Hamirpur,Hand Pump Of Block Office,79.7946,25.6604
Uttar Pradesh,Hathras,Aharai,77.9512,27.5275
Uttar Pradesh,Hathras,Singhal,78.1599,27.5217
Uttar Pradesh,Hathras,Block H.Q,77.9411,27.5684
Uttar Pradesh,Jalaun,Block – Campus,79.4248,25.875
Uttar Pradesh,Jaunpur,In Jaunpur City,82.6844,25.7447
Uttar Pradesh,Jhansi,Block – Campus,79.1857,25.6131
Uttar Pradesh,Jhansi,Block – Campus,79.1857,25.6131
Uttar Pradesh,Kanpur Dehat,Hand Pump Of Block Office Infront Of,79.783,26.1938
Uttar Pradesh,Kanpur Nagar,Block Office,80.1554,26.1532
Uttar Pradesh,Kanpur Nagar,Taktauli,80.0417,26.6616
Uttar Pradesh,Kaushambi,Inside Block Office,81.5385,25.555
Uttar Pradesh,Lalitpur,Kathwar,78.6617,24.8833
Uttar Pradesh,Lalitpur,Block – Campus,78.7931,24.3726
Uttar Pradesh,Mathura,Block H.Q,77.5793,27.6208
Uttar Pradesh,Mathura,Ajnokh,77.4105,27.6734
Uttar Pradesh,Mathura,Block H.Q,77.5008,27.7262
Uttar Pradesh,Mathura,Jatwari,77.5739,27.5739
Uttar Pradesh,Mathura,Umaraya,77.4742,27.6654
Uttar Pradesh,Mathura,Block H.Q,77.3848,27.7165
Uttar Pradesh,Mathura,Block H.Q,77.6495,27.8458
Uttar Pradesh,Mathura,Nankpur Khader,77.5796,27.8945
Uttar Pradesh,Mathura,Surir,77.7207,27.7687
Uttar Pradesh,Mathura,Block H.Q,77.7848,27.5495
Uttar Pradesh,Mathura,Gaiyara,77.7989,27.589
Uttar Pradesh,Mathura,Nagla Karan,77.8282,27.5325
Uttar Pradesh,Moradabad,Faridpur Hazi,78.8428,29.0631
Uttar Pradesh,Rampur,Block Office,79.0111,28.5632
Uttar Pradesh,Sant Ravidas Nagar,Bhadohi,82.5642,25.3953
West Bengal,Bankura,Balarampur,86.8174,23.1677
West Bengal,Bankura,Hatirampur,86.8786,23.0627
West Bengal,Hooghly,Mashra (Ghoshpara),88.4122,23.1303
West Bengal,Malda,Choto Mohanpara (2),88.0472,25.0255
West Bengal,Purulia,Kulgara,86.5867,23.3281
West Bengal,Purulia,Matha,86.5457,23.1581
West Bengal,South 24 Parganas,Arampur Gosaba,88.7988,22.1653
West Bengal,South 24 Parganas,Hatuganj,88.2539,22.1689
Karnataka,Bagalkot,Alagur,75.3486,16.5722
Karnataka,Bagalkot,Badagandi,75.6458,16.3467
Karnataka,Belgaum,Rupnal,74.645,16.507
Karnataka,Belgaum,Nandgaon,75.128,16.68
Karnataka,Belgaum,Radderhatti,75.08,16.637
Karnataka,Belgaum,Kakmari,75.3,16.867
Karnataka,Vijayanagara,Danapura,76.371,15.176
Karnataka,Bijapur,Bavur,76.2517,16.4439
Karnataka,Bijapur,Bhudihaldon,76.1456,16.7103
Karnataka,Bijapur,Chadchan,75.6511,17.3111
Karnataka,Bijapur,Khatijapur,75.6761,16.7651
Karnataka,Bijapur,Newdhulikhed,75.8444,17.3889
Karnataka,Bijapur,Nimbal,75.9,17.1
Karnataka,Bijapur,Satihal,76.0667,16.7
Karnataka,Bijapur,Vibhutihalli,76.1833,17.1
Karnataka,Bijapur,Yankanchi,76.3347,16.8625
Karnataka,Chitradurga,Gutikatte,76.226,13.885
Karnataka,Chitradurga,Hanumali,76.084,13.999
Karnataka,Chitradurga,Hartikote,76.649,14.071
Karnataka,Chitradurga,Siddapura,76.194,14.266
Karnataka,Davanagere,Mangammnahalli,75.985,14.211
Karnataka,Dharwad,Gummagola,75.152,15.5919
Karnataka,Dharwad,Morab,75.1588,15.5834
Karnataka,Dharwad,Tale Morab,75.1492,15.5562
Karnataka,Gadag,Chabbi,75.5963,15.1712
Karnataka,Gadag,Dass Hadagali,75.6524,15.5849
Karnataka,Gadag,Gojanur,75.4994,15.1909
Karnataka,Gadag,Hungundi,75.6901,15.783
Karnataka,Gadag,Laxmeswar(A),75.4703,15.1327
Karnataka,Gadag,Mundargi,75.8829,15.1983
Karnataka,Gadag,Nargund,75.383,15.729
Karnataka,Koppal,Talakal,76.019,15.378
Karnataka,Koppal,Itagi,75.969,15.444
Karnataka,Koppal,Sanganhal Dw,75.988,15.571
Karnataka,Mysore,Bheerya,76.34,12.59
Karnataka,Mysore,Badakanakoppalu,76.38,12.51
Karnataka,Mysore,Rathnapuri,76.34,12.23
Karnataka,Raichur,Ankusha Doddy,76.601,16.034
Karnataka,Raichur,Janekal,76.95,16.015
Karnataka,Raichur,Hanchihal,76.668,15.239
Karnataka,Tumkur,Medihalli,76.5297,13.3916
Haryana,Ambala,Pinjokhara,76.8458,30.4083
Haryana,Bhiwani,Bawani Khera,76.0356,28.935
Haryana,Bhiwani,Sui,76.0592,28.8631
Haryana,Bhiwani,Alakhpura,76.0452,29.0125
Haryana,Bhiwani,Alakhpura,76.0462,29.016
Haryana,Bhiwani,Jamalpur,75.9604,28.9657
Haryana,Bhiwani,Talu,76.1393,28.9823
Haryana,Bhiwani,Badala,76.255,28.7572
Haryana,Bhiwani,Bamla,76.2503,28.8103
Haryana,Bhiwani,Biran,76.0042,28.8266
Haryana,Bhiwani,Devsar (Bhiwani Jonpal),76.0915,28.7606
Haryana,Bhiwani,Halawas,76.1247,28.7594
Haryana,Bhiwani,Kalinga,76.3221,28.8737
Haryana,Bhiwani,Lohani,76.045,28.7036
Haryana,Bhiwani,Manheru,76.2092,28.7044
Haryana,Bhiwani,Tigrana,76.15,28.8422
Haryana,Bhiwani,Imlota,76.4142,28.6344
Haryana,Bhiwani,Baundkalan,76.3667,28.7806
Haryana,Bhiwani,Loharwala,76.3603,28.6291
Haryana,Bhiwani,Mehrana,76.3261,28.555
Haryana,Bhiwani,Dadri,76.2667,28.5958
Haryana,Bhiwani,Hetampura,75.9864,28.7031
Haryana,Bhiwani,Juikalau,75.9272,28.6319
Haryana,Bhiwani,Gurera,75.5128,28.9208
Haryana,Bhiwani,Mithi,75.5739,28.7061
Haryana,Bhiwani,Bapore,76.0638,28.823
Haryana,Bhiwani,Dulheri,75.9072,28.7993
Haryana,Bhiwani,Garanpura Kalan,74.9839,28.9038
Haryana,Bhiwani,Miran,75.7369,28.8467
Haryana,Bhiwani,Pinjokhera,75.8199,28.8892
Haryana,Bhiwani,Sagwan,75.9664,28.8706
Haryana,Bhiwani,Tosham,75.9158,28.875
Haryana,Charkhi Dadri,Kari Dharni,75.8812,28.5256
Haryana,Charkhi Dadri,Ranila,76.342,28.7087
Haryana,Charkhi Dadri,Neemriwali,76.1448,28.7145
Haryana,Faridabad,Ballabgarh,77.335,28.347
Haryana,Faridabad,Sikri,77.2882,28.2758
Haryana,Faridabad,Tigaon,77.3896,28.3662
Haryana,Faridabad,Cgwb Chq Nh-Iv,77.3139,28.4181
Haryana,Faridabad,Pali,77.2411,28.3809
Haryana,Fatehabad,Chabarwal,75.427,29.3537
Haryana,Fatehabad,Mehuwala,75.3278,29.4133
Haryana,Fatehabad,Inda Chhoi,75.7909,29.6371
Haryana,Fatehabad,Nagpur,75.4228,29.6417
Haryana,Fatehabad,Buwan,75.7877,29.5934
Haryana,Fatehabad,Nikhatia,75.3425,29.5879
Haryana,Gurugram,Khera Khurrampur,76.7861,28.445
Haryana,Gurugram,Mubarakpur,76.8416,28.4728
Haryana,Gurugram,Patli,76.8571,28.147
Haryana,Gurugram,Daultabad,76.9915,28.4914
Haryana,Gurugram,Mundakhera,76.848,28.517
Haryana,Gurugram,Ramnagar,77.0876,29.0843
Haryana,Hisar,Asrawan,75.6002,29.2773
Haryana,Hisar,Kirori,75.776,29.3445
Haryana,Hisar,Nangthala,75.7051,29.3283
Haryana,Hisar,Kanoh,75.7635,29.3854
Haryana,Hisar,Banbhauri,76.0519,29.4105
Haryana,Hisar,Behbalpur,75.7894,29.2833
Haryana,Hisar,Gianpura,76.0227,29.3441
Haryana,Hisar,Bass,74.8125,29.1136
Haryana,Hisar,Singhwa Khas,76.2268,29.0189
Haryana,Hisar,Chanaut,75.9208,29.2083
Haryana,Hisar,Khanda Kheri,76.2116,29.194
Haryana,Hisar,Bir Hansi (Bir Farm),75.9778,29.1433
Haryana,Hisar,Kirtan,75.5569,29.1395
Haryana,Hisar,Rampur Damundi,75.7876,29.4268
Haryana,Hisar,Balawas,75.8222,28.9583
Haryana,Hisar,Dobeta,75.7776,28.95
Haryana,Hisar,Kharkari,75.8713,29.2032
Haryana,Hisar,Kuleri,75.6602,29.3605
Haryana,Hisar,Dhansu,75.7956,29.2156
Haryana,Hisar,Hisar,75.7167,29.1542
Haryana,Hisar,Kharar-Alipur,75.717,29.1542
Haryana,Hisar,Balasmand,75.4916,29.0719
Haryana,Hisar,Narnaund,76.1275,29.2147
Haryana,Hisar,Rajthal,76.1911,29.256
Haryana,Hisar,Kapro,76.084,29.3309
Haryana,Hisar,Kinnar,76.1315,29.3339
Haryana,Hisar,Lohari  Ragho,76.0553,29.2553
Haryana,Hisar,Sohu,75.8303,29.4911
Haryana,Hisar,Uklana Mandi,75.8831,29.5063
Haryana,Jhajjar,Asoda Todran,76.8542,28.7597
Haryana,Jhajjar,Dulhera,76.7833,28.65
Haryana,Jhajjar,Gabhana,76.8417,28.5708
Haryana,Jhajjar,Mandothi,76.8156,28.7024
Haryana,Jhajjar,Wazirpur,76.57,28.6825
Haryana,Jhajjar,Jhajjar,76.6603,28.5986
Haryana,Jhajjar,Machhrauli,76.6476,28.4728
Haryana,Jhajjar,Jharli,76.3806,28.4973
Haryana,Jind,Chhater,76.3173,29.5153
Haryana,Jind,Dorana,76.4819,29.5186
Haryana,Jind,Raichandwala,76.4174,29.3966
Haryana,Jind,Jaipur,76.5838,29.3921
Haryana,Jind,Julani,76.2803,29.3882
Haryana,Jind,Brahmanwas,76.4083,29.1333
Haryana,Jind,Jhamola,76.34,29.1404
Haryana,Jind,Kinana,76.4148,29.2416
Haryana,Jind,Bhana Braahmanan,76.1722,29.6603
Haryana,Jind,Kalwan,75.9831,29.6898
Haryana,Jind,Hadwa,76.5606,29.3045
Haryana,Jind,Bagru Kalan,76.6046,29.2959
Haryana,Jind,Karsola,76.4142,29.1392
Haryana,Jind,Rojhla,76.6025,29.3637
Haryana,Jind,Khatkar,76.2429,29.4017
Haryana,Kaithal,Kamalpur,76.3256,29.6009
Haryana,Kaithal,Deoban,76.4136,29.6908
Haryana,Kaithal,Guhna,76.2606,29.7658
Haryana,Kaithal,Kaithal,76.4,29.73
Haryana,Kaithal,Pharal,76.5826,29.8382
Haryana,Kaithal,Sisla Sismore,76.4821,29.7171
Haryana,Kaithal,Kalayat,76.25,29.67
Haryana,Kaithal,Kelram,76.3623,29.7017
Haryana,Kaithal,Matour,76.2658,29.618
Haryana,Kaithal,Bhana,76.5184,29.666
Haryana,Kaithal,Jajanpur,76.6066,29.905
Haryana,Kaithal,Jatheri,76.5539,29.7507
Haryana,Kaithal,Sirsal,76.671,29.685
Haryana,Kaithal,Rohera,76.4204,29.5665
Haryana,Kaithal,Rasulpur Ghamri,76.4,29.81
Haryana,Karnal,Chochra,76.68,29.63
Haryana,Karnal,Jalwana,76.71,29.59
Haryana,Karnal,Kutail,77.0222,29.5861
Haryana,Karnal,Amupur Chakda,76.7414,29.7739
Haryana,Mahendragarh,Nangal,76.2604,28.0914
Haryana,Mahendragarh,Khatodra,76.0897,28.2822
Haryana,Mahendragarh,Narnaul,76.1125,28.05
Haryana,Mewat,Rawali,76.9335,27.706
Haryana,Mewat,Ferozpur Zirka,76.95,27.7917
Haryana,Mewat,Kuljatpur,77.024,27.879
Haryana,Mewat,Nagina,77.0008,27.9169
Haryana,Mewat,Akaira,77.0025,28.0116
Haryana,Mewat,Kheri Kankar,76.8806,28.2229
Haryana,Mewat,Malab,77.0124,28.0404
Haryana,Mewat,Phalaindi,77.1484,27.8844
Haryana,Mewat,Rojka Meo,77.063,28.211
Haryana,Mewat,(Buda) Dhudholi,77.217,27.829
Haryana,Mewat,Bichhor,77.3034,27.843
Haryana,Mewat,Gulaltha,77.1792,27.9167
Haryana,Mewat,Indri,77.1003,28.1892
Haryana,Palwal,Hassanpur,77.49,27.97
Haryana,Palwal,Gharota,77.213,28.0705
Haryana,Palwal,Hathin,77.2417,28.0458
Haryana,Palwal,Kalsara,77.278,28.0685
Haryana,Palwal,Kondal,77.2674,28.0123
Haryana,Palwal,Kot,77.2292,27.9583
Haryana,Palwal,Lakhnaka,77.1729,28.0198
Haryana,Palwal,Mandkola,77.1754,28.1321
Haryana,Palwal,Tumsara,77.3409,28.007
Haryana,Palwal,Lohina,77.3119,27.9448
Haryana,Palwal,Badoli,77.4332,28.0693
Haryana,Palwal,Baghaula,77.308,28.221
Haryana,Palwal,Bela,77.4264,28.0203
Haryana,Palwal,Pelak,77.4048,28.1384
Haryana,Panchkula,Batwal,76.9918,30.5905
Haryana,Panipat,Sewah,76.9811,29.3386
Haryana,Panipat,Israna,76.85,29.2778
Haryana,Panipat,Puther,76.87,29.22
Haryana,Panipat,Lohari,76.8389,29.3583
Haryana,Panipat,Mohamdinpur Thirana,76.8313,29.4112
Haryana,Panipat,Untala,76.85,29.3917
Haryana,Panipat,Panipat Taraf Afghan,76.9889,29.3709
Haryana,Panipat,Dehra,77.0687,29.2089
Haryana,Rewari,Bhurthal Theihar,76.6494,28.2621
Haryana,Rewari,Gadla,76.6264,28.4072
Haryana,Rewari,Khori,76.4859,28.1995
Haryana,Rewari,Suma Khera,76.5774,28.3326
Haryana,Rohtak,Kahnaur,76.4843,28.7597
Haryana,Rohtak,Kalanaur Kalan,76.4209,28.8252
Haryana,Rohtak,Lakhan Majra,76.4764,29.0464
Haryana,Rohtak,Madina,76.4342,28.9394
Haryana,Rohtak,Meham,76.2939,28.9636
Haryana,Rohtak,Nidhana,76.3747,29.0117
Haryana,Rohtak,Baland,76.5833,28.8
Haryana,Rohtak,Dhamar,76.6716,28.9618
Haryana,Rohtak,Riwara,76.7408,29.0172
Haryana,Rohtak,Rukhi,76.6491,29.0334
Haryana,Rohtak,Hassangarh,76.85,28.8417
Haryana,Sirsa,Phaggu,75.114,29.775
Haryana,Sirsa,Raghuana,74.9812,29.6991
Haryana,Sirsa,Chormar,74.8417,29.7833
Haryana,Sirsa,Goriwala,74.7083,29.7917
Haryana,Sirsa,Masitan,74.72,29.8861
Haryana,Sirsa,Shergarh,74.6764,29.9264
Haryana,Sirsa,Brasari,75.0226,29.3302
Haryana,Sirsa,Ganja Rupana,75.2407,29.3479
Haryana,Sirsa,Gigorani,75.1444,29.3
Haryana,Sirsa,Kumharia,75.1529,29.2514
Haryana,Sirsa,Nirban,75.0491,29.3939
Haryana,Sirsa,Mithri,74.9833,29.85
Haryana,Sirsa,Bhamboor,74.9652,29.5082
Haryana,Sirsa,Bhoona,75.708,29.5381
Haryana,Sirsa,Dariawala,74.89,29.6161
Haryana,Sirsa,Mehna Khera,74.8125,29.4192
Haryana,Sirsa,Ding,75.2853,30.2019
Haryana,Sirsa,Farwain,75.1057,29.606
Haryana,Sirsa,Rangri Khera,75.0249,29.4787
Haryana,Sirsa,Sirsa,75.0494,29.5358
Haryana,Sonipat,Pugthala,76.8726,29.2174
Haryana,Sonipat,Purkhas,76.9504,29.1073
Haryana,Sonipat,Hassanpur,77.0657,29.0538
Haryana,Sonipat,Jagssi,76.6639,29.2428
Haryana,Sonipat,Khanpur,76.7956,29.1579
Haryana,Sonipat,Niat,76.777,29.1217
Haryana,Sonipat,Sahoti-R,76.9369,28.8036
Haryana,Sonipat,Farmana,76.8125,28.9847
Haryana,Sonipat,Sisnah,76.84,28.9019
Haryana,Sonipat,Butana,76.625,29.1875
Haryana,Sonipat,Murthal,77.0846,29.0356
Haryana,Sonipat,Jakhauli,77.146,28.9319
Haryana,Sonipat,Janti Khurd,77.155,28.84
Haryana,Sonipat,Kheowra,77.1291,28.9614
Haryana,Sonipat,Rai,77.1,28.92
Haryana,Sonipat,Rasoi,77.11,28.9
Haryana,Sonipat,Barswani- Dw,76.9667,29
Haryana,Sonipat,Bohela,76.8561,29.0806
Haryana,Sonipat,Nahri,77.0376,28.8681
Haryana,Sonipat,Pinana,76.825,29.0655
Haryana,Sonipat,Salimsar Majra,76.8702,28.997
Haryana,Sonipat,Kharkhoda,76.9025,28.8645
Punjab,Bathinda,Balluana,74.782,30.2236
Punjab,Bathinda,Ganga,74.835,30.362
Punjab,Bathinda,Kot Shamir,75.0083,30.1125
Punjab,Bathinda,Ghudda,74.789,30.128
Punjab,Bathinda,Raman,74.9613,29.968
Punjab,Bathinda,Gurusar,75.092,29.993
Punjab,Bathinda,Maiser Khanna,75.5028,30.1528
Punjab,Faridkot,Sadiq,74.656,30.71
Punjab,Faridkot,Wara Daraka,74.754,30.55
Punjab,Fazilka,Abohar,74.1901,30.148
Punjab,Fazilka,Baluana,74.3108,30.1728
Punjab,Fazilka,Khatwa,74.1839,30.283
Punjab,Fazilka,Kikar Khera,74.1664,30.0798
Punjab,Fazilka,Kundal,74.2682,30.2164
Punjab,Fazilka,Sitogano,74.3602,30.029
Punjab,Fazilka,Dhabwala Kalan,74.2525,30.3317
Punjab,Fazilka,Islamwala,74.1814,30.3586
Punjab,Fazilka,Mamu Khera,74.1728,30.2806
Punjab,Fazilka,Kirianwala,74.1503,30.4898
Punjab,Fazilka,Chak Panj Kohi,74.2922,30.5189
Punjab,Fazilka,Jamal Ke,74.1027,30.5327
Punjab,Fazilka,Sarian,74.2221,30.4701
Punjab,Fazilka,Haripura,74.0351,30.138
Punjab,Fazilka,Kaler Khera,73.9556,30.0408
Punjab,Fazilka,Danger Khera,74.1632,30.2096
Punjab,Fazilka,Dalewal Satkosi,74.0375,30.1986
Punjab,Fazilka,Khuiyan Serovar,74.078,30.113
Punjab,Ferozepur,Ghangakhala,74.3385,30.5753
Punjab,Ferozepur,Ladhewala,74.3856,30.5319
Punjab,Ludhiana,Jandali,76.0391,30.6537
Punjab,Mansa,Dhalewan,75.5756,30.0278
Punjab,Mansa,Budhlada,75.542,29.93
Punjab,Mansa,Kvk Mansa,75.3446,30.0011
Punjab,Mansa,Raipur,75.229,29.69
Punjab,Moga,Dina,75.2362,30.5173
Punjab,Moga,Himatpura,75.3633,30.5308
Punjab,Muktsar,Baddian,74.5512,30.2896
Punjab,Muktsar,Jandwala Charat Singh,74.5288,30.2145
Punjab,Muktsar,Kabarwala,74.41,30.193
Punjab,Muktsar,Ratta Khera,74.4178,30.2897
Punjab,Muktsar,Bhalaiana,74.4247,30.1949
Punjab,Muktsar,Sangrana,74.5736,30.5522
Punjab,Muktsar,Thandewala,74.5882,30.4731
Punjab,Muktsar,Sheranwali,74.4644,30.0317
Punjab,Patiala,Lohakheri,76.586,30.409
Punjab,Patiala,Basma Pepla,76.4069,30.685
Punjab,Sangrur,Togawal,75.6095,30.158
Punjab,Sas Nagar,Dera Bassi,76.838,30.586
Punjab,Sas Nagar,Issapur,76.8299,30.5942
Andhra Pradesh,Alluri Sita Rama Raju,Folkspeta,81.8398,17.3139
Andhra Pradesh,Anakapalli,Addaroddu,82.7476,17.432
Andhra Pradesh,Ananthapur,Gade Hothur,77.3051,15.0147
Andhra Pradesh,Ananthapur,Mannila,77.691,14.5619
Andhra Pradesh,Ananthapur,Ramasagram,77.256,14.7232
Andhra Pradesh,Ananthapur,Ramasagram,77.256,14.7232
Andhra Pradesh,Ananthapur,Ramasagram,77.256,14.7232
Andhra Pradesh,Ananthapur,Bodapalli,77.077,14.399
Andhra Pradesh,Annamayya,Madanapalle,78.5015,13.5564
Andhra Pradesh,Annamayya,Chokkandapalle,78.4522,13.3255
Andhra Pradesh,Annamayya,Papireddygaripalli,78.7333,13.7528
Andhra Pradesh,Annamayya,"Lakireddypalli,",78.7015,14.1849
Andhra Pradesh,Bapatla,Medarmetla,80.0156,15.7283
Andhra Pradesh,Bapatla,Pullaripalem,80.3247,15.74
Andhra Pradesh,Bapatla,Bhattiprolu,80.7864,16.0973
Andhra Pradesh,Chittoor,Chittipirala,79.1209,13.4171
Andhra Pradesh,East Godavari,Bhavujipet,81.8467,17.2083
Andhra Pradesh,East Godavari,Munipalli,81.7101,16.8685
Andhra Pradesh,Eluru,Mandavalli,81.1638,16.5178
Andhra Pradesh,Eluru,Palevada,81.2867,16.5794
Andhra Pradesh,Eluru,Kaikalur,81.2057,16.5461
Andhra Pradesh,Eluru,Bominampadu,81.2115,16.4791
Andhra Pradesh,Eluru,Bominampadu,81.2117,16.4789
Andhra Pradesh,Eluru,Majeru,81.0205,16.1287
Andhra Pradesh,Eluru,Bominampadu,81.2117,16.4789
Andhra Pradesh,Guntur,Guntur,80.4319,16.2986
Andhra Pradesh,Guntur,Prattipadu,80.3318,16.1803
Andhra Pradesh,Guntur,Pedda Parimi,80.4551,16.4598
Andhra Pradesh,Guntur,Phanidharam,80.3969,16.3606
Andhra Pradesh,Kakinada,A.K. Mallavaram -1,82.359,17.1661
Andhra Pradesh,Konaseema,Mummidivarampad,81.8325,16.7029
Andhra Pradesh,Krishna,Kurumaddali,80.9261,16.3311
Andhra Pradesh,Krishna,Mandapakala,81.0001,15.9741
Andhra Pradesh,Krishna,Manginapadu,81.2319,16.2466
Andhra Pradesh,Krishna,Challapalli,80.9268,16.1223
Andhra Pradesh,Krishna,Moturu,81.0465,16.4497
Andhra Pradesh,Krishna,Chinnapuram,81.0469,16.1206
Andhra Pradesh,Krishna,Sultan Nagaram,81.1146,16.2045
Andhra Pradesh,Krishna,Sultan Nagaram,81.1146,16.2043
Andhra Pradesh,Kurnool,Veldurthy,77.9269,15.5531
Andhra Pradesh,Kurnool,Haradgiri-Pn-3,77.1882,15.3012
Andhra Pradesh,Kurnool,Naganathanahalli,77.2221,15.5607
Andhra Pradesh,Kurnool,Kodumuru,77.7736,15.6857
Andhra Pradesh,Kurnool,Kurnool,78.0494,15.8385
Andhra Pradesh,Nellore,Boyila Chiruvella,79.5606,14.6799
Andhra Pradesh,Nellore,Narrawada,79.4159,14.9001
Andhra Pradesh,Nellore,Pallavolu,79.3597,14.6447
Andhra Pradesh,Ntr,Jayanti,80.4374,16.8207
Andhra Pradesh,Palnadu,Vinukonda,79.7434,16.0519
Andhra Pradesh,Palnadu,Bellamkonda,80.0076,16.4922
Andhra Pradesh,Palnadu,Santagudipadu,79.9141,16.2534
Andhra Pradesh,Palnadu,Sattenapalli,80.1479,16.4063
Andhra Pradesh,Palnadu,Maddirala,80.0909,16.0947
Andhra Pradesh,Palnadu,Sankurathri Padu,80.209,16.2506
Andhra Pradesh,Palnadu,Kavuru-Ew,80.1205,16.1394
Andhra Pradesh,Palnadu,Kavuru-Ow,80.1212,16.1419
Andhra Pradesh,Palnadu,Bommarajupalli,79.7865,16.2743
Andhra Pradesh,Palnadu,Bommarajupalli,79.7864,16.2742
Andhra Pradesh,Palnadu,Inametla,79.9825,16.3784
Andhra Pradesh,Prakasham,Guttalaumadivrm,79.5581,16.0164
Andhra Pradesh,Prakasham,Turumella,78.9861,15.5228
Andhra Pradesh,Prakasham,Muttarasupalem,79.8408,15.2486
Andhra Pradesh,Prakasham,Ayyavarepalli,79.5663,15.1126
Andhra Pradesh,Prakasham,Agraharam,79.6822,15.5945
Andhra Pradesh,Prakasham,Thippaipalle,79.1783,15.6881
Andhra Pradesh,Prakasham,Bestavaripeta,79.1088,15.5537
Andhra Pradesh,Prakasham,Pallamalli,79.9044,15.6496
Andhra Pradesh,Prakasham,Suryavaripalli (Bedusupalle),78.9694,15.2646
Andhra Pradesh,Prakasham,Yerrabalem,79.0154,15.5606
Andhra Pradesh,Prakasham,Akiveedu (Kothuru),78.9371,15.5904
Andhra Pradesh,Sri Satya Sai,"Madhudi, Ew Of Aq-Ii",77.0236,13.8186
Andhra Pradesh,Sri Satya Sai,Dubbaraparthi,77.3788,14.344
Andhra Pradesh,Sri Satya Sai,Madulacheruvu,77.3586,14.4294
Andhra Pradesh,Tirupathi,Valivedu,79.0762,13.5272
Andhra Pradesh,Tirupathi,Kamakuru,79.7108,13.9711
Andhra Pradesh,Tirupathi,Ojilli,79.9068,14.002
Andhra Pradesh,Visakhapatnam,Bandavaripalem X,83.2291,17.8324
Andhra Pradesh,West Godavari,Akiveedu - Pz,81.3882,16.586
Andhra Pradesh,West Godavari,Narsimhapuram,81.5017,16.5582
Andhra Pradesh,Ysr Kadapa,Ayyawaripally-Pz,78.4951,14.5331
Andhra Pradesh,Ysr Kadapa,N.Pallagiri,78.4424,14.4571
Telangana,Hanamkonda,Yelakaturthy1,79.4494,18.0996
Telangana,Jagtial,Sirikonda,78.6983,18.7603
Telangana,Jangaon,Nellutla1,79.1904,17.7055
Telangana,Jangaon,Veldanda,79.1074,17.8727
Telangana,Jogulamba,Jallapur,77.9813,16.0191
Telangana,Jogulamba,Chinnipadu,77.9623,15.9444
Telangana,Kb Asifabad,Sirpur,79.5703,19.4795
Telangana,Khammam,Nakkalagarubu1,80.3538,16.9474
Telangana,Khammam,Krishnapuram(Vanamvari),80.1369,17.1163
Telangana,Khammam,Vanama Krishnapuram,80.1368,17.1163
Telangana,Khammam,Yadavalli,80.0522,17.1952
Telangana,Khammam,Kattakuru3,80.0375,17.1745
Telangana,Khammam,Nakkalagarubu2,80.3539,16.9473
Telangana,Mahabubabad,Maripeda,79.8936,17.3899
Telangana,Mahabubabad,Maripeda,79.8935,17.39
Telangana,Medak,Yusuf Peta,78.1442,18.0492
Telangana,Nagarkurnool,Jupally- Aq-I,78.6031,16.6592
Telangana,Nalgonda,Antampet-Pz-Ii,78.8917,17.0323
Telangana,Nirmal,Basar - Pz,77.9451,18.8722
Telangana,Pedapalle,Manthani2,79.6701,18.6521
Telangana,Rangareddy,Kothur-Pz,78.2742,17.1358
Telangana,Rangareddy,Burgul1,78.2159,16.975
Telangana,Rangareddy,Burgul2,78.216,16.9754
Telangana,Rangareddy,Burgul3,78.216,16.9755
Telangana,Rangareddy,Chintakuntapalle,78.3079,16.9586
Telangana,Rangareddy,Kothur,78.2883,17.1442
Telangana,Sangareddy,Nizampet,77.8844,18.0955
Telangana,Sangareddy,Nizampet,77.8773,18.0941
Telangana,Wanaparthy,Chikkepalle2,78.1811,16.2164
Telangana,Warangal,Ashok Nagar,79.951,17.954
Telangana,Warangal,Jhalli,79.8564,17.8433
Telangana,Warangal,Gangadevipally,79.7149,17.9599
Telangana,Warangal,Kondur1,79.548,17.6869
Telangana,Yadadri Bhuvanagiri,Nagaram,79.0341,17.3579
Telangana,Yadadri Bhuvanagiri,Ramannapet,79.0954,17.2938
Telangana,Yadadri Bhuvanagiri,Ennaram1,79.2092,17.3209
Telangana,Yadadri Bhuvanagiri,Ennaram2,79.2092,17.3209
Delhi,North,Auchandi,76.9972,28.8194
Delhi,North,Bakoli,77.1517,28.8153
Delhi,West,Bapraula,77.0167,28.65
Delhi,South West,Daryapur Khurd,76.9086,28.5342
Delhi,South West,Daulatpur,76.9653,28.5431
Delhi,South West,Dichaon Kalan Dw,76.975,28.6342
Delhi,South West,Dwarka Sec-5 Dda Park,77.0569,28.5944
Delhi,South West,Gummanhera Dw,76.9125,28.5478
Delhi,North,Hareoli,77.0083,28.8319
Delhi,South,Hauz Khas,77.2022,28.5453
Delhi,West,Hirankudna,76.9942,28.6822
Delhi,South West,Jharoda Kalan,76.9556,28.6417
Delhi,South West,Najafgarh,77.0006,28.6147
Delhi,North,Narela Djb Wtp,77.1344,28.8367
Delhi,North West,Nizampur,76.9667,28.7194
Delhi,South West,Ojwah,76.9142,28.5767
Delhi,North,Palla (Zero Rd),77.1964,28.8581
Delhi,West,Pusa (Nrl),77.1622,28.6392
Delhi,North West,Rani Khera,77.025,28.7069
Delhi,South West,Raota,76.9042,28.5181
Delhi,North,Rohini Sec-28,77.095,28.7528
Delhi,New Delhi,Safdarjung Tomb,77.2125,28.5903
Delhi,North West,Sainik Vihar,77.1219,28.6911
Delhi,North West,Samaypur Badli,77.1525,28.7406
Delhi,North West,Sandesh Vihar Pz,77.1461,28.695
Delhi,North West,Sanjay Van Pz,77.1419,28.6903
Delhi,South West,Shikarpur,76.9533,28.5244
Delhi,North,Singhola Pz,77.1294,28.8433
Delhi,North,Singhu Village,77.1311,28.8533
Delhi,South West,Surheda,76.9322,28.6039
Delhi,West,Tagore Garden,77.1128,28.6439
Delhi,West,Tikri Kalan,76.9694,28.6833
Delhi,West,Vikaspuri,77.0742,28.6322
Madhya Pradesh,Neemuch,Kukreshwar,75.268,24.48
Madhya Pradesh,Sagar,Rehli,79.065,23.641
