State,District,Location,Longitude,Latitude
Bihar,Arwal,Dirpal Bigha,84.7032,25.2943
Bihar,Bhagalpur,Ramchandrapur Navtoliya,86.89,25.2367
Bihar,Bhagalpur,Sultanganj,86.7,25.2417
Bihar,Bhojpur,Karnempur,84.3614,25.6675
Bihar,Buxar,Rajpur,84.1292,25.6847
Bihar,Jehanabad,Alubikha,85.0335,25.0721
Bihar,Kaimur,Tori Forest Chk. Post (Bhagwanpur),83.6054,24.9478
Bihar,Katihar,Khiria,87.455,25.6066
Bihar,Madhepura,Gwalpara,86.8956,25.7569
Bihar,Madhepura,Madhepura,86.7893,25.9172
Bihar,Madhubani,Dharjaki,85.9493,26.4426
Bihar,Muzzafarpur,Dholi (Tola Jahangirpur),85.5888,25.9979
Bihar,Patna,Mokama,85.2958,25.5042
Bihar,Saharsa,Kharkutti,86.5542,25.8693
Bihar,Saharsa,Simri Bakhtiyarpur-1,86.5824,25.7264
Bihar,Samastipur,Madudabad,85.7019,25.6024
Bihar,Samastipur,Karain,86.0103,25.8604
Bihar,Sheohar,Sasaula Khurd,85.3013,26.5368
Bihar,Sitamarhi,Bairganiya,85.2755,26.7399
Chhattisgarh,Balod,Mudkhusara,81.1195,20.8454
Chhattisgarh,Balod,Danganiya,81.2869,21.0117
Chhattisgarh,Balod,Chichalgondi,81.2582,20.9543
Chhattisgarh,Balod,Gujara,81.1317,20.6677
Chhattisgarh,Balodabazar,Bhatgaon,82.8122,21.6536
Chhattisgarh,Balodabazar,Bilaigarh,82.725,21.6375
Chhattisgarh,Balodabazar,Haswa,82.5611,21.6875
Chhattisgarh,Balodabazar,Udela,81.85,21.6083
Chhattisgarh,Bemetara,Suwartala,81.2411,21.6669
Chhattisgarh,Bilaspur,Matiyari,82.2587,22.126
Chhattisgarh,Bilaspur,Dagauri,82.0706,21.8939
Chhattisgarh,Bilaspur,Belgahana,82.0333,22.4333
Chhattisgarh,Bilaspur,Jhingatpur,81.9972,22.3667
Chhattisgarh,Bilaspur,Marwahi,82.0694,23.02
Chhattisgarh,Dhamtari,Bhatagaon,81.7003,20.8783
Chhattisgarh,Durg,Dadhi,81.475,21.8958
Chhattisgarh,Durg,Dargaon,81.3944,21.4917
Chhattisgarh,Durg,Girola,81.4381,21.3917
Chhattisgarh,Durg,Litia,81.2062,21.3501
Chhattisgarh,Durg,Murmunda,81.463,21.3091
Chhattisgarh,Durg,Ravelidih,81.3375,21.325
Chhattisgarh,Durg,Janjgiri,81.3089,21.085
Chhattisgarh,Durg,Jeora-Sirsa,81.3064,21.2564
Chhattisgarh,Durg,Nagpura,81.2264,21.2491
Chhattisgarh,Durg,Arjunda,81.2056,20.9431
Chhattisgarh,Durg,Sikosa,81.2889,20.8764
Chhattisgarh,Durg,Khurdmudi,81.4965,21.0133
Chhattisgarh,Durg,Marra,81.4583,21.0375
Chhattisgarh,Durg,Motipur,81.5458,21.1667
Chhattisgarh,Durg,Bortara,81.2222,21.6417
Chhattisgarh,Durg,Baklitola,81.0898,20.6994
Chhattisgarh,Gariyabandh,Kashi Bahara,82.1867,20.8638
Chhattisgarh,Gariyabandh,Sursabandha,81.9208,20.8806
Chhattisgarh,Janjgir Champa,Seorinarayan,82.5944,21.8611
Chhattisgarh,Janjgir Champa,Dongakahrod,82.4581,21.8467
Chhattisgarh,Jashpur,Durgapara,83.5496,23.0304
Chhattisgarh,Jashpur,Pandripani,83.706,22.922
Chhattisgarh,Jashpur,Raoni,83.6614,23.0067
Chhattisgarh,Jashpur,Binjapur,84.0333,22.7667
Chhattisgarh,Jashpur,Amdiha,83.955,22.466
Chhattisgarh,Jashpur,Tapkara,83.95,22.5042
Chhattisgarh,Jashpur,Bewartoli,83.7475,22.9083
Chhattisgarh,Jashpur,Narayanbahali,83.7814,22.6531
Chhattisgarh,Jashpur,Narayanbahali,83.7814,22.6531
Chhattisgarh,Jashpur,Kotba,83.7403,22.4333
Chhattisgarh,Kanker,Govindpur,81.4833,20.2833
Chhattisgarh,Kawardha,Danganiya,81.2042,21.9639
Chhattisgarh,Kawardha,Sahaspur Lohara.1,81.1292,21.8333
Chhattisgarh,Korba,Dhegurdih Manzipara,82.8371,22.4756
Chhattisgarh,Korba,Lenga,82.2636,22.3458
Chhattisgarh,Koriya,Bhainswar,82.27,23.4919
Chhattisgarh,Mahasamund,Suarmar,82.4958,20.9694
Chhattisgarh,Mahasamund,Jhalkhamhariya,82.1453,21.0772
Chhattisgarh,Mahasamund,Mahasamund.1,82.0958,21.1083
Chhattisgarh,Mahasamund,Badesara,83.09,21.3922
Chhattisgarh,Mungeli,Daukapa,81.828,22.0092
Chhattisgarh,Raigarh,Bakaruma,83.4361,22.5125
Chhattisgarh,Raigarh,Bakaruma,83.4361,22.5125
Chhattisgarh,Raigarh,Durgapur,83.1596,22.4805
Chhattisgarh,Raigarh,Durgapur,83.1596,22.4805
Chhattisgarh,Raigarh,Gersa,83.2347,22.3431
Chhattisgarh,Raigarh,Lailunga,83.5833,22.3833
Chhattisgarh,Raigarh,Jamgaon(Basti),83.5519,21.8692
Chhattisgarh,Raigarh,Amaghat,83.4097,22.0825
Chhattisgarh,Raigarh,Gare,83.489,22.1358
Chhattisgarh,Raipur,Ranisagar,82.0281,21.2783
Chhattisgarh,Raipur,Mandhar,81.7103,21.3528
Chhattisgarh,Raipur,Mandirhasud,81.7667,21.2208
Chhattisgarh,Raipur,Math,81.9026,21.395
Chhattisgarh,Rajnandgaon,Dongargaon.1,80.8569,20.9708
Chhattisgarh,Rajnandgaon,Kokpur I,80.7458,20.9917
Chhattisgarh,Rajnandgaon,Bharritola,80.7242,21.1989
Chhattisgarh,Rajnandgaon,Dhara,80.8594,21.255
Chhattisgarh,Rajnandgaon,Ghortalab,80.5272,21.1201
Chhattisgarh,Rajnandgaon,Govindpur,80.7017,21.0998
Chhattisgarh,Rajnandgaon,Lal Bhadurnagar,80.6861,21.1
Chhattisgarh,Rajnandgaon,Badaitola,80.9789,21.3477
Chhattisgarh,Rajnandgaon,Bhatgaon,81.0689,21.2883
Chhattisgarh,Rajnandgaon,Patewa,81.1038,21.3399
Chhattisgarh,Rajnandgaon,Ranitarai,81.0542,20.9978
Chhattisgarh,Surajpur,Odigi,82.8089,23.4739
Chhattisgarh,Surajpur,Jagannathpur,83.195,23.3786
Chhattisgarh,Surajpur,Hanumangarh,82.6476,23.0629
Chhattisgarh,Surajpur,Premnagar,82.6958,22.9667
Chhattisgarh,Surajpur,Shivnagar,82.7882,22.8815
Chhattisgarh,Surguja,Jajga,82.7847,22.9362
Gujarat,Ahmedabad,Dhandhuka1,71.9877,22.3761
Gujarat,Ahmedabad,Dalod,71.9675,23.3532
Gujarat,Amreli,Kotadapitha,71.2063,21.9512
Gujarat,Amreli,Untvad,71.2228,21.9068
Gujarat,Amreli,Kunkavav,70.9805,21.6555
Gujarat,Amreli,Luvariya,71.3958,21.625
Gujarat,Amreli,Sanaria,71.4319,21.5501
Gujarat,Anand,Adas_Dw,73.0352,22.4725
Gujarat,Anand,Dharmaj,72.7874,22.4207
Gujarat,Anand,Ghora,73.0496,22.6926
Gujarat,Arvalli,Bibipur1,73.2125,23.2528
Gujarat,Arvalli,Boral,73.2083,23.125
Gujarat,Arvalli,Takatuka_1,73.305,23.8514
Gujarat,Arvalli,Hamirpur,73.4583,23.4083
Gujarat,Arvalli,Malpur_1,73.4644,23.3447
Gujarat,Arvalli,Gadada,73.2531,23.5753
Gujarat,Arvalli,Medasana,73.2744,23.5119
Gujarat,Arvalli,Seenawad,73.3986,23.4864
Gujarat,Bharuch,Sahol,72.8184,21.4446
Gujarat,Bharuch,Kavi,72.6367,22.1954
Gujarat,Bhavnagar,Gariyadhar,71.5636,21.5443
Gujarat,Chhota Udepur,Asala,73.9208,22.3696
Gujarat,Dahod,Dahod Urban-1,74.2494,22.8575
Gujarat,Dahod,Dahod Urban-2,74.2667,22.8447
Gujarat,Dahod,Dahod Urban-3,74.2339,22.8397
Gujarat,Dahod,Dahod2,74.2333,22.825
Gujarat,Devbhoomi Dwarka,Mota Gunda,69.719,22.0115
Gujarat,Devbhoomi Dwarka,Nawagam,69.7656,21.9763
Gujarat,Devbhoomi Dwarka,Drasan Vel,69.0395,22.2904
Gujarat,Devbhoomi Dwarka,Gurgadh,69.1909,22.1947
Gujarat,Devbhoomi Dwarka,Khakharda,69.3721,22.1048
Gujarat,Devbhoomi Dwarka,Nagadiya,69.5622,21.9408
Gujarat,Devbhoomi Dwarka,Navadra,69.2865,21.9399
Gujarat,Devbhumi Dwarka,Ambardi,69.8583,21.9166
Gujarat,Devbhumi Dwarka,Mota Kalawad,69.8343,21.9061
Gujarat,Devbhumi Dwarka,Juvanpur,69.3649,22.1677
Gujarat,Devbhumi Dwarka,Kalyanpur,69.0542,22.3076
Gujarat,Devbhumi Dwarka,Lambha 1,69.3084,21.9113
Gujarat,Devbhumi Dwarka,Mewasha,69.8159,21.9256
Gujarat,Devbhumi Dwarka,Aramda,69.035,22.4275
Gujarat,Devbhumi Dwarka,Dwarka,68.9604,22.2407
Gujarat,Devbhumi Dwarka,Mojap,68.9796,22.3615
Gujarat,Devbhumi Dwarka,Samrasar1,69.1063,22.3699
Gujarat,Jamnagar,Balwa,69.9586,21.8948
Gujarat,Jamnagar,Changa,70.0253,22.3401
Gujarat,Jamnagar,Badanpar,70.3125,22.6875
Gujarat,Jamnagar,Bangour,69.879,22.0964
Gujarat,Junagadh,Chokli,70.5325,21.6021
Gujarat,Junagadh,Seriakhan,70.2501,21.1154
Gujarat,Junagadh,Maktupur1,70.0934,21.1347
Gujarat,Junagadh,Moti Kodiyar,70.5289,21.3248
Gujarat,Junagadh,Mendarda1,70.4397,21.3336
Gujarat,Junagadh,Khokharda,70.3176,21.4201
Gujarat,Junagadh,Prempara,70.7033,21.2983
Gujarat,Kachchh,Samakhiali,70.5041,23.3067
Gujarat,Kachchh,Nani Tumbdi,69.549,22.9963
Gujarat,Kachchh,Vadala,69.8538,22.9168
Gujarat,Kachchh,Adesar,70.9597,23.5549
Gujarat,Kheda,Alina,73.0477,22.8057
Gujarat,Morbi,Halvad2,71.1854,23.0196
Gujarat,Morbi,Chhatar,70.7531,22.5055
Gujarat,Panchmahal,Ranipura,73.7583,22.725
Gujarat,Panchmahal,Godhra Ur_2,73.5911,22.7692
Gujarat,Panchmahal,Godhra2,73.6333,22.7708
Gujarat,Panchmahal,Kalol Ur_2,73.4514,22.5897
Gujarat,Porbandar,Kutiyana1,70.0113,21.6284
Gujarat,Porbandar,Dhruvala,70.0044,21.694
Gujarat,Porbandar,Bakharla,69.6364,21.7336
Gujarat,Porbandar,Kolikhada Village?2,69.6368,21.6816
Gujarat,Rajkot,Gogavadar,70.8802,21.9649
Gujarat,Rajkot,Kolithad1,70.6516,22.0191
Gujarat,Rajkot,Umrali,70.6022,21.9101
Gujarat,Rajkot,Virpur1,70.6929,21.8466
Gujarat,Rajkot,Movaiya,70.6275,22.4579
Gujarat,Rajkot,Sanosara,71.2304,22.2989
Gujarat,Sabarkantha,Gadha1,72.9417,23.7083
Gujarat,Sabarkantha,Mathasuliya,73.1544,23.6025
Gujarat,Sabarkantha,Bhadreshwar(Daramli),72.9792,23.7458
Gujarat,Sabarkantha,Chandap_Dw,72.8533,23.9233
Gujarat,Sabarkantha,Idar,73.0375,23.8417
Gujarat,Sabarkantha,Revas,73.1167,23.8208
Gujarat,Sabarkantha,Sabalwad,72.9631,23.8742
Gujarat,Sabarkantha,Hingatiya,73.0106,24.1466
Gujarat,Sabarkantha,Khedbramha_1,73.05,24.0292
Gujarat,Sabarkantha,Matoda,73.0083,24.1111
Gujarat,Sabarkantha,Silwad,73.1167,24.0083
Gujarat,Sabarkantha,Boriya,72.9408,23.2428
Gujarat,Sabarkantha,Harsol1,73.0167,23.3778
Gujarat,Sabarkantha,Kesarpura(Mayal),72.9489,23.3222
Gujarat,Sabarkantha,Umedpura,72.9644,23.3036
Gujarat,Sabarkantha,Choriwad,73.1194,23.9
Gujarat,Sabarkantha,Hatharva,72.9857,23.945
Gujarat,Sabarkantha,Kesharpura,73.1453,23.9153
Gujarat,Sabarkantha,Wadali,73.0333,23.9333
Gujarat,Surat,Mandvi2,73.3003,21.2574
Gujarat,Surendranagar,Moti Moladi,71.104,22.4179
Gujarat,Surendranagar,Malvan,71.7504,23.0614
Gujarat,Surendranagar,Moti Majethi,71.8853,23.0866
Gujarat,Surendranagar,Pipli,71.7123,23.0687
Gujarat,Surendranagar,Kukavati,71.3652,23.0639
Gujarat,Surendranagar,Jiva,71.3241,22.9571
Gujarat,Surendranagar,Mota Ankevaliya,71.4542,22.8495
Gujarat,Surendranagar,Choraniya,71.8509,22.572
Gujarat,Surendranagar,Muli,71.4644,22.639
Gujarat,Surendranagar,Dhajala,71.398,22.3807
Gujarat,Surendranagar,Nagadka,71.5791,22.4269
Gujarat,Surendranagar,Piprali,71.3117,22.3953
Gujarat,Surendranagar,Sudamda,71.488,22.446
Gujarat,Tapi,Nizar,74.181,21.4787
Gujarat,Vadodara,Juna Samalya,73.2742,22.5041
Gujarat,Vadodara,Tundav,73.1974,22.4817
Gujarat,Valsad,Valsad(Lilapore),72.9367,20.6337
Himachal Pradesh,Bilaspur,Bassi,76.505,31.311
Himachal Pradesh,Hamirpur,Barsar Maire,76.4814,31.5447
Himachal Pradesh,Mandi,Lohara,76.9619,31.5886
Himachal Pradesh,Sirmour,Badripur,77.6697,30.4925
Himachal Pradesh,Sirmour,Meserwala,77.5611,30.4958
Himachal Pradesh,Solan,Kherachak,76.6953,31.0306
Himachal Pradesh,Solan,Kishanpura,76.7581,30.9714
Himachal Pradesh,Solan,Palahi,76.6286,31.1442
Himachal Pradesh,Una,Ambota,76.0647,31.6706
Himachal Pradesh,Una,Badsali,76.1956,31.4944
Himachal Pradesh,Una,Daulatapur,76.0139,31.7956
Himachal Pradesh,Una,Gagret,76.0786,31.6772
Himachal Pradesh,Una,Kathor-Kalan,76.1178,31.6572
Himachal Pradesh,Una,Mubarikpur,76.0842,31.7083
Himachal Pradesh,Una,Raipur Marwadi,75.9836,31.8003
Himachal Pradesh,Una,Lalheri,76.28,31.3733
Jammu & Kashmir,Baramulla,Uplna,74.3975,34.2008
Jammu & Kashmir,Jammu,Jourian,74.577,32.8331
Jammu & Kashmir,Jammu,Arnia Ii,74.7986,32.5203
Jammu & Kashmir,Jammu,Allah,74.8367,32.5175
Jammu & Kashmir,Jammu,Sidhra,74.8947,32.7597
Jammu & Kashmir,Jammu,Gigrial,74.4818,32.7961
Jammu & Kashmir,Jammu,Hamirpur Sidhar,74.5256,32.7765
Jammu & Kashmir,Jammu,Hamirpur Kohna,74.5497,32.7667
Jammu & Kashmir,Jammu,Sei Khurd,74.7247,32.5075
Jammu & Kashmir,Jammu,Kalah,74.4484,32.9207
Jammu & Kashmir,Kathua,Jandi (New),75.2458,32.4625
Jammu & Kashmir,Kathua,Kootah,75.2417,32.5114
Jammu & Kashmir,Kupwara,Lassipora,74.3831,34.5081
Jammu & Kashmir,Kupwara,Gulgam,74.2194,34.5369
Jammu & Kashmir,Rajouri,Seri,74.2873,33.0833
Jammu & Kashmir,Rajouri,Baja Bain,74.4136,33.0544
Jammu & Kashmir,Samba,Daboh,75.105,32.5858
Jammu & Kashmir,Samba,Dhora,75.14,32.61
Jammu & Kashmir,Samba,Nagrota Uttarbani,75.065,32.6239
Jammu & Kashmir,Samba,Bengular,75.0625,32.4944
Jammu & Kashmir,Samba,Jasath,75.202,32.504
Jharkhand,Chatra,Gidhaur,85.0247,24.1757
Jharkhand,Garhwa,Obra,83.8271,24.0862
Jharkhand,Garhwa,Manjhian,83.8144,24.3234
Jharkhand,Gumla,Adar,84.3934,23.2975
Jharkhand,Gumla,Gumla1,84.5409,23.043
Jharkhand,Gumla,Sisai,84.7576,23.1677
Jharkhand,Hazaribagh,Sakrej,85.5355,24.2086
Jharkhand,Hazaribagh,Meru(Silwar),85.4518,24.0038
Jharkhand,Hazaribagh,Katkamsandi,85.2058,24.1088
Jharkhand,Latehar,Balumath,84.7899,23.8271
Jharkhand,Latehar,Barjatu,84.7996,23.8867
Jharkhand,Latehar,Manika,84.3458,23.8503
Jharkhand,Loherdaga,Senha Bdo,84.6512,23.3831
Jharkhand,Palamu,Sagalim,84.3489,24.065
Jharkhand,Ranchi,Sonsbazar,84.9533,23.5154
Jharkhand,Ranchi,Kanke Chowk,85.3308,23.4308
Jharkhand,Ranchi,Mandar,85.087,23.4597
Jharkhand,Ranchi,Lowadih,85.3619,23.3594
Jharkhand,Ranchi,Hatia,85.3058,23.3128
Jharkhand,Simdega,Bolba,84.3472,22.43
Jharkhand,Simdega,Lachara Gargh (Kolebira),84.8591,22.6443
Jharkhand,Simdega,Biru,84.5504,22.6846
Kerala,Alappuzha,Thaikattusseri-R1,76.3417,9.7833
Kerala,Idukki,Vandiperiyar,77.1,9.5667
Kerala,Idukki,Kattapana,77.0875,9.7333
Kerala,Kannur,Koothuparamba,75.5653,11.8269
Kerala,Kollam,Paripalli,76.7611,8.8097
Kerala,Kollam,Kudavettur,76.75,8.9403
Kerala,Kozhikode,Chelavur,75.8827,11.299
Kerala,Malappuram,Amminikkad,76.0167,10.9333
Kerala,Malappuram,Manjeri,76.1208,11.1181
Kerala,Malappuram,Vylattur,75.9444,10.7861
Kerala,Palakkad,Gopalapuram,76.8694,10.6861
Kerala,Palakkad,Meenakshipuram,76.8628,10.6378
Kerala,Pathanamthita,Konni,76.85,9.23
Kerala,Pathanamthita,Enathu,76.75,9.08
Kerala,Thrissur,Perinjanam,76.1478,10.3133
Kerala,Thrissur,Kecheri,76.16,10.61
Kerala,Trivandrum,Kazhakuttam,76.8708,8.5708
Kerala,Trivandrum,Balaramapuram,77.0458,8.4231
Kerala,Trivandrum,Poovar- Ii,77.0736,8.3167
Kerala,Trivandrum,Vellarada1,77.2,8.44
Kerala,Trivandrum,Pangode,76.9694,8.7653
Kerala,Trivandrum,Kattakada,77.0833,8.5069
Maharashtra,Ahmednagar,Kotul,73.9731,19.4253
Maharashtra,Ahmednagar,Rumbodi,73.9433,19.5303
Maharashtra,Ahmednagar,Baradgaon Sudrik,74.8233,18.4583
Maharashtra,Ahmednagar,Bhitkewadi,74.8967,18.6444
Maharashtra,Ahmednagar,Jogeshwarwadi,75.0036,18.5822
Maharashtra,Ahmednagar,Mirajgaon-3,75.2167,18.7222
Maharashtra,Ahmednagar,Rassin,74.9333,18.4333
Maharashtra,Ahmednagar,Manjur,74.2808,19.95
Maharashtra,Ahmednagar,Mushadpur,74.4442,19.8969
Maharashtra,Ahmednagar,Rahata,74.4833,19.7167
Maharashtra,Ahmednagar,Dahigaon,74.8069,18.9625
Maharashtra,Ahmednagar,Hivrebazar,74.6561,19.0772
Maharashtra,Ahmednagar,Jakhangaon,74.6306,19.1056
Maharashtra,Ahmednagar,Jeur1,74.8031,19.2128
Maharashtra,Ahmednagar,Khadki,74.6483,19.0181
Maharashtra,Ahmednagar,Takle-Kazi,74.8333,19.0333
Maharashtra,Ahmednagar,Gondegaon,74.6425,19.7289
Maharashtra,Ahmednagar,Kokona-1,75.0875,19.4181
Maharashtra,Ahmednagar,Nevasa Bk,74.9544,19.5267
Maharashtra,Ahmednagar,Vadala Bhairoba,74.9,19.4333
Maharashtra,Ahmednagar,Malkup,74.5308,19.1256
Maharashtra,Ahmednagar,Malharwadi,74.5819,19.3833
Maharashtra,Ahmednagar,Bote,74.2278,19.2778
Maharashtra,Ahmednagar,Chandanapuri,74.2,19.4833
Maharashtra,Ahmednagar,Sangamner,74.2208,19.5667
Maharashtra,Ahmednagar,Bodhgaon,75.4233,19.3069
Maharashtra,Ahmednagar,Ghotan,75.3,19.4
Maharashtra,Ahmednagar,Rakshi,75.3167,19.3556
Maharashtra,Ahmednagar,Banpimpri,74.8667,18.8333
Maharashtra,Ahmednagar,Chikhale,74.7167,18.8667
Maharashtra,Ahmednagar,Khokar,74.7433,19.6158
Maharashtra,Akola,Borgaon Manju,77.1278,20.7333
Maharashtra,Akola,Panaj,77.1364,21.1439
Maharashtra,Akola,Raundala,76.9683,20.9775
Maharashtra,Akola,Majhari,76.9219,20.59
Maharashtra,Akola,Ural,76.825,20.8069
Maharashtra,Akola,Wadegaon,77.0675,20.4686
Maharashtra,Akola,Wyala,76.8875,20.675
Maharashtra,Akola,Barshi Takli,77.0667,20.5833
Maharashtra,Akola,Murtizapur,77.3667,20.7333
Maharashtra,Akola,Umri,77.3481,20.6461
Maharashtra,Akola,Alegaon,76.8533,20.4097
Maharashtra,Akola,Chani,76.775,20.4611
Maharashtra,Akola,Sasti,76.8331,20.5081
Maharashtra,Amravati,Pathrot-2,77.365,21.2144
Maharashtra,Amravati,Amravati_Gopalnagar,77.7483,20.8994
Maharashtra,Amravati,Lontek-1,77.7072,20.9081
Maharashtra,Amravati,Walgaon,77.7,21.0167
Maharashtra,Amravati,Khargavan,77.3156,21.0669
Maharashtra,Amravati,Nimbhari,77.3125,21.05
Maharashtra,Amravati,Chandur Bazar,77.7333,21.2333
Maharashtra,Amravati,Belteki,77.9258,20.755
Maharashtra,Amravati,Chandur Railway,77.9667,20.8167
Maharashtra,Amravati,Ghatlarki,77.8081,21.3336
Maharashtra,Amravati,Paratwada-1,77.5208,21.3083
Maharashtra,Amravati,Wadgaon (Fattepur),77.275,21.2806
Maharashtra,Amravati,Samda Kasmpur,77.2631,20.9269
Maharashtra,Amravati,Yevda,77.4586,20.9947
Maharashtra,Amravati,Bhokarbardi,76.7806,21.5139
Maharashtra,Amravati,Dhulghat Road,76.7758,21.5306
Maharashtra,Amravati,Ashtagaon,77.925,21.3083
Maharashtra,Amravati,Chicholi,77.9444,21.36
Maharashtra,Amravati,Dapori1,78.0514,21.3833
Maharashtra,Amravati,Khed,77.8611,21.3094
Maharashtra,Amravati,Pimpri,77.8681,21.3611
Maharashtra,Amravati,Rithpur,77.8167,21.2417
Maharashtra,Amravati,Saiwada,77.8692,21.3319
Maharashtra,Amravati,Belora,77.7,20.7667
Maharashtra,Amravati,Nandgaon Khandeshwar,77.8364,20.6906
Maharashtra,Amravati,Shivni1,77.8522,20.6306
Maharashtra,Amravati,Anjansingi,78.1347,20.9167
Maharashtra,Amravati,Kurha,78.05,20.9333
Maharashtra,Amravati,Mardi,77.9256,20.94
Maharashtra,Amravati,Mozari,78.0011,21.0506
Maharashtra,Amravati,Teosa,78.0681,21.0836
Maharashtra,Amravati,Amner_Old,78.4014,21.3917
Maharashtra,Amravati,Chandas,78.3444,21.4372
Maharashtra,Amravati,Dhanodi,78.2997,21.4825
Maharashtra,Amravati,Gadegaon1,78.2625,21.35
Maharashtra,Amravati,Jamgaon,78.1344,21.4575
Maharashtra,Amravati,Loni,78.1903,21.3764
Maharashtra,Amravati,Temburkheda1,78.2389,21.4972
Maharashtra,Amravati,Warud,78.2667,21.4667
Maharashtra,Amravati,Shignapur,77.4978,20.9517
Maharashtra,Aurangabad,Chauka,75.3944,20.0167
Maharashtra,Aurangabad,Gavarai,75.2917,19.7872
Maharashtra,Aurangabad,Nipani,75.4628,19.8153
Maharashtra,Aurangabad,Patri,75.4667,20.1175
Maharashtra,Aurangabad,Shendra,75.4714,19.8683
Maharashtra,Aurangabad,Dahegaon Bangla,75.1186,19.7311
Maharashtra,Aurangabad,Gangapur-3,75.0008,19.6994
Maharashtra,Aurangabad,Varkhed (Rajanggaon),74.9119,19.7722
Maharashtra,Aurangabad,Devgaon-1,75.0347,20.0347
Maharashtra,Aurangabad,Hasta,75.2719,20.2911
Maharashtra,Aurangabad,Hatnur1,75.1317,20.1697
Maharashtra,Aurangabad,Kannad,75.1333,20.2667
Maharashtra,Aurangabad,Kinnal,75.0667,20.0028
Maharashtra,Aurangabad,Khuldabad,75.1917,20.0003
Maharashtra,Aurangabad,Walur Tanda,75.15,20.0833
Maharashtra,Aurangabad,Dadhegaon,75.5464,19.5506
Maharashtra,Aurangabad,Pachud-1,75.6333,19.5833
Maharashtra,Aurangabad,Taherpur,75.3353,19.6511
Maharashtra,Aurangabad,Thapati Thanda,75.5831,19.7117
Maharashtra,Aurangabad,Aalandh,75.9336,20.3411
Maharashtra,Aurangabad,Ajanta,75.7417,20.5417
Maharashtra,Aurangabad,Bharadi,75.5619,20.3558
Maharashtra,Aurangabad,Golegaon Budruk,75.71,20.4564
Maharashtra,Aurangabad,Sillod-3,75.6539,20.2975
Maharashtra,Aurangabad,Fardapur-1,75.7083,20.5931
Maharashtra,Aurangabad,Soyegaon-1,75.6208,20.5914
Maharashtra,Aurangabad,Garaj,74.8944,20.0564
Maharashtra,Aurangabad,Tunki,74.85,20.1333
Maharashtra,Aurangabad,Waghalgaon,74.8311,19.8475
Maharashtra,Beed,Saigaon-1,76.4217,18.6672
Maharashtra,Beed,Soundad,76.6608,18.735
Maharashtra,Beed,Waguli,76.1953,18.7947
Maharashtra,Beed,Warvati,76.4628,18.7631
Maharashtra,Beed,Doithana,75.2,18.95
Maharashtra,Beed,Khadkhat,75.15,18.6667
Maharashtra,Beed,Sheri Bk,75.085,18.8794
Maharashtra,Beed,Chausala,75.6928,18.7119
Maharashtra,Beed,Jirewadi-1,75.7583,19.0169
Maharashtra,Beed,Nandur Phata,75.8464,18.7761
Maharashtra,Beed,Pimpalner,75.7314,19.1431
Maharashtra,Beed,Georai-1,75.7386,19.2747
Maharashtra,Beed,Hirapur,75.7417,19.1194
Maharashtra,Beed,Kumbharwadi,75.9525,19.0439
Maharashtra,Beed,Nagjhera,75.7192,19.3297
Maharashtra,Beed,Savargaon,75.6706,19.1617
Maharashtra,Beed,Shirsadevi,75.8628,19.2028
Maharashtra,Beed,Tintarvani-1,75.5078,19.175
Maharashtra,Beed,Umapur,75.6,19.2833
Maharashtra,Beed,Kumbhephal,76.1333,18.7167
Maharashtra,Beed,Uttareshwar Pimpri,75.9486,18.6811
Maharashtra,Beed,Wadwani,76.0333,18.9833
Maharashtra,Beed,Dindrur-1,76.2664,18.9892
Maharashtra,Beed,Ghatsawali,75.9358,18.9872
Maharashtra,Beed,Limgaon,76.0881,19.2031
Maharashtra,Beed,Patrud-1,76.2125,19.1003
Maharashtra,Beed,Sirsala,76.3833,18.9833
Maharashtra,Beed,Daskhed,75.5583,18.7667
Maharashtra,Beed,Manur,75.3167,19.0667
Maharashtra,Bhandara,Dhargaon-1,79.735,21.0997
Maharashtra,Bhandara,Kharbi,79.5667,21.1675
Maharashtra,Bhandara,Palari,79.7083,21.1333
Maharashtra,Bhandara,Shrinagar,79.6764,21.0403
Maharashtra,Bhandara,Lakhandur,79.8847,20.7458
Maharashtra,Bhandara,Jamb,79.5833,21.3833
Maharashtra,Bhandara,Usarra,79.6722,21.3972
Maharashtra,Bhandara,Varti,79.6467,21.2333
Maharashtra,Bhandara,Masal,79.7733,20.8356
Maharashtra,Buldhana,Dhad,76,20.4
Maharashtra,Buldhana,Dhadop,76.3228,20.4492
Maharashtra,Buldhana,Dongar Khandala,76.2972,20.4875
Maharashtra,Buldhana,Hatedi,76.1111,20.4667
Maharashtra,Buldhana,Padali,76.05,20.5167
Maharashtra,Buldhana,Sailani,76.0833,20.3833
Maharashtra,Buldhana,Bhankheda,76.2419,20.3006
Maharashtra,Buldhana,Kelwad,76.2292,20.4417
Maharashtra,Buldhana,Palskhed Sapkal,76.3325,20.4494
Maharashtra,Buldhana,Undri,76.4639,20.4569
Maharashtra,Buldhana,Amdapur,76.45,20.4167
Maharashtra,Buldhana,Karwand,76.375,20.4583
Maharashtra,Buldhana,Deolgaon Mahi,76.1806,20.0917
Maharashtra,Buldhana,Deolgaon Raja,76.0333,20.0167
Maharashtra,Buldhana,Mera Khurd,76.2667,20.25
Maharashtra,Buldhana,Sindkhed Raja,76.05,19.95
Maharashtra,Buldhana,Sajanpuri,76.5642,21.0472
Maharashtra,Buldhana,Sungaon-1,76.5569,21.0839
Maharashtra,Buldhana,Ambe Takli,76.6725,20.5183
Maharashtra,Buldhana,Garadgaon,76.55,20.6667
Maharashtra,Buldhana,Godhnapur,76.5244,20.6758
Maharashtra,Buldhana,Khamgaon,76.575,20.7
Maharashtra,Buldhana,Nandri,76.4289,20.6183
Maharashtra,Buldhana,Pahurjira,76.6492,20.6739
Maharashtra,Buldhana,Pimpalgaon Raja,76.4375,20.7244
Maharashtra,Buldhana,Borakhedi Barwa,76.0939,19.9858
Maharashtra,Buldhana,Datala-1,76.2028,20.8164
Maharashtra,Buldhana,Waghul,76.2667,20.8717
Maharashtra,Buldhana,Loni,76.4053,20.2936
Maharashtra,Buldhana,Mehkar,76.5667,20.15
Maharashtra,Buldhana,Dhamangaon,76.0333,20.6667
Maharashtra,Buldhana,Thad,76.0861,20.6458
Maharashtra,Buldhana,Ubalkhed,76.0856,20.5994
Maharashtra,Buldhana,Dighi,76.3367,20.8625
Maharashtra,Buldhana,Nandura-1,76.4514,20.8342
Maharashtra,Buldhana,Tarvadi,76.35,20.7333
Maharashtra,Buldhana,Warwat Bakhal-1,76.7114,21.0236
Maharashtra,Buldhana,Khairav,76.2619,20.0647
Maharashtra,Chandrapur,Kothari,79.4917,19.7917
Maharashtra,Chandrapur,Chora,79.2344,20.1992
Maharashtra,Chandrapur,Musad Visapur,79.1756,20.2033
Maharashtra,Chandrapur,Shegaon Khurd,79.1803,20.2936
Maharashtra,Chandrapur,Mendki,79.8333,20.4667
Maharashtra,Chandrapur,Shankarpur,79.5333,20.6458
Maharashtra,Chandrapur,Dabha,79.6208,19.625
Maharashtra,Chandrapur,Navegaon More,71.6667,19.8539
Maharashtra,Chandrapur,Navegaon-1,79.7353,19.7119
Maharashtra,Chandrapur,Mohadi Mokasa,79.65,20.6458
Maharashtra,Chandrapur,Jivati,79.0522,19.6089
Maharashtra,Chandrapur,Sondo,79.3333,19.6667
Maharashtra,Chandrapur,Ladbori,79.6308,20.3125
Maharashtra,Chandrapur,Tambegadi Mendha,79.7908,20.2111
Maharashtra,Chandrapur,Ralegaon-1,79.1964,20.4094
Maharashtra,Chandrapur,Rampur,79,20.4083
Maharashtra,Chandrapur,Wahangaon,79.2336,20.4836
Maharashtra,Chandrapur,Warora-1,79.0122,20.2525
Maharashtra,Dhule,Ajnale,74.6,20.825
Maharashtra,Dhule,Avdhan,74.7833,20.85
Maharashtra,Dhule,Borkund,74.8311,20.7181
Maharashtra,Dhule,Kusumba,74.5983,20.9075
Maharashtra,Dhule,Mukti,74.95,20.8833
Maharashtra,Dhule,Ner-1,74.5147,20.9361
Maharashtra,Dhule,Phagne,74.8381,20.89
Maharashtra,Dhule,Sarvad,74.7814,21.04
Maharashtra,Dhule,Babhulde,74.1965,21.1249
Maharashtra,Dhule,Chhadvel,74.2449,21.1907
Maharashtra,Dhule,Dahivad,74.9298,21.3386
Maharashtra,Dhule,Dhamnar,74.3772,20.9236
Maharashtra,Dhule,Dusane,74.4219,21.1344
Maharashtra,Dhule,Ichhapur,74.4444,20.9722
Maharashtra,Dhule,Sakri2,74.3167,20.9833
Maharashtra,Dhule,Chimthane,74.6833,21.1833
Maharashtra,Dhule,Dhavda,74.4925,21.3378
Maharashtra,Dhule,Dondaicha-1,74.5733,21.3236
Maharashtra,Dhule,Vikharan,74.791,21.4154
Maharashtra,Dhule,Hadakhed,74.9814,21.4239
Maharashtra,Dhule,Hisala,75.1006,21.2667
Maharashtra,Dhule,Palasner,75.0472,21.525
Maharashtra,Dhule,Saver,75.0169,21.2961
Maharashtra,Gadchiroli,Govindgaon,80.1203,19.1058
Maharashtra,Gadchiroli,Nandigaon,80.0333,19.3
Maharashtra,Gadchiroli,Timiram,80.0833,19.2833
Maharashtra,Gadchiroli,Umanur,80.0667,19.05
Maharashtra,Gadchiroli,Khondala,79.9708,20.575
Maharashtra,Gadchiroli,Kitadi,79.9897,20.365
Maharashtra,Gadchiroli,Shankarpur,80.035,20.6272
Maharashtra,Gadchiroli,Vihirgaon Kukdi,80.1681,20.6522
Maharashtra,Gadchiroli,Bori,79.95,19.5
Maharashtra,Gadchiroli,Chaudampalli,79.85,19.6
Maharashtra,Gadchiroli,Rangi,80.1819,20.3472
Maharashtra,Gadchiroli,Itapalli,80.2333,19.6
Maharashtra,Gadchiroli,Gadchiroli,80.0083,20.1833
Maharashtra,Gadchiroli,Govindpur,80.0014,20.0653
Maharashtra,Gadchiroli,Maregaon-1,80.1178,20.3058
Maharashtra,Gadchiroli,Shivni,79.9942,20.1053
Maharashtra,Gondia,Dhabetekdi,79.9647,20.79
Maharashtra,Gondia,Salebardi,79.9403,20.9097
Maharashtra,Gondia,Deori-1,80.3667,21.0758
Maharashtra,Gondia,Khamari,80.2369,21.4189
Maharashtra,Gondia,Khatiya,80.2608,21.5189
Maharashtra,Gondia,Rajegaon,80.2472,21.6139
Maharashtra,Gondia,Sategaon-Sakaritola,80.45,21.27
Maharashtra,Gondia,Navegaon Ii (Khurd),79.8217,21.3464
Maharashtra,Gondia,Sejgaon,80.0183,21.4958
Maharashtra,Gondia,Tiroda,79.9333,21.4
Maharashtra,Hingoli,Chondi Amba-1,77.15,19.4333
Maharashtra,Hingoli,Palasgaon,77.2331,19.3128
Maharashtra,Hingoli,Aundha Nagnath,77.0333,19.5417
Maharashtra,Hingoli,Balapur Akhada-1,77.4111,19.5417
Maharashtra,Hingoli,Dongarkada,77.3747,19.3775
Maharashtra,Hingoli,Jambharun-Rodge,76.9569,19.7708
Maharashtra,Hingoli,Khutha,76.8594,19.8283
Maharashtra,Jalgaon,Nimjahari,75.4544,20.6556
Maharashtra,Jalgaon,Bhadgaon-1,75.2256,20.6719
Maharashtra,Jalgaon,Jamthi,75.9703,20.8067
Maharashtra,Jalgaon,Susari-Varangaon,75.9081,20.9975
Maharashtra,Jalgaon,Adgaon,74.9028,20.5069
Maharashtra,Jalgaon,Mendhoda,76.0333,21.1056
Maharashtra,Jalgaon,Narvel,76.1208,21.1944
Maharashtra,Jalgaon,Sirsala,75.05,20.9394
Maharashtra,Jalgaon,Kasoda,75.3,20.825
Maharashtra,Jalgaon,Naseerabad,75.6583,21.0003
Maharashtra,Jalgaon,Jamner_02,75.7731,20.7969
Maharashtra,Jalgaon,Neri,75.6639,20.8539
Maharashtra,Jalgaon,Shendurni,75.6042,20.65
Maharashtra,Jalgaon,Vakdi,75.8208,20.6708
Maharashtra,Jalgaon,Lasgaon,75.4556,20.7897
Maharashtra,Jalgaon,Varkhedi-1,75.9789,20.96
Maharashtra,Jalgaon,Khanapur-1,76.1022,21.275
Maharashtra,Jalgaon,Khiroda-2,75.8833,21.2081
Maharashtra,Jalgaon,Raver1,76.0344,21.2472
Maharashtra,Jalgaon,Vivra Bk,75.9881,21.2031
Maharashtra,Jalgaon,Kingaon,75.5819,21.2058
Maharashtra,Jalgaon,Sakli-1,75.6292,21.1714
Maharashtra,Jalna,Ambad,75.7833,19.6
Maharashtra,Jalna,Dungaon-1,75.6594,19.5175
Maharashtra,Jalna,Gansawangi-1,75.9928,19.5164
Maharashtra,Jalna,Shirner,75.7339,19.6142
Maharashtra,Jalna,Tirthpuri,75.93,19.4583
Maharashtra,Jalna,Banegaon,75.8433,20.12
Maharashtra,Jalna,Baranjala Lokhande,75.8286,20.1944
Maharashtra,Jalna,Bhokardhan-2,75.7703,20.2508
Maharashtra,Jalna,Danapur,75.8253,20.3114
Maharashtra,Jalna,Hasnabad-1,75.6931,20.1269
Maharashtra,Jalna,Malkheda-1,75.7036,20.2781
Maharashtra,Jalna,Pimpalgaon Renukai,75.8911,20.5511
Maharashtra,Jalna,Wakdi,75.7917,20.3667
Maharashtra,Jalna,Jafrabad,76.0167,20.2
Maharashtra,Jalna,Warud,76.1333,20.2667
Maharashtra,Jalna,Chanegaon,75.8275,20.0194
Maharashtra,Jalna,Gondegaon-1,75.9311,19.9364
Maharashtra,Jalna,Navha,76.0389,19.9167
Maharashtra,Jalna,Pokhari Sindhkhed,75.9583,19.9811
Maharashtra,Jalna,Utavad,76.0678,19.765
Maharashtra,Jalna,Yenora Dhanora,76.1347,19.7281
Maharashtra,Jalna,Dhoksal,76.3675,19.7458
Maharashtra,Jalna,Partur-2,76.2258,19.585
Maharashtra,Jalna,Shreshti,76.2333,19.475
Maharashtra,Jalna,Talni,76.4444,19.8833
Maharashtra,Jalna,Watur-1,76.295,19.6733
Maharashtra,Kolhapur,Halkarne,74.4694,16.1694
Maharashtra,Kolhapur,Shelewadi,74.1167,16.4944
Maharashtra,Kolhapur,Shirol,74.6042,16.7381
Maharashtra,Latur,Samdarga,76.4361,18.2514
Maharashtra,Nagpur,Sathnaori,78.8,21.1333
Maharashtra,Nagpur,Ashti,78.9683,21.2019
Maharashtra,Nagpur,Dhapewada,78.9139,21.3028
Maharashtra,Nagpur,Khairgaon,78.9567,21.1858
Maharashtra,Nagpur,Linga,78.8214,21.2028
Maharashtra,Nagpur,Lohgad,78.7231,21.3422
Maharashtra,Nagpur,Metpanjara,78.7128,21.2514
Maharashtra,Nagpur,Mohpa,78.7625,21.1417
Maharashtra,Nagpur,Sillori,78.9731,21.3022
Maharashtra,Nagpur,Wasboli,78.7022,21.2189
Maharashtra,Nagpur,Kamptee,79.2083,21.2083
Maharashtra,Nagpur,Mouda-1,79.4003,21.1347
Maharashtra,Nagpur,Tarsha,79.3811,21.2258
Maharashtra,Nagpur,Mohad,78.4458,21.4686
Maharashtra,Nagpur,Narkhed,78.5333,21.4667
Maharashtra,Nagpur,Parseoni,79.1667,21.55
Maharashtra,Nagpur,Kharpada,79.3475,21.5308
Maharashtra,Nagpur,Manegaon Tek,79.4222,21.6806
Maharashtra,Nagpur,Bhasali Takli,78.9906,21.3533
Maharashtra,Nagpur,Kelod,78.8764,21.4597
Maharashtra,Nagpur,Kothulna,79.0356,21.4194
Maharashtra,Nagpur,Saoner-1,78.9406,21.3897
Maharashtra,Nagpur,Pipaldol,79.2656,20.8331
Maharashtra,Nanded,Narwat,77.6333,19.2333
Maharashtra,Nanded,Kuncheli,77.5631,18.7694
Maharashtra,Nanded,Narsi,77.5333,18.8097
Maharashtra,Nanded,Talani,77.6117,18.7925
Maharashtra,Nanded,Dorli,77.6344,19.4239
Maharashtra,Nanded,Gadga,77.4606,18.8069
Maharashtra,Nanded,Hadgaon-1,77.6667,19.5
Maharashtra,Nanded,Anjankhed,78.0778,19.8389
Maharashtra,Nanded,Jhalakwadi,78.0833,19.3417
Maharashtra,Nanded,Unkeshwar,78.2,19.85
Maharashtra,Nanded,Balegaon,77.5761,18.9606
Maharashtra,Nanded,Jamb Buzurg,77.1833,18.6561
Maharashtra,Nanded,Kolambi,77.4178,18.89
Maharashtra,Nanded,Somthana,77.4403,18.9428
Maharashtra,Nanded,Barad,77.4333,19.2333
Maharashtra,Nanded,Dhanegaon,77.3297,19.13
Maharashtra,Nanded,Khambegaon,77.0731,18.9906
Maharashtra,Nanded,Lahan,77.4625,19.2819
Maharashtra,Nanded,Nanded,77.3394,19.1906
Maharashtra,Nanded,Police Wadi,77.0856,18.9219
Maharashtra,Nanded,Taroda (Bk),77.2906,19.2094
Maharashtra,Nandurbar,Khuntamodi,74.0972,21.8056
Maharashtra,Nandurbar,Ghotane,74.4414,21.3389
Maharashtra,Nandurbar,Ghuli,74.2536,21.4311
Maharashtra,Nandurbar,Pimpri,74.2169,21.3089
Maharashtra,Nandurbar,Vadkolambi,73.8325,21.0667
Maharashtra,Nashik,Jaikheda,74.2033,20.7925
Maharashtra,Nashik,Pimplekothi,74.1356,20.8269
Maharashtra,Nashik,Satana,74.2042,20.6
Maharashtra,Nashik,Toharabad,74.1333,20.775
Maharashtra,Nashik,Toharabad-1,74.1333,20.7822
Maharashtra,Nashik,Virgaon,74.1342,20.6936
Maharashtra,Nashik,Boyegaon,74.1744,20.2347
Maharashtra,Nashik,Chandwad,74.2375,20.2583
Maharashtra,Nashik,Dhotarkheda,74.0525,20.2258
Maharashtra,Nashik,Deola-1,74.1839,20.4639
Maharashtra,Nashik,Gosrane,73.9256,20.5
Maharashtra,Nashik,Kalvan,74.0356,20.4925
Maharashtra,Nashik,Savargaon,74.4611,20.3575
Maharashtra,Nashik,Umrane-1,74.35,20.4219
Maharashtra,Nashik,Matori,73.7425,20.0539
Maharashtra,Nashik,Jalgaon,74.1111,20.0639
Maharashtra,Nashik,Vanasgaon,74.1461,20.1536
Maharashtra,Nashik,Vinchur-1,74.2256,20.1003
Maharashtra,Nashik,Malwadi-1,74.0847,19.7733
Maharashtra,Nashik,Marhal Kh,74.1822,19.78
Maharashtra,Nashik,Nandur Shirgate,74.1333,19.7167
Maharashtra,Nashik,Pathre Bk,74.3356,19.8297
Maharashtra,Nashik,Vavi-1,74.2489,19.8039
Maharashtra,Nashik,Wadgaon Pimpala,73.8811,19.8728
Maharashtra,Nashik,Angangaon,74.4683,20.0339
Maharashtra,Nashik,Purangaon-Jalgaon,74.3681,20.0503
Maharashtra,Osmanabad,Govindpur,76.0914,18.4556
Maharashtra,Osmanabad,Lohara Buzurg,76.3306,17.9917
Maharashtra,Parbhani,Anjanawadi-1,76.8347,19.0169
Maharashtra,Parbhani,Kerwadi,76.8667,18.9833
Maharashtra,Parbhani,Dhar,76.9589,19.5447
Maharashtra,Parbhani,Jintur,76.6833,19.6167
Maharashtra,Parbhani,Panchegaon-1,76.7094,19.5558
Maharashtra,Parbhani,Bori,76.7225,19.4856
Maharashtra,Parbhani,Jhari-1,76.7658,19.4264
Maharashtra,Parbhani,Pedgaon2,76.6583,19.325
Maharashtra,Parbhani,Devgaon,76.4625,19.6142
Maharashtra,Parbhani,Hadgaon-1,76.3133,19.3136
Maharashtra,Parbhani,Kola,76.5617,19.3439
Maharashtra,Parbhani,Manwat,76.4833,19.3
Maharashtra,Parbhani,Moregaon,76.455,19.8531
Maharashtra,Parbhani,Tarborgaon,76.6083,19.3239
Maharashtra,Pune,Kalamb,73.9611,19.0583
Maharashtra,Pune,Pabal New,74.0503,18.8358
Maharashtra,Pune,Dhumalwadi,74.4806,18.1006
Maharashtra,Pune,Patas,74.4333,18.4333
Maharashtra,Pune,Shikrapur,74.1167,18.6914
Maharashtra,Pune,Otur,73.9667,19.2708
Maharashtra,Pune,Panjari Mata,73.9265,19.241
Maharashtra,Pune,Jankeshwar,78.9539,18.0851
Maharashtra,Pune,Kamatwadi-Walha,74.1686,18.1514
Maharashtra,Pune,Gholapwadi,74.2163,18.6756
Maharashtra,Pune,Shirur,74.3667,18.8167
Maharashtra,Raigad,Phugaon,73.2056,18.4333
Maharashtra,Sangli,Jath,75.2167,17.05
Maharashtra,Sangli,Shegaon,75.1792,17.1514
Maharashtra,Sangli,Kuchi,74.8644,17.0506
Maharashtra,Sangli,Palashi-1,75.3514,17.3514
Maharashtra,Sangli,Karnal-1,74.5669,16.9169
Maharashtra,Sangli,Kirloskarwadi,74.4122,17.0883
Maharashtra,Sangli,Yevali,74.5167,17.0667
Maharashtra,Sangli,Borgaon,74.3258,17.0808
Maharashtra,Sangli,Peth,74.2333,17.0508
Maharashtra,Satara,Mayani,74.6969,17.7844
Maharashtra,Satara,Arvi-1,74.2278,17.5089
Maharashtra,Satara,Pimpode (Bk)-1,74.0922,17.9133
Maharashtra,Satara,Dahivadi,74.6969,17.7844
Maharashtra,Satara,Mardi,74.6969,17.7844
Maharashtra,Satara,Barad,74.5861,17.9508
Maharashtra,Satara,Lonand,74.1883,18.0458
Maharashtra,Satara,Mirgaon,74.35,17.9667
Maharashtra,Satara,Tathvade,74.325,17.8667
Maharashtra,Satara,Thakurki_Phaltan,74.6969,17.7844
Maharashtra,Satara,Limb Sheri,74.6969,17.7844
Maharashtra,Solapur,Nari,75.8875,18.1958
Maharashtra,Solapur,Varkute,75.3333,18.25
Maharashtra,Solapur,Bhosre,75.4336,18.0806
Maharashtra,Solapur,Madha,75.5164,18.0383
Maharashtra,Solapur,Parite,75.2672,17.9542
Maharashtra,Solapur,Dharmpuri,74.6833,17.9333
Maharashtra,Solapur,Eklaspur,75.3833,17.5333
Maharashtra,Solapur,Angar,75.575,17.8953
Maharashtra,Solapur,Hivre,75.5375,17.8417
Maharashtra,Solapur,Bhandi-Shegaon,75.2167,17.7167
Maharashtra,Solapur,Ranzani,75.4,17.6167
Maharashtra,Solapur,Rople,75.4,17.7833
Maharashtra,Solapur,Mahud (Bk)-1,75.0933,17.6056
Maharashtra,Solapur,Nagaj,74.95,17.15
Maharashtra,Solapur,Sangola,75.2,17.45
Maharashtra,Solapur,Nannaj,75.8514,17.8347
Maharashtra,Solapur,Chincholi,76.05,17.6
Maharashtra,Thane,Khodala,73.4,19.8
Maharashtra,Wardha,Rasulabad,78.3636,20.771
Maharashtra,Wardha,Rohna,78.3258,20.8531
Maharashtra,Wardha,Wadhona-1,78.3458,20.9972
Maharashtra,Wardha,Dhadi,78.2333,21.2667
Maharashtra,Wardha,Sahur,78.2417,21.3083
Maharashtra,Wardha,Adgaon,78.528,20.5832
Maharashtra,Wardha,Bhidi,78.4036,20.5717
Maharashtra,Wardha,Giroli,78.585,20.5489
Maharashtra,Wardha,Vijaygopal,78.3331,20.5742
Maharashtra,Wardha,Ajansara,78.6713,20.4093
Maharashtra,Wardha,Alipur,78.6942,20.5489
Maharashtra,Wardha,Hinganghat,78.8167,20.55
Maharashtra,Wardha,Kangaon,78.6142,20.5108
Maharashtra,Wardha,Kapsi,78.5978,20.435
Maharashtra,Wardha,Madni (New),78.775,20.655
Maharashtra,Wardha,Pipri,78.7353,20.3889
Maharashtra,Wardha,Nagalwadi,78.4333,21.1667
Maharashtra,Wardha,Pardi,78.3,21.1833
Maharashtra,Wardha,Dhondgaon,79.0578,20.6317
Maharashtra,Wardha,Khandali,78.9256,20.7375
Maharashtra,Wardha,Sakhra,79.1008,20.5461
Maharashtra,Wardha,Wasi,79.0333,20.5167
Maharashtra,Wardha,Helodi,78.845,20.8053
Maharashtra,Wardha,Hingni,78.7167,20.9083
Maharashtra,Wardha,Jamni,78.5822,20.8614
Maharashtra,Wardha,Yelakeli,78.5903,20.8139
Maharashtra,Wardha,Anji,78.5167,20.85
Maharashtra,Wardha,Dahigaon,78.4853,20.7544
Maharashtra,Wardha,Karanji Kaji,78.7286,20.7072
Maharashtra,Wardha,Pavnar,78.6672,20.7817
Maharashtra,Wardha,Sonegaon,78.7167,20.6167
Maharashtra,Wardha,Wardha-1,78.6167,20.7333
Maharashtra,Washim,Dhanaj Khurd,77.5861,20.7167
Maharashtra,Washim,Kamargaon,77.5028,20.6139
Maharashtra,Washim,Kherda,77.4408,20.5875
Maharashtra,Washim,Shaha,77.4667,20.525
Maharashtra,Washim,Vilegaon (Kherda),77.4431,20.5861
Maharashtra,Washim,Jamkheda,77.0861,20.2778
Maharashtra,Washim,Medshi,76.9417,20.3333
Maharashtra,Washim,Jogaldari,77.4125,20.2647
Maharashtra,Washim,Lathi,77.2419,20.3656
Maharashtra,Washim,Nagi,77.2644,20.3769
Maharashtra,Washim,Sakhar Doha,77.4,20.2667
Maharashtra,Washim,Sangaon,77.3528,20.1931
Maharashtra,Washim,Amgavhan,77.5239,20.2275
Maharashtra,Washim,Giroli,77.4756,20.2086
Maharashtra,Washim,Sendurjan Adhao,77.45,20.1458
Maharashtra,Washim,Bhar Jahagir,76.7103,19.9422
Maharashtra,Washim,Kalamgovan,76.8331,20.1992
Maharashtra,Washim,Risod,76.7833,19.9667
Maharashtra,Washim,Bitoda (Bhoyar),77.2667,20.1833
Maharashtra,Washim,Mohaja,77.0158,20.0686
Maharashtra,Washim,Tondgaon,77.1189,20.0011
Maharashtra,Yavatmal,Pahur,78.05,20.6
Maharashtra,Yavatmal,Sarul,78.1417,20.6483
Maharashtra,Yavatmal,Savar,78.0667,20.4978
Maharashtra,Yavatmal,Darwha,77.7697,20.3028
Maharashtra,Yavatmal,Sangwi Rly,77.6053,20.4192
Maharashtra,Yavatmal,Selodi,77.7667,20.3167
Maharashtra,Yavatmal,Singad,77.6356,20.0525
Maharashtra,Yavatmal,Vai (Lingi),77.7717,20.1917
Maharashtra,Yavatmal,Chatari,78.05,20.0208
Maharashtra,Yavatmal,Ghatanji,78.3167,20.1333
Maharashtra,Yavatmal,Injhala,78.3167,20.0833
Maharashtra,Yavatmal,Mowada,78.4094,20.1344
Maharashtra,Yavatmal,Parwa,78.3417,19.9889
Maharashtra,Yavatmal,Talni,78.1422,20.1411
Maharashtra,Yavatmal,Aamli,78.4028,20.2322
Maharashtra,Yavatmal,Kalamb,78.3333,20.45
Maharashtra,Yavatmal,Kotha,78.2778,20.5306
Maharashtra,Yavatmal,Khatara,78.6464,20.1511
Maharashtra,Yavatmal,Pahapal,78.5,19.9833
Maharashtra,Yavatmal,Satpali,78.6342,19.8294
Maharashtra,Yavatmal,Dhanoda,77.875,19.8583
Maharashtra,Yavatmal,Mardi,78.85,20.2167
Maharashtra,Yavatmal,Maregaon,78.8167,20.1
Maharashtra,Yavatmal,Dhanaj (Manekwada),77.925,20.5292
Maharashtra,Yavatmal,Marwadi Khurd,77.3667,19.9583
Maharashtra,Yavatmal,Punwat-1,79.0511,19.8528
Maharashtra,Yavatmal,Wani-1,78.9553,20.0478
Maharashtra,Yavatmal,Kolambi,78.1833,20.2417
Maharashtra,Yavatmal,Madkona,78.2,20.4
Maharashtra,Yavatmal,Mangrule,77.9833,20.2
Odisha,Anugul,Barhabahal,85.1,20.755
Odisha,Anugul,Thakurgarh 1,84.6347,20.8133
Odisha,Anugul,Amna,85.1689,20.8489
Odisha,Anugul,Kuio,85.0811,20.8908
Odisha,Anugul,Tulsipal,85.1867,20.8036
Odisha,Anugul,Nisa,85.0042,20.9264
Odisha,Anugul,Ugi,84.8792,20.8467
Odisha,Anugul,Luhamunda,84.9978,21.09
Odisha,Anugul,Handpa 1,84.6872,20.9536
Odisha,Anugul,Jamardihi,85.2572,21.5006
Odisha,Anugul,Balanda,85.1578,20.9275
Odisha,Anugul,Kumunda 1,85.0264,20.9764
Odisha,Anugul,Sendhogram,85.2333,20.9256
Odisha,Balangir,Agalpur 1,83.4069,21.0122
Odisha,Balangir,Duduka,83.4911,20.98
Odisha,Balangir,Bijakhaman1,83.4544,20.6672
Odisha,Balangir,Bolangir-Ii,83.48,20.6978
Odisha,Balangir,Dhumamara,83.4408,20.7139
Odisha,Balangir,Dudukasira,83.4028,20.7369
Odisha,Balangir,Dudukasira,83.4028,20.7369
Odisha,Balangir,Phulajharan,83.4678,20.7194
Odisha,Balangir,Pudapalli,83.5208,20.6797
Odisha,Balangir,Sinkhaman,83.4264,20.6192
Odisha,Balangir,Sindhikela (New),82.9414,20.2311
Odisha,Balangir,Kapani,83.2278,20.2522
Odisha,Balangir,Lathor,82.7653,20.625
Odisha,Balangir,Lathor,82.7653,20.625
Odisha,Balangir,Sagarpali,83.4219,20.5583
Odisha,Balangir,Bandupalla,83.0936,20.4722
Odisha,Balangir,Chormara,83.2917,20.3047
Odisha,Balangir,Chormara,83.2917,20.3047
Odisha,Bargarh,Majhipali,82.8867,20.9519
Odisha,Cuttack,Athagarh-1,85.6169,20.5089
Odisha,Cuttack,Abhimanpur,85.4375,20.4444
Odisha,Cuttack,Baramba,85.3458,20.4175
Odisha,Cuttack,Karadibandh,85.2847,20.3792
Odisha,Cuttack,Balijhari 1,85.2194,20.4106
Odisha,Cuttack,Kanapur,85.1833,20.4056
Odisha,Dhenkanal,Babandh,85.4297,20.7206
Odisha,Dhenkanal,Balmi,85.3258,20.7061
Odisha,Dhenkanal,Baisingha,85.5931,20.9139
Odisha,Kendujhar,Barpada,86.1167,21.1194
Odisha,Kendujhar,Gopalpur2,85.705,21.5653
Odisha,Khordha,Odakhanda-Dw,85.9756,20.1167
Odisha,Khordha,Begunia 1,85.4547,20.2033
Odisha,Koraput,Jujari,82.5778,19.1533
Odisha,Koraput,Anta,82.5222,18.8653
Odisha,Koraput,Kunduli,82.8917,18.61
Odisha,Koraput,Subai,82.8053,18.6183
Odisha,Mayurbhanj,Jamda 1,86.0706,22.2758
Odisha,Mayurbhanj,Nischintapur,86.0758,22.4181
Odisha,Nayagarh,Mali Bareni,85.2983,20.3
Odisha,Nayagarh,Benagadia,85.1736,20.2628
Odisha,Nayagarh,Kana Singhi,85.1092,20.38
Odisha,Nayagarh,Bherupada,85.2956,20.0653
Odisha,Nayagarh,Lathipada 1,85.1533,20.1075
Odisha,Nuapada,Bada-Maheswar,82.6867,20.3833
Odisha,Nuapada,Bargaon-K,82.6958,20.3403
Odisha,Nuapada,Chanabeda,82.4558,20.1758
Odisha,Nuapada,Ranipur,82.7758,20.2786
Odisha,Nuapada,Komna1,82.6728,20.5014
Odisha,Nuapada,Kurumpuri,82.5869,20.7189
Odisha,Nuapada,Budhipali,82.5286,20.9064
Odisha,Nuapada,Sahipala,82.6778,20.8281
Odisha,Nuapada,Sarabong,82.4689,20.8111
Odisha,Puri,Gokhara,85.6056,19.78
Odisha,Puri,Delang,85.7694,20.0361
Odisha,Puri,Kakatpur Ii,86.1944,19.9994
Odisha,Puri,P-19 Kashi Jagannathpur,85.8064,19.8167
Odisha,Puri,P-32 Gobardhan Matha,85.7833,19.7953
Odisha,Puri,P-34 Sidha Mahavir,85.8469,19.8192
Odisha,Puri,P-44 Jagannath Temple,85.8189,19.8064
Odisha,Sambalpur,Jugipali,83.9828,21.5272
Odisha,Sambalpur,Badsahir,84.1322,21.3983
Odisha,Sambalpur,Boxma,84.3794,21.7136
Odisha,Sambalpur,Paruabhari 1,84.3586,21.8019
Odisha,Sambalpur,Naxapali,84.0142,21.4272
Odisha,Sambalpur,Rairakhol(Rampu,84.3333,21.0667
Odisha,Sonapur,Ankhidadar,83.8161,21.0944
Odisha,Sonapur,Antarda,83.7808,21.0481
Odisha,Sonapur,Biramaharajpur,84.0589,20.9269
Odisha,Sonapur,Baghahandi,83.6361,21.0581
Odisha,Sonapur,Bagduli,83.7633,20.8167
Odisha,Sonapur,Palsapadar,83.6508,20.6522
Odisha,Sundargarh,R-06 Basanti Colony,84.8383,22.2375
Odisha,Sundargarh,R-20 Jhirpani,84.9053,22.2758
Odisha,Sundargarh,R-38 Kalunga,84.7769,22.2378
Pondicherry,Pondicherry,Reddichavadi,79.827,11.9368
Rajasthan,Ajmer,Barora,75.036,26.213
Rajasthan,Ajmer,Jhopadiyan,74.658,26.025
Rajasthan,Ajmer,Narbadkhera,74.283,26.05
Rajasthan,Ajmer,Ludiyana,74.583,25.997
Rajasthan,Ajmer,Sarwad,75,26.05
Rajasthan,Ajmer,Kanpura1,74.867,26.4
Rajasthan,Alwar,Kathumar,77.0778,27.3161
Rajasthan,Alwar,Kushalgarh,76.44,27.47
Rajasthan,Alwar,Mandawar,76.5455,27.8696
Rajasthan,Alwar,Tehla,76.4,27.2375
Rajasthan,Alwar,Todi Ka Bas,76.328,27.118
Rajasthan,Alwar,Tapukara,76.835,28.11
Rajasthan,Banswara,Maudi Maska,74.31,23.15
Rajasthan,Banswara,Samla Sahar,74.25,23.21
Rajasthan,Banswara,Arthuna,74.1,23.496
Rajasthan,Banswara,Padla Barora,74.519,23.536
Rajasthan,Banswara,Gangar Talai,74.1698,23.2573
Rajasthan,Banswara,Ganora,74.253,23.767
Rajasthan,Banswara,Charakni,74.38,23.313
Rajasthan,Banswara,Chota Dungra,74.29,23.172
Rajasthan,Baran,Chhabra_Gwd,76.843,24.668
Rajasthan,Baran,Chhipa Barod,76.732,24.594
Rajasthan,Baran,Bhanwargarh,76.794,25.091
Rajasthan,Barmer,Bhadka,71.35,25.8833
Rajasthan,Barmer,Kerala,71.9016,25.997
Rajasthan,Barmer,Sawau Padam Singh,71.8067,26.1503
Rajasthan,Barmer,Thob (Hs-2),72.383,26.054
Rajasthan,Barmer,"Ashok Ki Dhani, Sawlor",71.261,25.6062
Rajasthan,Barmer,Chawa,71.663,25.746
Rajasthan,Barmer,Dhorimana,71.4352,25.2344
Rajasthan,Barmer,Doongar Jee Ki Dhani,71.403,25.5034
Rajasthan,Barmer,"Khairaj Ram Ki Dhani, Sanwlor",71.2319,25.5923
Rajasthan,Barmer,Lakhaniyon Ki Dhani,71.413,25.4659
Rajasthan,Barmer,"Mandal Eido Ki Dhani, Derasar",71.1422,25.8118
Rajasthan,Barmer,"Meethano Ki Basti, Derasar",71.1515,25.7922
Rajasthan,Barmer,"Phed Campus, Darziyon Ki Dhani,",71.4033,25.4632
Rajasthan,Barmer,Sanawara,71.4,25.48
Rajasthan,Barmer,Sansiyan Ka Tala,71.4125,25.7042
Rajasthan,Barmer,Sanwlor,71.2333,25.5858
Rajasthan,Barmer,"Sanwlor Stone Crusher, Sanwlor",71.274,25.6089
Rajasthan,Barmer,"Vatika Kaushal Int , Gadan",71.3866,25.695
Rajasthan,Barmer,Chauhtan,71.075,25.475
Rajasthan,Barmer,Dhanau,71.1339,25.2343
Rajasthan,Barmer,Siyagatala,70.8653,25.3375
Rajasthan,Barmer,Chauhtan_Dw,71.075,25.475
Rajasthan,Barmer,Chohtan,71.067,25.475
Rajasthan,Barmer,Bheelon Ki Dhani,71.4698,25.2271
Rajasthan,Barmer,"Gaushala, Nerinadi",71.406,25.2229
Rajasthan,Barmer,"Hari Om Hotel, Highway",71.4354,25.2343
Rajasthan,Barmer,Gudamalani,71.6988,25.214
Rajasthan,Barmer,Thob,72.358,26.05
Rajasthan,Barmer,Thoombli,72.489,26.204
Rajasthan,Barmer,Ramsar,70.8719,25.7303
Rajasthan,Barmer,Tarla,71.217,24.836
Rajasthan,Barmer,Gujro Ka Bera,71.556,26.338
Rajasthan,Barmer,Loonakalan,71.9829,25.4481
Rajasthan,Barmer,Bhoginji Ka Meetha,72.1242,25.5269
Rajasthan,Barmer,Bhoginji Ka Meetha,72.1158,25.5131
Rajasthan,Barmer,Dhanwa,72.1199,25.5475
Rajasthan,Barmer,Bhoginji Ka Meetha,72.1257,25.5149
Rajasthan,Bharatpur,Mandhera,77.353,27.395
Rajasthan,Bharatpur,Roopwas,77.5908,26.9936
Rajasthan,Bharatpur,Dahinagaon,77.492,26.996
Rajasthan,Bharatpur,Sewar,77.4403,27.1822
Rajasthan,Bhilwara,Daulatgarh,74.32,25.633
Rajasthan,Bhilwara,Tiloli,74.313,25.598
Rajasthan,Bhilwara,Raila Road,74.6,25.633
Rajasthan,Bhilwara,Mangtala,75.2975,25.3475
Rajasthan,Bhilwara,Rampuriya_Pz,75.3288,25.2935
Rajasthan,Bhilwara,Borani,75.333,25.683
Rajasthan,Bhilwara,Bhagwanpura,75.055,25.469
Rajasthan,Bhilwara,Kotari,74.892,25.397
Rajasthan,Bhilwara,Sawaipur,74.867,25.307
Rajasthan,Bhilwara,Malas,74.3294,25.5242
Rajasthan,Bhilwara,Mandal,74.5693,25.4533
Rajasthan,Bhilwara,Gangapur1,74.26,25.217
Rajasthan,Bikaner,Deshnokh,73.35,27.8
Rajasthan,Bikaner,Lakhusar,73.192,28.317
Rajasthan,Bikaner,1Lkd,73.855,28.6031
Rajasthan,Bikaner,264Rd,73.7738,28.5619
Rajasthan,Bikaner,Binjawari,73.45,28.467
Rajasthan,Bikaner,Garabdesar,74.0125,28.4436
Rajasthan,Bikaner,Hariasar,73.811,28.576
Rajasthan,Bikaner,Khirera,73.558,28.479
Rajasthan,Bikaner,Lakhansar,73.35,28.87
Rajasthan,Bikaner,Malkisar,73.919,28.667
Rajasthan,Bikaner,Raner,73.288,28.885
Rajasthan,Bikaner,Panchoo,73.2122,27.5122
Rajasthan,Bundi,Satur,75.515,25.437
Rajasthan,Chittaurgarh,Mungana,74.27,24.88
Rajasthan,Chittaurgarh,Dugar,74.8333,25.1083
Rajasthan,Chittaurgarh,Bansen,74.45,24.727
Rajasthan,Churu,Bidasar,74.283,27.839
Rajasthan,Churu,Churu,74.9275,28.2955
Rajasthan,Churu,Jawanipur,75.04,28.52
Rajasthan,Churu,Shyampura,74.89,28.27
Rajasthan,Churu,Sirsala,75.131,28.433
Rajasthan,Churu,Gagor,75.34,28.6
Rajasthan,Churu,Lambor Chhoti,75.41,28.59
Rajasthan,Churu,Ludi Jhandar,75.43,28.66
Rajasthan,Churu,Neema,75.4722,28.4667
Rajasthan,Churu,Rajgarh1,75.375,28.633
Rajasthan,Churu,Rebari Bas,75.48,28.49
Rajasthan,Churu,Parihara,74.5619,27.9244
Rajasthan,Churu,Ratangarh,74.617,28.083
Rajasthan,Churu,Tidiyasar,74.754,28.066
Rajasthan,Churu,Almorsar,74.55,28.37
Rajasthan,Churu,Beekamsara,74.42,28.45
Rajasthan,Churu,Jeevan Desar,74.53,28.4
Rajasthan,Churu,Mehrasar,74.5375,28.3572
Rajasthan,Churu,Ranasar Beekan,74.54,28.32
Rajasthan,Churu,Melusar,74.738,28.504
Rajasthan,Churu,Sardarshahar,74.486,28.439
Rajasthan,Churu,Guleriya,74.419,27.738
Rajasthan,Churu,Sujangarh,74.4808,27.7069
Rajasthan,Churu,Shawa,74.842,28.875
Rajasthan,Churu,Taranagar,75.0342,28.6879
Rajasthan,Dausa,Bandikui,76.5683,27.0397
Rajasthan,Dausa,Dausa1,76.326,26.898
Rajasthan,Dausa,Jasuta Hs 2,76.3267,26.9667
Rajasthan,Dausa,Khedla,76.9817,26.9114
Rajasthan,Ganganagar,Anupgarh1,73.219,29.191
Rajasthan,Ganganagar,Khal,73.367,29.083
Rajasthan,Ganganagar,Ganganagar,73.8517,29.9087
Rajasthan,Ganganagar,Raisinghnagar,73.45,29.542
Rajasthan,Ganganagar,Piperan,73.9,29.248
Rajasthan,Hanumangarh,Dungrana,75.097,29.014
Rajasthan,Hanumangarh,Hanumangarh,74.317,29.583
Rajasthan,Hanumangarh,Bhukarka,74.75,29.233
Rajasthan,Hanumangarh,Dudhal,74.133,28.908
Rajasthan,Hanumangarh,Gandehali,74.533,29.217
Rajasthan,Hanumangarh,Purabsar,74.283,29.033
Rajasthan,Hanumangarh,Rawatsar,74.414,29.253
Rajasthan,Hanumangarh,Bolanwali,74.41,29.838
Rajasthan,Jaipur,Nasnota,75.443,26.8
Rajasthan,Jaipur,Pallukhurd,75.325,26.736
Rajasthan,Jaipur,Jaisingpur Khor,75.8806,26.9448
Rajasthan,Jaipur,Kotputli,76.1917,27.7044
Rajasthan,Jaipur,Chittora,75.702,26.638
Rajasthan,Jaipur,Didawata,75.73,26.4939
Rajasthan,Jaipur,Didawata (Near Pz),75.73,26.4939
Rajasthan,Jaipur,Didawata (Sedriya),75.73,26.4939
Rajasthan,Jaipur,Didwata,75.73,26.494
Rajasthan,Jaipur,Lasariya,75.509,26.557
Rajasthan,Jaipur,Madhorajpur,75.656,26.577
Rajasthan,Jaipur,Majhi Renwal,75.683,26.696
Rajasthan,Jaipur,Nemeda,75.514,26.504
Rajasthan,Jaipur,Parun,75.607,26.506
Rajasthan,Jaipur,Sambhar,75.22,26.906
Rajasthan,Jaipur,Sambhar,75.2191,26.885
Rajasthan,Jaipur,Sambhar,75.2269,26.9265
Rajasthan,Jaipur,Sambhar,75.2024,26.899
Rajasthan,Jaisalmer,Moolsagar,70.835,26.913
Rajasthan,Jaisalmer,Sadewala,70.244,27.635
Rajasthan,Jaisalmer,Tanot,70.367,27.8
Rajasthan,Jaisalmer,Janpatpura,71.6896,26.6985
Rajasthan,Jaisalmer,Sankara,71.5818,26.7277
Rajasthan,Jaisalmer,Badli (Pokaran Gramin),71.8656,26.8685
Rajasthan,Jaisalmer,Bonada,71.5271,26.5202
Rajasthan,Jaisalmer,Guddi,71.7755,26.7883
Rajasthan,Jaisalmer,Kalewa,71.904,26.806
Rajasthan,Jaisalmer,Lawan,72.05,26.872
Rajasthan,Jaisalmer,Luna Kalan,71.571,26.623
Rajasthan,Jaisalmer,Pokaran(Pokaran -Ii),72.019,26.92
Rajasthan,Jaisalmer,That,71.825,26.8539
Rajasthan,Jalore,Nimba (H/S),72.8664,25.5308
Rajasthan,Jalore,Bhagal Bhim (H/S),72.2227,25.0188
Rajasthan,Jalore,Bhinmal,72.2625,25.0125
Rajasthan,Jalore,Narta,72.2748,25.0883
Rajasthan,Jalore,Pradhan Ki Dhani,72.2,25.0314
Rajasthan,Jalore,Doongri,71.408,24.942
Rajasthan,Jalore,Jalore,72.6306,25.3346
Rajasthan,Jalore,Jalore (H/S),72.6309,25.3329
Rajasthan,Jalore,Sanchore (H/S),71.7805,24.7524
Rajasthan,Jalore,"Temple, Sanchore-Barmer Highway",71.78,25.774
Rajasthan,Jhalawar,Gurariya Joga,75.836,24.367
Rajasthan,Jhalawar,Gunavi,75.883,23.995
Rajasthan,Jhalawar,Gajwara,76.773,24.34
Rajasthan,Jhalawar,Saredi,76.672,24.35
Rajasthan,Jhunjhunu,Alsisar,75.2931,28.3037
Rajasthan,Jhunjhunu,Bhara Ks Bas,75.32,28.31
Rajasthan,Jhunjhunu,Birmi,75.196,28.196
Rajasthan,Jhunjhunu,Churela,75.258,28.164
Rajasthan,Jhunjhunu,Ghasi Ram Ka Bas,75.3,28.29
Rajasthan,Jhunjhunu,Kankaru Khurd,75.34,28.31
Rajasthan,Jhunjhunu,Rampura,75.31,28.26
Rajasthan,Jhunjhunu,Rahida Stand,75.23,28.17
Rajasthan,Jhunjhunu,Mandrela,75.44,28.313
Rajasthan,Jhunjhunu,Math,75.454,28.175
Rajasthan,Jhunjhunu,Mukundgarh,75.217,27.954
Rajasthan,Jhunjhunu,Nawalgarh,75.2533,27.8472
Rajasthan,Jodhpur,Balesar,72.496,26.383
Rajasthan,Jodhpur,Gangani,73.212,26.51
Rajasthan,Jodhpur,Gangani(Hs-1),73.2059,26.4929
Rajasthan,Jodhpur,Gangani(Hs-2),73.2003,26.4868
Rajasthan,Jodhpur,Bhopalgarh Block Hq,73.4984,26.6475
Rajasthan,Jodhpur,Ramdawas,73.3658,26.3658
Rajasthan,Jodhpur,Ramrawas(Hs-2)Khedi Salva,73.3474,26.4281
Rajasthan,Jodhpur,Ramrawas(Hs-3),73.3712,26.4368
Rajasthan,Jodhpur,Ramrawas(Sh-4),73.4366,26.4552
Rajasthan,Jodhpur,Sargiya Kallan,73.54,26.54
Rajasthan,Jodhpur,Artiya Kalla,73.4073,26.5494
Rajasthan,Jodhpur,Devatra(Irandi Ka Bera),73.3957,26.5031
Rajasthan,Jodhpur,Bhavi (Hs-3)Olvi,73.4547,26.2226
Rajasthan,Jodhpur,Bhavi(Hs-2),73.6078,26.2181
Rajasthan,Jodhpur,Bhawi,73.607,26.232
Rajasthan,Jodhpur,Bilara Block Hq,73.7106,26.1969
Rajasthan,Jodhpur,Olvi,73.458,26.233
Rajasthan,Jodhpur,Lordi,72.8343,26.3106
Rajasthan,Jodhpur,Lohawatbisna Bass,72.5883,26.9841
Rajasthan,Jodhpur,Bhandu(Hs-2),72.9107,26.0885
Rajasthan,Jodhpur,Chicharli,72.7128,26.2042
Rajasthan,Jodhpur,Deela,73.0651,26.104
Rajasthan,Jodhpur,Gelawas,72.7789,26.0671
Rajasthan,Jodhpur,Guda Rayka,73.0937,26.1323
Rajasthan,Jodhpur,Manj Form House,73.0481,26.1603
Rajasthan,Jodhpur,Mogra,73.033,26.117
Rajasthan,Jodhpur,Narnadi,72.926,26.154
Rajasthan,Jodhpur,Pariharon Ki Dhani,72.7492,26.1375
Rajasthan,Jodhpur,Raron Ki Dhani,72.775,26.194
Rajasthan,Jodhpur,Salawas,73.0136,26.1427
Rajasthan,Jodhpur,Bisalpur,73.314,26.233
Rajasthan,Jodhpur,Dangiwas,73.274,26.267
Rajasthan,Jodhpur,Karani,72.825,26.272
Rajasthan,Jodhpur,Salodi,72.849,26.413
Rajasthan,Jodhpur,Osian,72.8964,26.7411
Rajasthan,Jodhpur,Shirmandi,72.8657,26.7528
Rajasthan,Jodhpur,Phalodi,72.3783,27.1225
Rajasthan,Jodhpur,Pipad City,73.5497,26.3792
Rajasthan,Jodhpur,Ramrawas,73.38,26.369
Rajasthan,Jodhpur,Nahar Singh Nagar,72.286,26.39
Rajasthan,Karauli,Badh Kamla,76.925,26.693
Rajasthan,Karauli,Hindaun Hs,77.0297,26.7342
Rajasthan,Karauli,Islampur,77.017,26.7
Rajasthan,Karauli,Bhauapura,77.182,26.542
Rajasthan,Karauli,Karauli,77.0172,26.5014
Rajasthan,Karauli,Karsai,76.933,26.425
Rajasthan,Karauli,Sapotra1,76.77,26.279
Rajasthan,Nagaur,Datau,74.4567,27.4906
Rajasthan,Nagaur,Chosli,74.255,26.93
Rajasthan,Nagaur,Chosli Hs-2,74.2636,26.9337
Rajasthan,Nagaur,Chosli Hs-4,74.1711,27.008
Rajasthan,Nagaur,Chosli(Hs-1)Langod,74.2828,26.914
Rajasthan,Nagaur,Chosli(Khinwtana)Hs-3,74.1907,26.9916
Rajasthan,Nagaur,Degana,74.3547,26.8181
Rajasthan,Nagaur,Kolia,74.483,27.346
Rajasthan,Nagaur,Koliya,74.4833,27.3458
Rajasthan,Nagaur,Singhana,74.5125,27.4753
Rajasthan,Nagaur,Jayal-Hs-3(Gujaria Bas),74.1924,27.2355
Rajasthan,Nagaur,Sanward,74.517,27.517
Rajasthan,Nagaur,Makrana,74.7574,27.0256
Rajasthan,Nagaur,Nagaur,73.75,27.1833
Rajasthan,Nagaur,Nagaur Hs-3,73.78,27.2268
Rajasthan,Nagaur,Nagaur Hs-4,73.7037,27.1976
Rajasthan,Nagaur,Nagaur1 (Gwd),73.75,27.183
Rajasthan,Nagaur,Bagot,74.5911,26.8131
Rajasthan,Nagaur,Bagot (Hs-4),74.5847,26.8266
Rajasthan,Nagaur,Bagot(Hs),74.5922,26.8084
Rajasthan,Nagaur,Parbatsar Block Hq,74.7583,26.8847
Rajasthan,Pali,Desuri,73.5582,25.2763
Rajasthan,Pali,Marwar Junction Block Hq,73.601,25.723
Rajasthan,Pali,Gundoj,73.313,25.608
Rajasthan,Pali,Rani,73.3158,25.3425
Rajasthan,Pali,"Shiv Vatika Colony, Vaed",72.9634,25.7432
Rajasthan,Pali,Vaed,72.967,25.724
Rajasthan,Pali,Balwana,73.159,25.114
Rajasthan,Pali,Sumerpur,73.0907,25.1437
Rajasthan,Pratapgarh,Arnod_Pz,74.813,23.9
Rajasthan,Pratapgarh,Moheda,74.858,23.775
Rajasthan,Pratapgarh,Choti Sadri,74.7,24.386
Rajasthan,Pratapgarh,Mungana,74.435,23.96
Rajasthan,Pratapgarh,Peepalkhoont,74.567,23.796
Rajasthan,Pratapgarh,Mokhampura,74.875,24.024
Rajasthan,Rajsamand,Gugli,73.88,25.23
Rajasthan,Rajsamand,Amet,73.9215,25.3016
Rajasthan,Rajsamand,Deogarh,73.9058,25.5286
Rajasthan,Rajsamand,Khamnor1,73.733,24.917
Rajasthan,Rajsamand,Railmagra1,74.117,25.033
Rajasthan,Rajsamand,Nadiawala,73.863,25.203
Rajasthan,Sawai Madhopur,Bhadoti,76.386,26.253
Rajasthan,Sawai Madhopur,Tond,76.397,26.367
Rajasthan,Sawai Madhopur,Tond (Infront Of Canara Bank),76.38,26.37
Rajasthan,Sawai Madhopur,Ranthambor,76.458,26.017
Rajasthan,Sawai Madhopur,Surwal,76.361,26.088
Rajasthan,Sikar,Khatu Shamji,75.392,27.367
Rajasthan,Sikar,Ramgarh,75.1822,27.2572
Rajasthan,Sikar,Fatehpur,74.9622,27.9814
Rajasthan,Sikar,Laxmangarh,75.0183,27.8433
Rajasthan,Sirohi,Manpur,72.7592,24.5044
Rajasthan,Sirohi,Mungthala,72.6833,24.4833
Rajasthan,Sirohi,Virwara,72.988,24.841
Rajasthan,Sirohi,Sheoganj,73.0451,25.145
Rajasthan,Sirohi,Kalandri,72.688,24.925
Rajasthan,Tonk,Bantholi,75.567,25.883
Rajasthan,Tonk,Deoli,75.85,26.2417
Rajasthan,Tonk,Malpura1,75.383,26.283
Rajasthan,Tonk,Mehndwas,75.725,26.111
Rajasthan,Tonk,Tonk (Gate Of Rsenl 132 Kv,75.79,26.16
Rajasthan,Tonk,Tonk (Giriraj Temple),75.79,26.16
Rajasthan,Tonk,Tonk (Near Hundai Showroom),75.79,26.16
Rajasthan,Tonk,Sop1,75.4889,26.0225
Rajasthan,Udaipur,Mavli1,73.983,24.783
Rajasthan,Udaipur,Kheroda,74.059,24.58
Rajasthan,Udaipur,Jaswantgarh,73.468,24.8
Rajasthan,Udaipur,Jhadol,73.4963,24.4138
Rajasthan,Udaipur,Kalayanpura,73.758,24.001
Tamil Nadu,Ariyalur,Andimadam,79.3775,11.3385
Tamil Nadu,Ariyalur,Kattathur,79.3496,11.307
Tamil Nadu,Ariyalur,Oliyur Ew,79.3186,11.3979
Tamil Nadu,Ariyalur,Periyathukurichi,79.35,11.4104
Tamil Nadu,Ariyalur,V.Ramanapuram Ow,79.1096,11.1754
Tamil Nadu,Ariyalur,Papakudi,79.49,11.2855
Tamil Nadu,Ariyalur,Kiharasanur,78.9319,11.0114
Tamil Nadu,Ariyalur,Kilpazhavur,79.0653,11.0436
Tamil Nadu,Chennai,Aminjikarai,80.2278,13.0667
Tamil Nadu,Chennai,Chepauk (A),80.2814,13.0556
Tamil Nadu,Chennai,Vallalar Nagar,80.2814,13.1056
Tamil Nadu,Coimbatore,Anaimalaipz,77.0594,10.5097
Tamil Nadu,Coimbatore,Angalakurichi,76.9994,10.525
Tamil Nadu,Coimbatore,Pillaimpalayam Pz,77.09,11.1914
Tamil Nadu,Coimbatore,Thathanur Aanaikalpalayam Pz,77.2789,11.3067
Tamil Nadu,Coimbatore,Varadharajapuram Murungapatti Pz,77.2719,10.6797
Tamil Nadu,Coimbatore,Mettupalayam Pz,76.9472,11.3
Tamil Nadu,Coimbatore,Seeliyur,76.7583,11.1792
Tamil Nadu,Coimbatore,Chinnaripalayam,77.0917,10.7292
Tamil Nadu,Coimbatore,Madukkarai-Pz,76.9667,10.9083
Tamil Nadu,Coimbatore,Kaltanpet (Karanampettai),77.1847,11.0167
Tamil Nadu,Coimbatore,P.N.Palayam,76.9922,11.2069
Tamil Nadu,Coimbatore,Gopalapuaram,76.9375,10.6958
Tamil Nadu,Coimbatore,Ponnaiyur,76.9375,10.675
Tamil Nadu,Coimbatore,Samathur Hss Pz,77.0089,10.6022
Tamil Nadu,Coimbatore,Sarkar Samakulam Pz,77.0333,11.1333
Tamil Nadu,Coimbatore,Coimbatore Taluk Office,76.9711,11.0017
Tamil Nadu,Coimbatore,Kuniyamuthur,76.9167,10.9667
Tamil Nadu,Coimbatore,Podanur1,76.9833,10.9667
Tamil Nadu,Coimbatore,Singanallur,77.0208,10.9964
Tamil Nadu,Coimbatore,Tn Urban Studies Pz,76.9419,11.0219
Tamil Nadu,Cuddalore,Ammeri - Thoppulikuppam,79.4578,11.5561
Tamil Nadu,Cuddalore,(Kilmungiladi),79.4041,11.6647
Tamil Nadu,Cuddalore,Kattumannakudi,79.5517,11.2872
Tamil Nadu,Cuddalore,Anathanampettai,79.6351,11.6068
Tamil Nadu,Cuddalore,Arasadikuppam,79.6614,11.6147
Tamil Nadu,Cuddalore,Iruppu Ii,79.6325,11.5036
Tamil Nadu,Cuddalore,Kattusagai(N),79.6534,11.5228
Tamil Nadu,Cuddalore,Kattuvegakollai,79.6392,11.6475
Tamil Nadu,Cuddalore,Keelpuvanikuppam,79.7191,11.6013
Tamil Nadu,Cuddalore,Reddipalayam,79.53,11.5371
Tamil Nadu,Cuddalore,Theerthangari Ew,79.5563,11.5604
Tamil Nadu,Cuddalore,Tiruchchopuram,79.7416,11.6164
Tamil Nadu,Cuddalore,Sengalpalayam-I,79.5422,11.4324
Tamil Nadu,Cuddalore,Kopuvanur,79.1378,11.6156
Tamil Nadu,Cuddalore,Vanathirayapuram I,79.3347,11.5177
Tamil Nadu,Cuddalore,Komaratchi,79.8072,11.5514
Tamil Nadu,Cuddalore,Vadalur Ew,79.8844,11.5375
Tamil Nadu,Dharmapuri,Bommidimalapurm,78.25,12
Tamil Nadu,Dharmapuri,Kaveripattinathankottai,78.1733,12.1461
Tamil Nadu,Dharmapuri,Echambadi Dw,78.4942,12.1128
Tamil Nadu,Dharmapuri,Harur2,78.4833,12.0514
Tamil Nadu,Dharmapuri,Kottapatti Pz,78.6717,11.985
Tamil Nadu,Dharmapuri,Mukkareddipatti,78.4167,11.9667
Tamil Nadu,Dharmapuri,Mullaivanam,78.6289,12.0975
Tamil Nadu,Dharmapuri,Morappur Dw,78.3989,12.1247
Tamil Nadu,Dharmapuri,Odasalapatti X Road,78.2844,12.1431
Tamil Nadu,Dharmapuri,Athikarapatti,78.3909,11.934
Tamil Nadu,Dharmapuri,Boothanatham,78.4688,11.9508
Tamil Nadu,Dharmapuri,Hogenakkal,77.8083,12.1236
Tamil Nadu,Dharmapuri,Pattarakaran Kottai,77.8104,12.0274
Tamil Nadu,Dharmapuri,Pennagaram1,77.9,12.125
Tamil Nadu,Dindigul,Chitterivu Pz,77.7708,10.2378
Tamil Nadu,Dindigul,Paraipatti,77.975,10.3583
Tamil Nadu,Dindigul,R.Pudukottai,78.0303,10.3646
Tamil Nadu,Dindigul,Vadamadurai Pz,78.0612,10.263
Tamil Nadu,Dindigul,Guzilamparai,78.1156,10.6806
Tamil Nadu,Dindigul,Kakkinapatti,77.9922,10.6714
Tamil Nadu,Dindigul,Muthampattipalayam,78.1392,10.7272
Tamil Nadu,Dindigul,Natham1,78.2472,10.2222
Tamil Nadu,Dindigul,Nattam,78.2333,10.2328
Tamil Nadu,Dindigul,Oddanchatram1,77.7528,10.4908
Tamil Nadu,Dindigul,Oodanchatram,77.7542,10.4875
Tamil Nadu,Dindigul,Pudu Ettama Nayakar Patti,77.7061,10.4619
Tamil Nadu,Dindigul,Reddiarchattram,77.8611,10.4167
Tamil Nadu,Dindigul,Vadamadurai,78.1,10.3583
Tamil Nadu,Dindigul,Chattrapatti,77.6583,10.4667
Tamil Nadu,Dindigul,Thoppampatti,77.5269,10.59
Tamil Nadu,Dindigul,Thamaraipadi,78.0453,10.4053
Tamil Nadu,Dindigul,Sundarapuri,78.0272,10.4597
Tamil Nadu,Dindigul,Vedasandur New,77.9711,10.5475
Tamil Nadu,Erode,Gandhinagar Thaneerpanthalpalayam,77.6847,11.6589
Tamil Nadu,Erode,Guvuar Dw,77.6822,11.6414
Tamil Nadu,Erode,Murlipudur,77.656,11.6781
Tamil Nadu,Erode,Punnachipudur Dw,77.6661,11.5919
Tamil Nadu,Erode,Attani,77.5167,11.5242
Tamil Nadu,Erode,Bhavani1,77.5333,11.8083
Tamil Nadu,Erode,Pudupalayam1,77.5875,11.5944
Tamil Nadu,Erode,Settunampalayam Pz,77.6033,11.52
Tamil Nadu,Erode,Urachikottai,77.6917,11.4847
Tamil Nadu,Erode,Punjai Puliyampatti,77.1694,11.3528
Tamil Nadu,Erode,Karaiyur1,77.5944,10.7639
Tamil Nadu,Erode,Ponnapuram Pz,77.3906,10.6981
Tamil Nadu,Erode,Chittodu,77.6778,11.3917
Tamil Nadu,Erode,Erakalpudur(Sivanmalai),77.5347,11.0308
Tamil Nadu,Erode,Kodumudi Pz,77.8853,11.0819
Tamil Nadu,Erode,Avalpundurai,77.7208,11.2333
Tamil Nadu,Erode,Nilangelvalasu Pz,77.7342,10.6431
Tamil Nadu,Erode,Pattaidurai,77.7394,10.7011
Tamil Nadu,Erode,Kolappalur,79.35,12.5583
Tamil Nadu,Erode,Kambaliyampatti Pz,77.5253,11.2314
Tamil Nadu,Erode,Ponmudi,77.5303,11.2608
Tamil Nadu,Erode,Ariyappanpalayam Pz,77.2542,11.4756
Tamil Nadu,Erode,Nambiyur,77.3208,11.3606
Tamil Nadu,Erode,Sathiyamangalam,77.2472,11.5028
Tamil Nadu,Erode,Rajan Nagar Pz,77.1422,11.5289
Tamil Nadu,Erode,Arakkan Kottai(Modur Diversion,77.3431,11.4969
Tamil Nadu,Erode,Punjaiduraiampalayam,77.4233,11.5131
Tamil Nadu,Erode,Chengapalli,77.4436,11.225
Tamil Nadu,Erode,Kunnathur,77.4106,11.2692
Tamil Nadu,Kancheepuram,"Seashore Appartment, 39",80.2656,12.9828
Tamil Nadu,Kancheepuram,Chunambedu,79.9844,12.2669
Tamil Nadu,Kancheepuram,Gerugambakkam,80.1367,13.0153
Tamil Nadu,Kancheepuram,Mangadu,80.1089,13.0247
Tamil Nadu,Kancheepuram,Thiruporur,80.1875,12.8083
Tamil Nadu,Kancheepuram,Agaram2,80.1486,12.8875
Tamil Nadu,Kancheepuram,Blue Beach Road.,80.2547,12.9539
Tamil Nadu,Kancheepuram,Chinna Nilangarai,80.2608,12.9575
Tamil Nadu,Kancheepuram,St.Thomas Mount Dw,80.1978,13.0072
Tamil Nadu,Kancheepuram,Tambaram1,80.1333,12.9333
Tamil Nadu,Kancheepuram,Arasanimangalam,79.7233,12.5689
Tamil Nadu,Kancheepuram,Walajabad,79.825,12.775
Tamil Nadu,Kancheepuram,Kalakshetra,80.2636,10.4633
Tamil Nadu,Kancheepuram,Lions Club,80.2639,12.9272
Tamil Nadu,Kanyakumari,Karungal Pz,77.2347,8.2347
Tamil Nadu,Kanyakumari,Vellaivilai,77.2583,8.2222
Tamil Nadu,Kanyakumari,Nagarkoil1,77.45,8.1667
Tamil Nadu,Kanyakumari,Kattudurai Dw,77.2719,8.2839
Tamil Nadu,Kanyakumari,Thiruvattar,77.2678,8.3333
Tamil Nadu,Karur,Veerapalayam Dw,78.1975,10.7789
Tamil Nadu,Karur,Ayyampalayam Pz,78.0361,11.0625
Tamil Nadu,Karur,Melnagavaram Dw,78.2219,10.8767
Tamil Nadu,Karur,Allur-Agragaram Dw,78.5472,10.8661
Tamil Nadu,Karur,Enuguru Dw,78.4878,10.8547
Tamil Nadu,Karur,Vellianani,78.1333,10.8667
Tamil Nadu,Krishnagiri,Machinayampalli,77.7844,12.6156
Tamil Nadu,Krishnagiri,Unichetty,77.8505,12.437
Tamil Nadu,Krishnagiri,Billakottai Pz,78.1658,12.4072
Tamil Nadu,Krishnagiri,Guruvinayanpalli,78.3292,12.65
Tamil Nadu,Krishnagiri,Mattur2,78.4167,12.3833
Tamil Nadu,Krishnagiri,Denkanikottai1,77.7833,12.525
Tamil Nadu,Krishnagiri,Vappanapalli,78.1925,12.6998
Tamil Nadu,Madurai,Alanganallur,78.0967,10.05
Tamil Nadu,Madurai,Chekkanoorani Pz,77.9681,9.9414
Tamil Nadu,Madurai,Tirumangalam Pz,77.8833,9.9208
Tamil Nadu,Madurai,Avalsuranpatti Pz,77.9744,9.6414
Tamil Nadu,Madurai,Varichiyur Pz,78.2569,9.9125
Tamil Nadu,Madurai,Nallathevanpatti,77.4701,9.5611
Tamil Nadu,Madurai,Kolluveeranpatti Pz,77.5308,9.4225
Tamil Nadu,Madurai,T.Kallupatti,77.5053,9.432
Tamil Nadu,Madurai,M.K.University,78.0006,9.9408
Tamil Nadu,Madurai,Surakulam Pz,78.0567,9.8364
Tamil Nadu,Madurai,Thirumangalam New,77.9792,9.8167
Tamil Nadu,Madurai,Madurai Rly Colony,78.1036,9.9272
Tamil Nadu,Madurai,Valayankulam Pz,78.0917,9.8042
Tamil Nadu,Nagapattinam,Valagarai,79.7483,10.6289
Tamil Nadu,Nagapattinam,Mayavaram,79.6556,11.0944
Tamil Nadu,Nagapattinam,Thalaignayiru,79.6639,11.2097
Tamil Nadu,Nagapattinam,Tranquebar,79.8514,11.0169
Tamil Nadu,Nagapattinam,Thamaraipulam,79.8292,10.4781
Tamil Nadu,Nagapattinam,Akkarapettai,79.85,10.7442
Tamil Nadu,Nagapattinam,Nagapattinam,79.8431,10.7825
Tamil Nadu,Nagapattinam,Odacherry,79.8375,10.6833
Tamil Nadu,Nagapattinam,Velanganni,79.8375,10.6833
Tamil Nadu,Namakkal,Kattipalayam,78.0336,11.3156
Tamil Nadu,Namakkal,Pottiredddipatti,78.2744,11.1689
Tamil Nadu,Namakkal,Pudur Siddhampoondi,77.9142,11.2361
Tamil Nadu,Namakkal,Velur,78.0033,11.1083
Tamil Nadu,Namakkal,Kalipatti,78.0361,11.5167
Tamil Nadu,Namakkal,Uthandipalayam,77.8361,11.2464
Tamil Nadu,Namakkal,Thoppur (N),78.1517,11.1011
Tamil Nadu,Namakkal,Kamarajar Nagar,78.375,11.4831
Tamil Nadu,Namakkal,Mullakurchi Dw,78.3969,11.4594
Tamil Nadu,Namakkal,Pulavar Palayam,78.1086,11.1956
Tamil Nadu,Namakkal,Thondichettipatti,78.1681,11.1867
Tamil Nadu,Namakkal,Sammankadu Elanthankottai,77.7736,11.4128
Tamil Nadu,Namakkal,Ezhur-Olapalayam D,78.1192,11.3658
Tamil Nadu,Namakkal,Minnampalli,78.1865,11.3165
Tamil Nadu,Namakkal,Senthamangalam,78.2333,11.3028
Tamil Nadu,Namakkal,Rasipuram1,78.225,11.4583
Tamil Nadu,Namakkal,Ainthu Panai,77.8089,11.3633
Tamil Nadu,Namakkal,Chittalandur Dw,77.9242,11.315
Tamil Nadu,Namakkal,Kokkarayanpettai D,77.7947,11.3147
Tamil Nadu,Namakkal,Gurusamipalayam,78.1344,11.4342
Tamil Nadu,Namakkal,Mohanur1,78.1417,11.5125
Tamil Nadu,Namakkal,Vennandur,78.0958,11.5125
Tamil Nadu,Nilgiris,Gudalur,76.4861,11.4997
Tamil Nadu,Nilgiris,Pandalur,76.3472,11.4778
Tamil Nadu,Nilgiris,Kothagiri,76.8639,11.4333
Tamil Nadu,Nilgiris,Mullur,76.9083,11.3583
Tamil Nadu,Nilgiris,Udhagamandalam,76.7,11.3972
Tamil Nadu,Perambalur,Chettikulam,78.775,11.1347
Tamil Nadu,Perambalur,Essanai,79.0222,11.069
Tamil Nadu,Perambalur,Valikandapuram,79.3142,11.2325
Tamil Nadu,Perambalur,Therku Mathevi (Aathukeni),79.2375,11.14
Tamil Nadu,Perambalur,Kallampudur,78.8025,11.235
Tamil Nadu,Perambalur,Mangalamedu,78.8922,11.2306
Tamil Nadu,Perambalur,Palaiyur,78.8575,11.1636
Tamil Nadu,Perambalur,Perambalur,78.9364,11.1586
Tamil Nadu,Perambalur,Perambalur,78.883,11.2333
Tamil Nadu,Perambalur,Annukur,78.8615,11.3293
Tamil Nadu,Perambalur,Kunnam,78.9491,11.3477
Tamil Nadu,Perambalur,Nakkaselam,78.9171,11.3186
Tamil Nadu,Perambalur,Ranjankudi(Mangalamedu),78.9412,11.3472
Tamil Nadu,Perambalur,Veppur(Nallur),79.0636,11.3167
Tamil Nadu,Perambalur,Vijayagopalapuram,79.0314,11.27
Tamil Nadu,Pudukkottai,Sundarapatti Pz,78.7069,10.3588
Tamil Nadu,Pudukkottai,Vathiripatti Pz,78.6803,10.4839
Tamil Nadu,Pudukkottai,Kallal Dw,78.6669,9.986
Tamil Nadu,Pudukkottai,Vegupatti Pz,78.5619,10.2755
Tamil Nadu,Pudukkottai,Mandangudi Dw,78.9283,10.4853
Tamil Nadu,Pudukkottai,Pokkisarpatti Dw,78.8915,10.4749
Tamil Nadu,Pudukkottai,Lekkampatti Pz,78.7264,10.5597
Tamil Nadu,Pudukkottai,Viralimalai Dw,78.5499,10.6083
Tamil Nadu,Ramanathapuram,Paramakudi Dw,78.5375,9.5417
Tamil Nadu,Ramanathapuram,Parthibanur Dw,78.4511,9.5805
Tamil Nadu,Salem,Mecheri,79.3972,12.8111
Tamil Nadu,Salem,Athur,78.5861,11.5917
Tamil Nadu,Salem,Keeripati,78.4917,11.5417
Tamil Nadu,Salem,Thandavarayapuram Dw,78.5558,11.5903
Tamil Nadu,Salem,Ayodhyapattinam,78.2389,11.6697
Tamil Nadu,Salem,Idapadi New,77.85,11.5839
Tamil Nadu,Salem,Gangavalli,78.65,11.4958
Tamil Nadu,Salem,Gudamali Dw,78.5875,11.4603
Tamil Nadu,Salem,Sendarpatti,78.5,11.4375
Tamil Nadu,Salem,Tivettipatti,78.0875,11.8667
Tamil Nadu,Salem,Jalakandapuram,77.8722,11.7056
Tamil Nadu,Salem,Panamarathupatti2,78.1931,11.5903
Tamil Nadu,Salem,Sankagiri (V.N.Palayam),77.8753,11.4775
Tamil Nadu,Salem,Puthur Dw,78.7833,11.6264
Tamil Nadu,Salem,Mamudi,78.0517,11.5325
Tamil Nadu,Salem,Yercaud,78.2111,11.7833
Tamil Nadu,Sivaganga,Manamadurai Dw,78.4514,9.6947
Tamil Nadu,Thanjavur,Pulavamatham,79.2103,10.8542
Tamil Nadu,Theni,Balakombai Pz,77.6233,9.9036
Tamil Nadu,Theni,M.Subbalapuram Pz,77.5564,9.9717
Tamil Nadu,Theni,Okkaraipatti Pz,77.5694,9.9625
Tamil Nadu,Theni,Kodangipatti Pz,77.4306,9.9917
Tamil Nadu,Theni,Silverpatti,77.3732,10.0713
Tamil Nadu,Theni,Dumbacheri Pz,77.3911,9.9586
Tamil Nadu,Theni,Seelampatti Pz,77.3928,9.8742
Tamil Nadu,Theni,Kamayagoundanpatti Pz,77.3169,9.7367
Tamil Nadu,Theni,Bodinaickanur Dw,77.5717,10.0989
Tamil Nadu,Theni,Gandamanur,77.5217,9.9183
Tamil Nadu,Theni,Koduvilarpatti Pz,77.4919,9.9719
Tamil Nadu,Theni,Appipatti Alagapuri,77.41,9.81
Tamil Nadu,Theni,Thamminaickpatti Pz,77.2997,9.9164
Tamil Nadu,Theni,Gandamanur Pz,77.3057,9.5509
Tamil Nadu,Thiruvannamalai,Mecheri (Vellore),79.3972,12.8111
Tamil Nadu,Thiruvannamalai,Anandavadi,78.6625,12.2583
Tamil Nadu,Thiruvannamalai,Melravandavadi,78.7083,12.2083
Tamil Nadu,Thiruvannamalai,Cheyyar2,79.5333,12.6583
Tamil Nadu,Thiruvannamalai,Vilaripattu,79.5318,12.6708
Tamil Nadu,Thiruvannamalai,Kilpalur,78.9436,12.5808
Tamil Nadu,Thiruvannamalai,Mamandur,79.6756,12.8572
Tamil Nadu,Thiruvannamalai,Kalavai(Vellore Dist),79.4125,12.4886
Tamil Nadu,Thiruvannamalai,Vandavasi1,79.6056,12.5022
Tamil Nadu,Thiruvannamalai,Akkur,79.6292,12.6844
Tamil Nadu,Thiruvannamalai,Nedumpirai Ow,79.5611,12.7078
Tamil Nadu,Tirunelveli,Kadayanallur,77.3458,9.0667
Tamil Nadu,Tirunelveli,Kadayanallur1,77.35,9.0833
Tamil Nadu,Tirunelveli,Kalakadu,77.5986,8.4806
Tamil Nadu,Tirunelveli,Alankulam,77.475,8.9
Tamil Nadu,Tirunelveli,N. Vijayanarayanam,77.7917,8.5333
Tamil Nadu,Tirunelveli,Palayamkottai,77.7333,8.7333
Tamil Nadu,Tirunelveli,Mullikulam,77.7,9.4986
Tamil Nadu,Tirunelveli,Kilpaur,77.3833,8.9167
Tamil Nadu,Tirunelveli,Panpoli,77.2528,9.0167
Tamil Nadu,Tirunelveli,Therkuvalliyur Ow,77.624,8.3331
Tamil Nadu,Tirunelveli,Tiruvembalapuram,77.7583,8.2542
Tamil Nadu,Tirunelveli,Valliyoor,77.6583,8.3556
Tamil Nadu,Tirunelveli,Sivagiri Ow,77.4383,9.34
Tamil Nadu,Tiruvallur,Sangaibedu,80.2977,13.3298
Tamil Nadu,Tiruvallur,Pappanchatram,80.0389,13.0314
Tamil Nadu,Tiruvallur,Pattabiram,80.0617,13.1211
Tamil Nadu,Tiruvallur,Ambattur,80.1547,13.1186
Tamil Nadu,Tiruvallur,Kovilpathagai,80.0969,13.1428
Tamil Nadu,Tiruvarur,Mannargudi,79.4667,10.6833
Tamil Nadu,Tiruvarur,Pangal,79.6417,10.7208
Tamil Nadu,Trichy,Mudaliarchatram,78.6967,10.8003
Tamil Nadu,Trichy,Sirukambur,78.6039,10.9014
Tamil Nadu,Trichy,Manaparai,78.4253,10.6144
Tamil Nadu,Trichy,Manaparai Ii,78.4256,10.6147
Tamil Nadu,Trichy,Chinnagowdanpatti,78.3783,10.4575
Tamil Nadu,Trichy,Peramangalam,78.6542,10.9867
Tamil Nadu,Trichy,Pulivalam,78.6375,11.0167
Tamil Nadu,Trichy,Pullambadi,78.9583,11.0458
Tamil Nadu,Trichy,Thathayangarpet,78.4542,11.1208
Tamil Nadu,Trichy,Tumbalam,78.4328,11.0306
Tamil Nadu,Trichy,Koppampatti,78.4972,11.3008
Tamil Nadu,Trichy,Ookaeri,78.55,11.2108
Tamil Nadu,Trichy,Uppiliyapuram,78.5167,11.2622
Tamil Nadu,Trichy,Vaiyampatty,78.3,10.55
Tamil Nadu,Tuticorin,Thailapuram,77.85,8.6083
Tamil Nadu,Tuticorin,Kadambur Pz (T),77.8617,8.9972
Tamil Nadu,Tuticorin,Nakkalamuthanpatty,77.7732,9.2323
Tamil Nadu,Tuticorin,Kurukkuchalai,78.0917,8.9306
Tamil Nadu,Tuticorin,Paikulam,77.8556,8.5181
Tamil Nadu,Tuticorin,Satankulam,77.9028,8.4333
Tamil Nadu,Tuticorin,Sathankulam-N,77.9,8.4444
Tamil Nadu,Tuticorin,Kulasekharaptnm,78.0542,8.4
Tamil Nadu,Vellore,Kandili,78.4556,12.4778
Tamil Nadu,Vellore,Ponnai,79.4264,13.1111
Tamil Nadu,Vellore,Virupachipuram(Bagayam),79.1333,12.8778
Tamil Nadu,Vellore,Ranipet2,79.35,12.9333
Tamil Nadu,Villupuram,Chinnasalem,78.8684,11.6314
Tamil Nadu,Villupuram,Chinnasalem,78.8817,11.6375
Tamil Nadu,Villupuram,Allampundi,79.3406,12.2483
Tamil Nadu,Villupuram,Gingee,79.4259,12.2521
Tamil Nadu,Villupuram,Alathur,78.9471,11.799
Tamil Nadu,Villupuram,Kallakurichi,78.9622,11.7391
Tamil Nadu,Villupuram,Kallakurichi,78.9538,11.7386
Tamil Nadu,Villupuram,Ulagankaththan-Thimmaiya Nagar,78.9347,11.6953
Tamil Nadu,Villupuram,Eliyathur (New),79.4185,11.9552
Tamil Nadu,Villupuram,Kanai,79.4185,11.9552
Tamil Nadu,Villupuram,Brahmadessam,79.7785,12.2
Tamil Nadu,Villupuram,Siruvadi,79.8441,12.2047
Tamil Nadu,Villupuram,Arakandanallur,79.2258,11.9742
Tamil Nadu,Villupuram,Mogaiyur,79.312,11.9759
Tamil Nadu,Villupuram,Rishivandiyam,79.0947,11.8131
Tamil Nadu,Villupuram,Sankarapuram,78.9147,11.8866
Tamil Nadu,Villupuram,Sankarapuram,78.9178,11.8857
Tamil Nadu,Villupuram,Vadasemapalaym,78.9314,11.8592
Tamil Nadu,Villupuram,Mogaiyur,79.3211,11.025
Tamil Nadu,Villupuram,Tyagadurgam,79.0804,11.7359
Tamil Nadu,Villupuram,Vazhavanthankuppam,79.1289,11.7219
Tamil Nadu,Villupuram,Rajampalayam,79.1378,11.9459
Tamil Nadu,Villupuram,Tirukkoilur,79.1927,11.9535
Tamil Nadu,Villupuram,Ulundurpet,79.2894,11.6866
Tamil Nadu,Villupuram,Vellaiyur,79.3317,11.7043
Tamil Nadu,Villupuram,Pidagam,79.1792,11.7206
Tamil Nadu,Villupuram,Kiliyanur,79.7458,12.1008
Tamil Nadu,Virudhunagar,Aviyur Dw,78.1008,9.7389
Tamil Nadu,Virudhunagar,Kariyapatti1,78.1083,9.6694
Tamil Nadu,Virudhunagar,Devadanam1,77.4656,9.3833
Tamil Nadu,Virudhunagar,Nenmeni1,78.0083,9.325
Tamil Nadu,Virudhunagar,Sivakasi2,77.7917,9.45
Tamil Nadu,Virudhunagar,Sundarapandiyan,77.6667,9.6083
Tamil Nadu,Virudhunagar,Kalloorani,78.165,9.4639
Tamil Nadu,Virudhunagar,Alangulam,77.6861,9.3639
Tamil Nadu,Virudhunagar,Vembakkottai-Ow,77.7667,9.3333
Tamil Nadu,Virudhunagar,Mudukkankulam,78.2058,9.1508
Tamil Nadu,Virudhunagar,Virudunagar,77.9542,9.5833
Tripura,North Tripura,Panisagar,92.1522,24.2642
Uttar Pradesh,Agra,Agra-Bah Road,78.4565,26.9073
Uttar Pradesh,Agra,Block Office,77.6678,27.0942
Uttar Pradesh,Aligarh,Block H.Q,78.2712,27.805
Uttar Pradesh,Aligarh,Dist. H.Q,78.073,27.8976
Uttar Pradesh,Aligarh,"Bada Chowk, Sarai Rehman",78.07,27.8938
Uttar Pradesh,Aligarh,Kela Nagar Market,78.0904,27.9039
Uttar Pradesh,Aligarh,"Mahendra Nagar, Aawas Vikas Colony",78.0731,27.8679
Uttar Pradesh,Aligarh,Block H.Q,77.8364,27.9435
Uttar Pradesh,Allahabad/ Prayagraj,"Bdo, Office",82.2602,25.0992
Uttar Pradesh,Amethi,Pwd Dak Bangla,81.8086,26.1562
Uttar Pradesh,Amethi,Block Hq,81.8005,26.3778
Uttar Pradesh,Amroha,Block Office,78.4732,28.8356
Uttar Pradesh,Auraiya,At The Enterance To City From,79.5039,26.4661
Uttar Pradesh,Baghpat,In Block Office,77.2175,28.9533
Uttar Pradesh,Balrampur,Chandarpur,82.6553,27.662
Uttar Pradesh,Balrampur,Rehra Bazar,82.2786,27.1817
Uttar Pradesh,Banda,Hand Pump Of Block Office,79.8944,25.4811
Uttar Pradesh,Budaun,Behta Dambanagar,79.1608,27.91
Uttar Pradesh,Budaun,"Adjacent To Sbi Bank,Ujhani",79.0144,28.0027
Uttar Pradesh,Bulandshahar,Dastura,77.7032,28.2753
Uttar Pradesh,Chitrakoot,Kubri,81.1652,25.0047
Uttar Pradesh,Chitrakoot,Tikariya Railway,80.8756,25.0013
Uttar Pradesh,Chitrakoot,Block Office,81.2361,25.2469
Uttar Pradesh,Etah,Block Office,78.6548,27.5559
Uttar Pradesh,Etawah,Etawah City (Anand Nagar),79.0346,26.7702
Uttar Pradesh,Etawah,Kaneshighar,79.0562,26.6298
Uttar Pradesh,Etawah,Hand Pump Of Block Office,79.2133,26.7362
Uttar Pradesh,Fatehpur,Bindki,80.5806,26.0298
Uttar Pradesh,Fatehpur,Chaudgara,80.585,26.123
Uttar Pradesh,Fatehpur,Rakshpalpur,81.1332,25.6256
Uttar Pradesh,Firozabad,Block Office,78.7048,27.1502
Uttar Pradesh,Firozabad,Block Office,78.4552,27.1261
Uttar Pradesh,G.B. Nagar,Dadri,77.5535,28.5544
Uttar Pradesh,G.B. Nagar,Bagpur,77.5308,28.3235
Uttar Pradesh,G.B. Nagar,Choroli,77.6077,28.136
Uttar Pradesh,Ghaziabad,Jal Kal Vibhag,77.3435,28.6847
Uttar Pradesh,Ghaziabad,Kali Temple Boundary Wall,77.3618,28.6889
Uttar Pradesh,Ghaziabad,Near Meadows Caf,77.4474,28.7214
Uttar Pradesh,Ghaziabad,Unknown,77.4858,28.6557
Uttar Pradesh,Ghaziabad,Unknown,77.4973,28.681
Uttar Pradesh,Ghaziabad,Unknown,77.4609,28.6639
Uttar Pradesh,Ghaziabad,Unknown,77.4332,28.6758
Uttar Pradesh,Ghaziabad,Unknown,77.4557,28.6368
Uttar Pradesh,Ghazipur,Block Office,83.3724,25.7421
Uttar Pradesh,Ghazipur,Block Office,83.5596,25.4143
Uttar Pradesh,Gorakhpur,Village- Rewradih; Near H/O Sitaram,83.41,26.5118
Uttar Pradesh,Hamirpur,Urdana,80.1758,25.6228
Uttar Pradesh,Hamirpur,Bewar,79.9272,25.761
Uttar Pradesh,Hamirpur,Imaliya,79.9112,25.6592
Uttar Pradesh,Hamirpur,Hand Pump Of Block Office,79.5761,25.5989
Uttar Pradesh,Hamirpur,Hand Pump Of Block Office,79.6824,25.7729
Uttar Pradesh,Hapur,In Block Office,78.0883,28.7881
Uttar Pradesh,Hapur,On Rosd Side,77.8269,28.7849
Uttar Pradesh,Hapur,Shiv Mandir Kakar,77.8279,28.6711
Uttar Pradesh,Hathras,Dist. H.Q,78.0551,27.573
Uttar Pradesh,Hathras,Mohari,78.1531,27.6494
Uttar Pradesh,Jalaun,Block  Campus,79.4248,25.875
Uttar Pradesh,Jalaun,Block  Campus,79.1618,26.0017
Uttar Pradesh,Jaunpur,Block Office,82.1887,25.6563
Uttar Pradesh,Jhansi,Block  Campus,78.4697,25.2339
Uttar Pradesh,Jhansi,Chattpur Bachauni,78.3592,25.4206
Uttar Pradesh,Jhansi,Ghesoli,78.46,25.1656
Uttar Pradesh,Jhansi,Mathurapora,78.4856,25.3547
Uttar Pradesh,Jhansi,Block  Campus,79.1857,25.6131
Uttar Pradesh,Jhansi,Block  Campus,79.0038,25.3116
Uttar Pradesh,Jhansi,Telheta Kalan,78.7444,25.4306
Uttar Pradesh,Jhansi,Block  Campus,79.1857,25.6131
Uttar Pradesh,Jhansi,Bamhauri,79.2258,25.3331
Uttar Pradesh,Jhansi,Sinora,79.0758,25.36
Uttar Pradesh,Jhansi,Block  Campus,78.9523,25.7299
Uttar Pradesh,Kanpur Dehat,Hand Pump Of Block Office Infront Of,79.783,26.1938
Uttar Pradesh,Kanpur Dehat,Sadhan Sahakari Samithi Amraudha,79.8839,26.1675
Uttar Pradesh,Kanpur Dehat,----Do----,79.6754,26.4263
Uttar Pradesh,Kanpur Nagar,Hand Pump In The Premises Of,80.3508,26.4922
Uttar Pradesh,Kanpur Nagar,Fazalganj  Police Station,80.1952,26.2337
Uttar Pradesh,Kasganj,Block Office,78.6561,27.8179
Uttar Pradesh,Kasganj,Block Office,78.866,27.7076
Uttar Pradesh,Kaushambi,Inside Block Office,81.3595,25.6953
Uttar Pradesh,Kaushambi,Inside Block Office,81.5385,25.555
Uttar Pradesh,Lalitpur,Block  Campus,78.5882,24.8623
Uttar Pradesh,Lalitpur,Kathwar,78.6617,24.8833
Uttar Pradesh,Lalitpur,Khajra,78.4981,24.7956
Uttar Pradesh,Lalitpur,Udaipura Bus,78.6761,24.7878
Uttar Pradesh,Lalitpur,Rajwara,78.4725,24.7203
Uttar Pradesh,Lalitpur,Sepura,78.3014,24.5203
Uttar Pradesh,Lalitpur,Block  Campus,78.3389,24.896
Uttar Pradesh,Lalitpur,Block  Campus,78.7931,24.3726
Uttar Pradesh,Lalitpur,Loharra,78.8856,24.4192
Uttar Pradesh,Lalitpur,Block  Campus,78.7266,24.5769
Uttar Pradesh,Lalitpur,Bijrotha Para,78.3936,24.9686
Uttar Pradesh,Lucknow,"Sarvodaya Nagar , Indra Nagar ,",80.9742,26.88
Uttar Pradesh,Mahoba,(Anandpura),79.5661,25.2541
Uttar Pradesh,Mahoba,Majhgawan,79.6562,25.1716
Uttar Pradesh,Mahoba,Bhandra,79.8452,25.1578
Uttar Pradesh,Mahoba,Block In Mahoba Town,79.8951,25.2982
Uttar Pradesh,Mahoba,Budhi,79.6067,25.3774
Uttar Pradesh,Mainpuri,Block Office,79.1071,27.1697
Uttar Pradesh,Mathura,Block H.Q,77.82,27.4114
Uttar Pradesh,Mathura,Block H.Q,77.5793,27.6208
Uttar Pradesh,Mathura,Block H.Q,77.5008,27.7262
Uttar Pradesh,Mathura,Nankpur Khader,77.5796,27.8945
Uttar Pradesh,Mathura,Nagla Karan,77.8282,27.5325
Uttar Pradesh,Meerut,In Block Office,77.9964,29.1569
Uttar Pradesh,Meerut,In Block Office,77.7439,28.84
Uttar Pradesh,Meerut,Lalsana Chouraha,77.7255,29.0473
Uttar Pradesh,Meerut,Near Azi Hanif In House,77.726,28.9279
Uttar Pradesh,Meerut,New Meenakshi,77.7369,29.0178
Uttar Pradesh,Meerut,Shatabdi Nagar,77.6715,28.9404
Uttar Pradesh,Meerut,In Block Office,77.8553,29.0958
Uttar Pradesh,Mirzapur,Chhanbey (Gaigpura),82.3939,25.1272
Uttar Pradesh,Mirzapur,Pahari,82.7397,25.0847
Uttar Pradesh,Mirzapur,Pahari,82.7395,25.0846
Uttar Pradesh,Moradabad,Block Office,78.7831,28.4618
Uttar Pradesh,Pilibhit,"Adjacent To Gp Office, Madho Tanda",80.1224,28.6201
Uttar Pradesh,Prayagraj,Faizullapur,81.9317,25.4903
Uttar Pradesh,Rampur,Block Office,79.0111,28.5632
Uttar Pradesh,Sambhal,Block Hq,78.4427,28.2346
Uttar Pradesh,Sant Ravidas Nagar,Bhadohi,82.5642,25.3953
Uttar Pradesh,Shahjahanpur,Chainpura,79.8703,28.1839
Uttar Pradesh,Shrawasti,Ratanpur,81.964,27.8031
Uttar Pradesh,Siddharth Nagar,Rohnihwa,82.8442,27.4729
Uttar Pradesh,Sonbhadra,Birar,83.2184,24.2345
Uttar Pradesh,Sonbhadra,Ghorawal,82.8436,24.7494
Uttar Pradesh,Sonbhadra,Block Office,82.8444,24.7494
Uttar Pradesh,Sonbhadra,Dewri,83.0173,24.0842
Uttar Pradesh,Sonbhadra,Duki Nala,83.0202,24.2647
Uttar Pradesh,Sonbhadra,Nodiya,83.2139,24.0815
Uttar Pradesh,Unnao,Block Office,80.3197,26.6328
Uttar Pradesh,Varanasi,Kashividyapeeth,82.9628,25.3064
Uttar Pradesh,Varanasi,Gopichat Gully,82.9879,25.2878
Uttarakhand,Almora,Dharanaula,79.6764,29.5708
Uttarakhand,Dehradun,Baronwala,77.9533,30.3006
Uttarakhand,Dehradun,Ramgarh,77.8819,30.3314
Uttarakhand,Dehradun,Singhniwala,77.8622,30.3306
Uttarakhand,Dehradun,Telpura,77.9794,30.3122
Uttarakhand,Dehradun,Chandmari,78.1136,30.1736
Uttarakhand,Dehradun,Khandgaon,78.205,30.0161
Uttarakhand,Dehradun,Lal Tappar,78.1739,30.1197
Uttarakhand,Dehradun,Mathrowala,78.0325,30.2653
Uttarakhand,Dehradun,Gularghagti * Replace,78.13,30.2439
Uttarakhand,Dehradun,Ladpur Pz *,78.0756,30.3139
Uttarakhand,Dehradun,Maldeota,78.1203,30.3439
Uttarakhand,Dehradun,Nanurkhera,78.0839,30.3333
Uttarakhand,Dehradun,Niranjanpur Mandi,78.0047,30.2972
Uttarakhand,Dehradun,Purukulgaon,78.0667,30.4103
Uttarakhand,Haridwar,Bandarjud,77.9386,30.0531
Uttarakhand,Haridwar,Bhogpur,78.1689,29.7775
Uttarakhand,Haridwar,Dhanpura,78.1144,29.845
Uttarakhand,Haridwar,Laldhang,78.3144,29.8503
Uttarakhand,Haridwar,Rasiyabad Churaha,78.2117,29.8031
Uttarakhand,Haridwar,Iqbalpur,77.8,29.8744
Uttarakhand,Haridwar,Khera Jat,77.8119,29.6828
Uttarakhand,Nainital,Sipahi Dhara,79.4633,29.3714
Uttarakhand,Nainital,Belparao,79.21,29.3114
Uttarakhand,Nainital,Dohniya,79.2869,29.3861
Uttarakhand,Nainital,Kaladungi,79.3281,29.3025
Uttarakhand,Udham Singh Nagar,Badaripur,79.1894,29.1414
Uttarakhand,Udham Singh Nagar,Banna Khera,79.1647,29.2633
Uttarakhand,Udham Singh Nagar,Bazpur,79.1583,29.1675
Uttarakhand,Udham Singh Nagar,Jogipura,79.105,29.2286
Uttarakhand,Udham Singh Nagar,Jhagarpuri,79.2256,29.0586
Uttarakhand,Udham Singh Nagar,Mahabir Nagar,79.2931,29.0925
Uttarakhand,Udham Singh Nagar,Pattharpui,79.2344,29.0689
Uttarakhand,Udham Singh Nagar,Barkhare Pande,78.9639,29.1528
Uttarakhand,Udham Singh Nagar,Kanakpur,79.4772,28.9664
Uttarakhand,Udham Singh Nagar,Rajpura,79.5211,28.9486
West Bengal,Alipurduar,Jaigaon,89.3803,26.8395
West Bengal,Alipurduar,Madarihat,89.2618,26.6945
West Bengal,Bankura,Kenjakura,86.9254,23.2692
West Bengal,Bankura,Man Kanali,87.0389,23.3277
West Bengal,Bankura,Kharkasuli,87.3103,23.0586
West Bengal,Bankura,Karoasole,86.9222,23.348
West Bengal,Bankura,Balarampur,86.8174,23.1677
West Bengal,Bankura,Gorabari,86.7794,22.9543
West Bengal,Bankura,Khatra,86.8483,22.9811
West Bengal,Bankura,Gholkunda,87.0501,23.0904
West Bengal,Bankura,Golkunda,87.1117,23.4288
West Bengal,Bankura,Ranibandh,86.7852,22.8662
West Bengal,Bankura,Shyampur,86.9705,23.5022
West Bengal,Bankura,Sonamukhi Dug,87.4111,23.3018
West Bengal,Bankura,Lodda,86.9853,23.0355
West Bengal,Birbhum,Bhaddi,87.2747,23.8506
West Bengal,Birbhum,Seorakuri,87.5429,23.9719
West Bengal,Birbhum,Rajnagar,87.323,23.9438
West Bengal,Cooch Behar,Putimari,89.4655,26.1514
West Bengal,Cooch Behar,Gosanimari,89.3624,26.135
West Bengal,Cooch Behar,Balarampur,89.5854,26.2438
West Bengal,Cooch Behar,Bochamari,89.7181,26.4083
West Bengal,Dakshin Dinajpur,Rasakhowa,88.0441,25.8476
West Bengal,Darjeeling,Kharibari,88.1924,26.5557
West Bengal,Darjeeling,Sevoke,88.4726,26.8807
West Bengal,Darjeeling,Siliguri,88.4266,26.7049
West Bengal,Darjeeling,Bagdogra,88.3173,26.6974
West Bengal,Darjeeling,Prasadjyote,88.1822,26.6576
West Bengal,Darjeeling,Tirhana,88.2602,26.7674
West Bengal,Darjeeling,Ambarimore,88.2792,26.5736
West Bengal,Darjeeling,Baneswar,88.3797,26.604
West Bengal,Darjeeling,Ghosh Pukur,88.2772,26.5894
West Bengal,Darjeeling,Muraliganj,88.235,26.4644
West Bengal,Hooghly,Guptipara,88.4086,23.2061
West Bengal,Hooghly,Mashra (Ghoshpara),88.4122,23.1303
West Bengal,Jalpaiguri,Newsalbarihat,89.1055,26.5442
West Bengal,Jalpaiguri,Phulwari Hat,88.4178,26.6517
West Bengal,Jalpaiguri,Fatapukur,88.54,26.5719
West Bengal,Jalpaiguri,Hathi More,88.5132,26.5822
West Bengal,Jhargram,Dahijuri,86.9927,22.5039
West Bengal,Jhargram,Silda,86.8152,22.614
West Bengal,Jhargram,Guthia,86.8836,22.3247
West Bengal,Jhargram,Parihati (Hat Tala),86.849,22.5189
West Bengal,Malda,Choto Mohanpara (2),88.0472,25.0255
West Bengal,Malda,Malda Town,88.1355,25.0029
West Bengal,Malda,Milky,88.0214,25.0346
West Bengal,Malda,Phulbaria,88.0286,25.0473
West Bengal,Malda,Kokabirni Tajpur,88.2711,25.0075
West Bengal,Malda,Jalalpur,88.0739,24.8944
West Bengal,Malda,Khaschandpur (Makku Sahutala),88.0111,24.8531
West Bengal,Malda,Birnagar(1),87.952,24.8361
West Bengal,Malda,Ratanpur Hat (Samshi),88.0006,25.2874
West Bengal,Malda,Ratua,87.9354,25.2078
West Bengal,Murshidabad,Begunbari Dug,88.2776,23.921
West Bengal,Murshidabad,Daulatabad,88.3757,24.143
West Bengal,Murshidabad,Patakbari,88.4622,23.8656
West Bengal,Murshidabad,Islampur,88.4708,24.15
West Bengal,Murshidabad,Kuptala,88.5968,24.2575
West Bengal,Murshidabad,Paranpur,88.5716,24.2689
West Bengal,Nadia,Bahadurpur,88.4626,23.4392
West Bengal,Nadia,Nabadwipghat,88.3842,23.4124
West Bengal,North 24 Parganas,Rangamahal,88.5223,22.8223
West Bengal,Paschim Bardhaman,Dakshin Khanda,87.2176,23.6155
West Bengal,Paschim Bardhaman,Dignata Andal,87.1974,23.586
West Bengal,Paschim Bardhaman,Bhiringi,87.2719,23.5526
West Bengal,Paschim Bardhaman,Gopalmath,87.2306,23.5734
West Bengal,Paschim Bardhaman,Silampur(New),87.4321,23.4155
West Bengal,Paschim Medinipur,Chandrakona Rd.,87.34,22.7344
West Bengal,Paschim Medinipur,Saranga,87.5192,22.5839
West Bengal,Paschim Medinipur,Koushalya,87.3372,22.3333
West Bengal,Purulia,Dhabani,86.4462,22.9269
West Bengal,Purulia,Khairapihira,86.5914,23.3711
West Bengal,Purulia,Kulabahal,86.5418,23.3031
West Bengal,Purulia,Kulgara,86.5867,23.3281
West Bengal,Purulia,Gaurandih,86.7673,23.4343
West Bengal,Purulia,Matha,86.5457,23.1581
West Bengal,Purulia,Tamna,86.351,23.2736
West Bengal,Purulia,Podalroad,86.4002,23.3695
West Bengal,South 24 Parganas,Hariharpur,88.5396,22.5042
West Bengal,South 24 Parganas,Kulti,88.4608,22.5211
West Bengal,South 24 Parganas,Arampur Gosaba,88.7988,22.1653
West Bengal,Uttar Dinajpur,Kanki,87.8589,26.0088
Karnataka,Bagalkot,Alagur,75.3486,16.5722
Karnataka,Bagalkot,Amingad,75.9417,16.0542
Karnataka,Bagalkot,Mudhol A,75.2761,16.3394
Karnataka,Belgaum,Sulebhavi,74.6597,15.8947
Karnataka,Belgaum,Soundatti,75.1137,15.7644
Karnataka,Belgaum,Basapur,74.651,16.0607
Karnataka,Belgaum,Gumachinmaradi,74.6998,16.1001
Karnataka,Belgaum,Yadgud,74.6048,16.3214
Karnataka,Belgaum,Rupnal,74.645,16.507
Karnataka,Belgaum,Nasalapur,74.679,16.532
Karnataka,Belgaum,Humbarwadi,74.767,16.445
Karnataka,Belgaum,Mallabad,75.119,16.884
Karnataka,Belgaum,Badchi,75.149,16.737
Karnataka,Belgaum,Nandgaon,75.128,16.68
Karnataka,Belgaum,Radderhatti,75.08,16.637
Karnataka,Belgaum,Naganur,74.914,16.306
Karnataka,Belgaum,Sangankeri,74.484,16.261
Karnataka,Vijayanagara,Danapura,76.371,15.176
Karnataka,Vijayanagara,Uthangi,76.205,14.987
Karnataka,Bellary,Tekkalakote A,76.875,15.513
Karnataka,Bengaluru Rural,Kodagurki,77.7004,13.2999
Karnataka,Bengaluru Rural,Avathi,77.7246,13.2953
Karnataka,Bengaluru Rural,Vishwanathpura,77.6491,13.2714
Karnataka,Bengaluru Rural,Bairasandra,77.6046,13.2825
Karnataka,Bengaluru Rural,Siddanaikanahalli,77.5529,13.2983
Karnataka,Bengaluru Rural,Gangenpura,77.2122,13.1759
Karnataka,Bidar,Danargoan,77.3252,18.2882
Karnataka,Bidar,Ghatboral,77.0791,17.9054
Karnataka,Bidar,Islampur,77.0213,17.7803
Karnataka,Bidar,Rajola,77.0566,17.8477
Karnataka,Bidar,Yerandgi,76.9312,17.7899
Karnataka,Bijapur,Ambalanur,76.2553,16.6233
Karnataka,Bijapur,Ayeri,76.3003,16.9769
Karnataka,Bijapur,Bavur,76.2517,16.4439
Karnataka,Bijapur,Bhudihaldon,76.1456,16.7103
Karnataka,Bijapur,Deur Tanda,76.0958,16.7792
Karnataka,Bijapur,Devanagao,76.3,17.1333
Karnataka,Bijapur,Dindawar,76.0486,16.6597
Karnataka,Bijapur,Huvinahipparagi,76.0772,16.5572
Karnataka,Bijapur,Inchageri,75.6839,17.1089
Karnataka,Bijapur,Khatijapur,75.6761,16.7651
Karnataka,Bijapur,Maileswar A,76.3417,16.4667
Karnataka,Bijapur,Muddebihal A,76.1222,16.3333
Karnataka,Bijapur,Nagadhana,75.8478,16.9308
Karnataka,Bijapur,Nebageri,76.1125,16.2833
Karnataka,Bijapur,Nimbal,75.9,17.1
Karnataka,Bijapur,Salotgi,76.0333,17.1333
Karnataka,Bijapur,Satihal,76.0667,16.7
Karnataka,Bijapur,Yankanchi,76.3347,16.8625
Karnataka,Chamarajanagara,Maddur (Yelandur),77.0667,12.0778
Karnataka,Chamarajanagara,Honnegowdanahalli,76.6169,11.76
Karnataka,Chamarajanagara,Palanimedu,77.41,12.02
Karnataka,Chikballapur,Upparpet,78.0031,13.4034
Karnataka,Chikballapur,Chintamani,78.0554,13.4055
Karnataka,Chikballapur,Hampasandra,77.7514,13.743
Karnataka,Chikballapur,Bevinahalli,77.4834,13.4957
Karnataka,Chitradurga,Doggenal,76.072,14.0203
Karnataka,Chitradurga,Dummi,76.067,14.029
Karnataka,Chitradurga,Gutikatte,76.226,13.885
Karnataka,Chitradurga,Hanumali,76.084,13.999
Karnataka,Chitradurga,Hartikote,76.649,14.071
Karnataka,Chitradurga,Hosadurga Rs Road,76.133,13.862
Karnataka,Chitradurga,Kallavana Nagatihalli,76.152,14.177
Karnataka,Chitradurga,Maskallu,76.69,13.988
Karnataka,Chitradurga,Molakalmuru,76.75,14.716
Karnataka,Chitradurga,Siddapura,76.194,14.266
Karnataka,Chitradurga,Siddavanadurga,76.321,14.325
Karnataka,Chitradurga,Talya,76.272,14.018
Karnataka,Davanagere,Attigere,75.993,14.322
Karnataka,Davanagere,Avaragere,75.963,14.41
Karnataka,Davanagere,Mangammnahalli,75.985,14.211
Karnataka,Davanagere,Santhebennur,76,14.167
Karnataka,Dharwad,Adaragunj,75.1548,15.2843
Karnataka,Dharwad,Bidnal,75.1463,15.3293
Karnataka,Dharwad,Gudgeri,75.3667,15.1199
Karnataka,Dharwad,Kundgol(A),75.2464,15.2537
Karnataka,Dharwad,Morab,75.1588,15.5834
Karnataka,Dharwad,Sulla,75.1783,15.4492
Karnataka,Dharwad,Tale Morab,75.1492,15.5562
Karnataka,Gadag,Basavapur,75.8339,15.1958
Karnataka,Gadag,Belhatti,75.6712,15.0848
Karnataka,Gadag,Chabbi,75.5963,15.1712
Karnataka,Gadag,Gojanur,75.4994,15.1909
Karnataka,Gadag,Hirekoppa(Alt To Chikkoppa),75.6519,15.4776
Karnataka,Gadag,Kalikeri(A),75.8367,15.1639
Karnataka,Gadag,Laxmeswar(A),75.4703,15.1327
Karnataka,Gadag,Magdi,75.5112,15.22
Karnataka,Gadag,Mundargi,75.8829,15.1983
Karnataka,Gadag,Nargund,75.383,15.729
Karnataka,Gadag,Shirhatti,75.5804,15.2347
Karnataka,Gadag,Virupapur,75.8299,15.1435
Karnataka,Gulbarga,Battarga,76.563,17.383
Karnataka,Gulbarga,Chinamgeri,76.5672,17.2158
Karnataka,Gulbarga,Choudepur,76.5342,17.2417
Karnataka,Gulbarga,Ghattarga,76.4008,17.0933
Karnataka,Gulbarga,Haldihal,76.967,17.225
Karnataka,Gulbarga,Jogur,76.6167,17.1083
Karnataka,Gulbarga,Kamalanagar,76.7508,17.575
Karnataka,Gulbarga,Ravur,77.0083,17.075
Karnataka,Gulbarga,Revannur,76.7175,16.9917
Karnataka,Gulbarga,Salgar,76.7833,17.6333
Karnataka,Gulbarga,Sona,76.6333,16.9917
Karnataka,Gulbarga,Uplai,76.85,17.425
Karnataka,Hassan,Anemall,75.768,12.933
Karnataka,Haveri,Kuppelur,74.6108,14.487
Karnataka,Haveri,Nitiginal Koppa,75.1563,14.847
Karnataka,Kodagu,Ammatti,75.85,12.23
Karnataka,Kodagu,Neerkolli,75.75,12.4
Karnataka,Kolar,Vadagere,78.0966,13.0477
Karnataka,Kolar,Torlakki,78.068,12.92
Karnataka,Kolar,Badikunte A,78.12,12.9
Karnataka,Kolar,Budikote,78.12,12.9
Karnataka,Kolar,Gadarajahalli,78.3,12.9644
Karnataka,Kolar,Devarayasamundra,78.2983,13.1341
Karnataka,Kolar,Keilolli,78.2912,13.117
Karnataka,Kolar,Gudipalli,78.4591,13.2735
Karnataka,Kolar,Pethandahalli,78.5027,13.246
Karnataka,Kolar,Kurudmale,78.3674,13.2134
Karnataka,Kolar,Mallasandra,78.3527,13.1786
Karnataka,Kolar,Kurugal A,77.9877,13.2042
Karnataka,Koppal,Talakal,76.019,15.378
Karnataka,Koppal,Koppal1,76.15,15.35
Karnataka,Koppal,Itagi,75.969,15.444
Karnataka,Koppal,Kuknoor,75.984,15.491
Karnataka,Koppal,Sanganhal Dw,75.988,15.571
Karnataka,Koppal,K. Hosur,76.283,15.828
Karnataka,Koppal,K. Gonal,75.284,15.839
Karnataka,Mandya,Chapura Doddi,77.023,12.621
Karnataka,Mandya,Mahadevapura1,76.767,12.4
Karnataka,Mandya,Maravanahalli,76.548,12.679
Karnataka,Mysore,Somanathapura,76.88,12.27
Karnataka,Mysore,Ranganathapura,76.82,12.32
Karnataka,Mysore,Varuna,76.74,12.26
Karnataka,Mysore,P. Basavanahalli,76.04,12.41
Karnataka,Mysore,Kittur,76.21,12.49
Karnataka,Mysore,Bheerya,76.34,12.59
Karnataka,Mysore,Hampapura,76.39,12.49
Karnataka,Mysore,Rathnapuri,76.34,12.23
Karnataka,Mysore,Sargur,76.39,11.99
Karnataka,Mysore,Heeregowdanahundi,76.66,12.1
Karnataka,Mysore,Ibjala,76.44,12.11
Karnataka,Raichur,Chikkahonakuni,76.984,16.067
Karnataka,Raichur,Kakargal,77.067,16.35
Karnataka,Raichur,Hemanur,76.95,16.347
Karnataka,Raichur,Kurdi A,77.201,16.051
Karnataka,Raichur,Maski A,77.267,16.271
Karnataka,Raichur,Ankusha Doddy,76.601,16.034
Karnataka,Raichur,Janekal,76.95,16.015
Karnataka,Raichur,Chincherki,76.784,16.201
Karnataka,Raichur,Chikksarur,76.634,16.111
Karnataka,Raichur,Bomanhal,76.334,16.072
Karnataka,Raichur,Lingasugur A,76.517,16.117
Karnataka,Raichur,Hanchihal,76.668,15.239
Karnataka,Raichur,Jawalgeri A,76.801,15.865
Karnataka,Ramanagara,Banavadi,77.258,13.117
Karnataka,Ramanagara,Hegganur,77.45,12.333
Karnataka,Ramanagara,Jalamangala A,77.22,12.82
Karnataka,Ramanagara,Naikanahalli,77.333,12.45
Karnataka,Shivmoga,Ayanur,75.5508,14
Karnataka,Tumkur,Irkasandra,76.9454,13.4144
Karnataka,Uttara Kannada,Sadashivgad,74.1297,14.8542
Karnataka,Yadgir,Hulkal,76.7896,16.7555
Karnataka,Yadgir,Hunsagi,76.5202,16.4583
Karnataka,Yadgir,Khembhavi,76.5326,16.6483
Karnataka,Yadgir,Shahpur,76.7557,16.5261
Karnataka,Yadgir,Ukkinal,76.664,16.756
Karnataka,Vijayanagara,Hampi-A,76.4611,15.3361
Karnataka,Vijayanagara,No.10 Muddapura,76.1669,15.1014
Karnataka,Bidar,Hallikhed A,77.2653,17.8458
Karnataka,Chamarajanagara,Uttamballi,77.0675,12.1472
Karnataka,Chikballapur,Gajahalli,78.067,13.315
Karnataka,Gadag,Shirhatti 1,75.5675,15.2292
Karnataka,Gulbarga,Huda,77.2847,17.1792
Karnataka,Hassan,Kenchammana Hoskote,75.85,12.86
Karnataka,Hassan,Hennali,75.83,12.83
Karnataka,Hassan,Kuppe - Alt Bw,76.183,12.656
Karnataka,Hassan,Sakaleshpura,75.78,12.95
Karnataka,Kodagu,Kadanur,75.77,12.22
Karnataka,Kolar,Angadonahalli,78.363,13.066
Karnataka,Kolar,Kielolli,78.291,13.117
Karnataka,Kolar,Sangasandra,78.403,13.218
Karnataka,Koppal,Karatgi,76.65,15.6
Karnataka,Koppal,Bandi,76.06,15.73
Karnataka,Mysore,Chikkayanachattra,76.68,12.15
Karnataka,Raichur,Galaga,76.83,16.27
Karnataka,Raichur,Bagalwad,76.88,16.27
Karnataka,Raichur,Shaktinagar,77.27,16.27
Karnataka,Raichur,Chikbergi,76.5,15.76
Karnataka,Raichur,Sindhnur,76.75,15.31
Karnataka,Yadgir,Hunsihole,76.65,16.3708
Karnataka,Yadgir,Gurmitkal1,77.4,16.875
Haryana,Ambala,Pinjokhara,76.8458,30.4083
Haryana,Ambala,Khanahmedpur,77.125,30.2417
Haryana,Ambala,Mulana,77.0458,30.2833
Haryana,Bhiwani,Khorra,75.8396,28.5193
Haryana,Bhiwani,Biran,76.0042,28.8266
Haryana,Bhiwani,Chiriya,76.2606,28.4608
Haryana,Bhiwani,Jhumpa Kalan,75.5294,28.7733
Haryana,Faridabad,Chhainsa,77.3166,28.3393
Haryana,Faridabad,Immamuddinpur,77.4501,28.3209
Haryana,Faridabad,Kabulpur,77.3955,28.4081
Haryana,Fatehabad,Bannawali,75.43,29.3986
Haryana,Fatehabad,Dher,75.7699,29.7034
Haryana,Fatehabad,Kirdhan,75.4022,29.4016
Haryana,Fatehabad,Inda Chhoi,75.7909,29.6371
Haryana,Gurugram,Mubarakpur,76.8416,28.4728
Haryana,Gurugram,Khori Kalan,77.0569,28.2358
Haryana,Gurugram,Meoka,76.9192,28.4089
Haryana,Gurugram,Sohna,77.0684,28.2429
Haryana,Gurugram,Rangla Dhani,76.8683,28.2146
Haryana,Gurugram,Garhiharsaru,76.9296,28.443
Haryana,Gurugram,Ghata,77.1094,28.422
Haryana,Gurugram,Mundakhera,76.848,28.517
Haryana,Gurugram,Bhorakalan,76.829,28.301
Haryana,Gurugram,Muhammadpurgujjar,77.0515,28.276
Haryana,Gurugram,Ramnagar,77.0876,29.0843
Haryana,Hisar,Chanaut,75.9208,29.2083
Haryana,Hisar,Mangali,75.7392,29.0369
Haryana,Jhajjar,Gabhana,76.8417,28.5708
Haryana,Jhajjar,Wazirpur,76.57,28.6825
Haryana,Jhajjar,Bahu,76.3341,28.4526
Haryana,Jhajjar,Jharli,76.3806,28.4973
Haryana,Jind,Dorana,76.4819,29.5186
Haryana,Jind,Katwal,76.4511,29.5043
Haryana,Jind,Jaipur,76.5838,29.3921
Haryana,Jind,Julani,76.2803,29.3882
Haryana,Jind,Jhamola,76.34,29.1404
Haryana,Jind,Dhanauri,76.1753,29.7716
Haryana,Jind,Harnampura,76.0526,29.6435
Haryana,Jind,Kalwan,75.9831,29.6898
Haryana,Jind,Narwana,76.1249,29.6165
Haryana,Jind,Bagru Kalan,76.6046,29.2959
Haryana,Jind,Karsola,76.4142,29.1392
Haryana,Jind,Ghaso Kalan,76.434,29.354
Haryana,Jind,Ghaso Khurd(Repeted),76.1528,29.5236
Haryana,Jind,Khatkar,76.2429,29.4017
Haryana,Jind,Surbrah,76.071,29.4866
Haryana,Jind,Uchana,76.1877,29.4775
Haryana,Kaithal,Pharal,76.5826,29.8382
Haryana,Kaithal,Rohera,76.4204,29.5665
Haryana,Karnal,Balla,76.7838,29.504
Haryana,Kurukshetra,Shadipur Shahabad,76.8485,30.022
Haryana,Mahendragarh,Khatodra,76.0897,28.2822
Haryana,Mahendragarh,Bichhoria,76.286,28.1489
Haryana,Mewat,Jhimrawat,77.071,27.887
Haryana,Mewat,Rawali,76.9335,27.706
Haryana,Mewat,Sukhburi,77.0814,27.9504
Haryana,Mewat,Malab,77.0124,28.0404
Haryana,Mewat,Phalaindi,77.1484,27.8844
Haryana,Mewat,Rojka Meo,77.063,28.211
Haryana,Mewat,Tapkan,76.9935,28.1422
Haryana,Mewat,Bichhor,77.3034,27.843
Haryana,Mewat,Didahra,76.956,28.2087
Haryana,Mewat,Kot Khandoela,76.9659,28.311
Haryana,Palwal,Jaindapur,77.2052,28.2059
Haryana,Palwal,Kondal,77.2674,28.0123
Haryana,Palwal,Mandkola,77.1754,28.1321
Haryana,Palwal,Hodal,77.35,27.8833
Haryana,Palwal,Baghaula,77.308,28.221
Haryana,Palwal,Pelak,77.4048,28.1384
Haryana,Palwal,Rasulpur,77.3982,28.0865
Haryana,Palwal,Theraka,77.3845,28.1277
Haryana,Panchkula,Batwal,76.9918,30.5905
Haryana,Panchkula,Bhoj Palsera,77.0404,30.6924
Haryana,Panchkula,Chandi Mandir,76.8606,30.6942
Haryana,Panchkula,Dharampur,76.9182,30.8142
Haryana,Panchkula,Khera,76.8767,30.823
Haryana,Panipat,Sewah,76.9811,29.3386
Haryana,Panipat,Lohari,76.8389,29.3583
Haryana,Panipat,Urlana Kalan,76.6717,29.34
Haryana,Panipat,Panipat,76.9722,29.3864
Haryana,Panipat,Panipat,76.9717,29.3674
Haryana,Panipat,Panipat,76.9491,29.3978
Haryana,Panipat,Panipat,76.9598,29.3964
Haryana,Panipat,Panipat Taraf  Makhdumzadgan,76.9899,29.4089
Haryana,Panipat,Panipat Taraf Afghan,76.9889,29.3709
Haryana,Rewari,Balawas,76.5608,28.2212
Haryana,Rewari,Bawal,76.5792,28.0708
Haryana,Rewari,Chimnawas,76.5243,28.2101
Haryana,Rewari,Masani,76.7295,28.2014
Haryana,Rohtak,Kahnaur,76.4843,28.7597
Haryana,Rohtak,Kalanaur Kalan,76.4209,28.8252
Haryana,Rohtak,Lakhan Majra,76.4764,29.0464
Haryana,Rohtak,Madina,76.4342,28.9394
Haryana,Rohtak,Nidhana,76.3747,29.0117
Haryana,Rohtak,Baland,76.5833,28.8
Haryana,Rohtak,Hassangarh,76.85,28.8417
Haryana,Sirsa,Biruwala Gudha,75.0572,29.7059
Haryana,Sirsa,Nagoki,75.1132,29.6529
Haryana,Sirsa,Panjuana,74.9839,29.6299
Haryana,Sirsa,Phaggu,75.114,29.775
Haryana,Sirsa,Dabwali,74.7375,29.9542
Haryana,Sirsa,Goriwala,74.7083,29.7917
Haryana,Sirsa,Masitan,74.72,29.8861
Haryana,Sirsa,Rampura Bishnoian,74.7856,29.7692
Haryana,Sirsa,Rasaliya Khera,74.7667,29.7167
Haryana,Sirsa,Shergarh,74.6764,29.9264
Haryana,Sirsa,Karamsana,74.63,29.3403
Haryana,Sirsa,Kumharia,75.1529,29.2514
Haryana,Sirsa,Taruwana,75.0083,29.825
Haryana,Sirsa,Mithri,74.9833,29.85
Haryana,Sirsa,Bhoona,75.708,29.5381
Haryana,Sirsa,Ding,75.2853,30.2019
Haryana,Sirsa,Jodhkan,75.2196,29.4971
Haryana,Sonipat,Gohana,76.7153,29.1394
Haryana,Sonipat,Khanpur,76.7956,29.1579
Haryana,Sonipat,Niat,76.777,29.1217
Haryana,Sonipat,Sahoti-R,76.9369,28.8036
Haryana,Sonipat,Sisnah,76.84,28.9019
Haryana,Sonipat,Murthal,77.0846,29.0356
Haryana,Sonipat,Jakhauli,77.146,28.9319
Haryana,Sonipat,Rai,77.1,28.92
Haryana,Sonipat,Barswani- Dw,76.9667,29
Haryana,Sonipat,Pinana,76.825,29.0655
Haryana,Sonipat,Kharkhoda,76.9025,28.8645
Haryana,Yamunanagar,Maheswari,77.2158,30.2704
Haryana,Yamunanagar,Jagadhari,77.2972,30.1648
Punjab,Amritsar,Chogawan,75.1221,31.6625
Punjab,Barnala,Mehal Kalan,75.559,30.523
Punjab,Bathinda,Balluana,74.782,30.2236
Punjab,Bathinda,Bathinda,74.9348,30.2133
Punjab,Bathinda,Ganga,74.835,30.362
Punjab,Bathinda,Kot Shamir,75.0083,30.1125
Punjab,Bathinda,Jandanwala,75.259,29.8725
Punjab,Bathinda,Ghuman Khurd,75.2678,30.0943
Punjab,Bathinda,Ramgarh Bhundar,75.0949,30.0773
Punjab,Bathinda,Bhucho Khurd,75.0492,30.2209
Punjab,Bathinda,Dial Pur Mirja,75.1167,30.4167
Punjab,Bathinda,Kalyan Sukhna,75.1156,30.3731
Punjab,Bathinda,Phul,75.2458,30.3375
Punjab,Bathinda,Mansa Khurd,75.3857,29.9873
Punjab,Bathinda,Pirkot,75.3238,30.139
Punjab,Bathinda,Jhanduke,75.15,30.1639
Punjab,Bathinda,Chak Hira Singhwala Urf Pakka Khurd,74.8719,30.0052
Punjab,Bathinda,Ghudda,74.789,30.128
Punjab,Bathinda,Jassi Bhagwali,74.801,30.068
Punjab,Bathinda,Rai Ke Kalan,74.7028,30.0764
Punjab,Bathinda,Malkana,75.0317,29.9368
Punjab,Bathinda,Raman,74.9613,29.968
Punjab,Bathinda,Bhagi Bandar,75.067,30.031
Punjab,Bathinda,Gurusar,75.092,29.993
Punjab,Bathinda,Maiser Khanna,75.5028,30.1528
Punjab,Faridkot,Pakka,74.8004,30.7065
Punjab,Faridkot,Sukhanwala,74.3822,30.3847
Punjab,Faridkot,Romana Ajit Singh,75.0186,30.4016
Punjab,Faridkot,Karir Wali,74.828,30.406
Punjab,Faridkot,Kot Kapura,74.833,30.583
Punjab,Fazilka,Abohar,74.1901,30.148
Punjab,Fazilka,Khatwa,74.1839,30.283
Punjab,Fazilka,Kikar Khera,74.1664,30.0798
Punjab,Fazilka,Sitogano,74.3602,30.029
Punjab,Fazilka,Chak Dabwala,74.1385,30.4106
Punjab,Fazilka,Mamu Khera,74.1728,30.2806
Punjab,Fazilka,Deepulana,74.099,30.453
Punjab,Fazilka,Fazilka,74.032,30.3948
Punjab,Fazilka,Rana,74.0459,30.4581
Punjab,Fazilka,Sarian,74.2221,30.4701
Punjab,Fazilka,Sohangarh,74.389,30.601
Punjab,Fazilka,Sabuana,74.0037,3.3301
Punjab,Fazilka,Bodiwala,74.1082,30.2971
Punjab,Fazilka,Danger Khera,74.1632,30.2096
Punjab,Fazilka,Dalewal Satkosi,74.0375,30.1986
Punjab,Fazilka,Khuiyan Serovar,74.078,30.113
Punjab,Ferozepur,Moharewala,74.5849,30.8287
Punjab,Ferozepur,Jandwala,74.4058,30.6409
Punjab,Ferozepur,Ghangakhala,74.3385,30.5753
Punjab,Gurdaspur,Kotbakhta,75.1964,31.7429
Punjab,Gurdaspur,Madipur,74.9423,31.8279
Punjab,Gurdaspur,Kot Budha,75.3326,31.8651
Punjab,Hoshiarpur,Garhshankar,76.05,31.25
Punjab,Hoshiarpur,Chohal,75.972,31.611
Punjab,Hoshiarpur,Rampur Camp Colony,75.947,31.503
Punjab,Jalandhar,Dhuleta,75.8286,31.1171
Punjab,Jalandhar,Nagar,75.8365,31.0425
Punjab,Jalandhar,Billi Charmi,75.394,31.112
Punjab,Jalandhar,Shahkot,75.3369,31.0859
Punjab,Ludhiana,Doraha,76.021,30.8
Punjab,Ludhiana,Mallah,75.4015,30.6862
Punjab,Ludhiana,Mushkabad,76.2303,30.8658
Punjab,Ludhiana,Jandali,76.0391,30.6537
Punjab,Ludhiana,Galib Kalan,75.3958,30.8354
Punjab,Mansa,Dhalewan,75.5756,30.0278
Punjab,Mansa,Boha,75.5206,29.8338
Punjab,Mansa,Joian,75.4479,29.8613
Punjab,Mansa,Saswali,75.6121,29.8294
Punjab,Mansa,Kot Dharmu,75.461,29.908
Punjab,Mansa,Burj Bhalaika,75.279,29.84
Punjab,Mansa,Jawaharke,75.4045,29.9676
Punjab,Mansa,Khiala Khurd,75.4382,30.0443
Punjab,Mansa,Khokhar Kalan,75.3464,3.0217
Punjab,Mansa,Kvk Mansa,75.3446,30.0011
Punjab,Mansa,Nangal Khurd,75.3788,29.9369
Punjab,Mansa,Raipur,75.229,29.69
Punjab,Moga,Sekh Kalan,75.0043,30.5883
Punjab,Moga,Dhilwanwala,75.1132,30.5311
Punjab,Moga,Daudhar Sharki,75.3334,30.7302
Punjab,Moga,Nihal Singh Wala,75.2783,30.5933
Punjab,Muktsar,Balochkhera,74.522,30.368
Punjab,Muktsar,Giljewala,74.589,30.3438
Punjab,Muktsar,Lambi,74.3626,30.0325
Punjab,Muktsar,Mithri Budhgir,74.6805,30.0361
Punjab,Muktsar,Jandwala Charat Singh,74.5288,30.2145
Punjab,Muktsar,Kabarwala,74.41,30.193
Punjab,Muktsar,Ratta Khera,74.4178,30.2897
Punjab,Muktsar,Bhalaiana,74.4247,30.1949
Punjab,Muktsar,Madahar Kalan,74.6783,30.5499
Punjab,Muktsar,Sangrana,74.5736,30.5522
Punjab,Muktsar,Thandewala,74.5882,30.4731
Punjab,Muktsar,Sheranwali,74.4644,30.0317
Punjab,Nawanshahr,Jafarpur,76.1158,31.096
Punjab,Pathankot,Khani Khui,75.55,32.16
Punjab,Pathankot,Bamial,75.458,32.288
Punjab,Pathankot,Gharota Kalan,75.5722,32.15
Punjab,Patiala,Dulladi,76.138,30.383
Punjab,Patiala,Basma Pepla,76.4069,30.685
Punjab,Patiala,Jansui,76.6304,30.5313
Punjab,Patiala,Samana,76.1889,30.1475
Punjab,Rupnagar,Rurkee Heeran,76.4287,30.8535
Punjab,Sangrur,Bhulan,76.01,29.763
Punjab,Sangrur,Salemgarh,75.9171,29.8361
Punjab,Sangrur,Bir Mahsampur,75.9798,30.3474
Punjab,Sangrur,Hassanpur,75.7548,30.3412
Punjab,Sangrur,Ratolan,75.9031,30.0862
Punjab,Sangrur,Lehragaga,75.8185,29.9382
Punjab,Sangrur,Phalaud Kalan,75.8972,30.5956
Punjab,Sangrur,Malerkotla,75.8983,30.5292
Punjab,Sangrur,Togawal,75.6095,30.158
Punjab,Sangrur,Chhahar,75.9042,30.029
Punjab,Sangrur,Shahpur Kalan,75.6308,30.1345
Punjab,Sas Nagar,Dera Bassi,76.838,30.586
Punjab,Sas Nagar,Issapur,76.8299,30.5942
Punjab,Tarn Taran,Goindwal Sahib,75.1442,31.366
Andhra Pradesh,Alluri Sita Rama Raju,Rampachodavaram,81.7805,17.4402
Andhra Pradesh,Alluri Sita Rama Raju,Lagarai,82.1922,17.5735
Andhra Pradesh,Alluri Sita Rama Raju,Chaviti Tibalu,81.9854,17.6183
Andhra Pradesh,Alluri Sita Rama Raju,Paderu,82.6735,18.0795
Andhra Pradesh,Alluri Sita Rama Raju,Dimriguda,82.7921,18.2885
Andhra Pradesh,Alluri Sita Rama Raju,Minimuluru,82.6999,18.0369
Andhra Pradesh,Alluri Sita Rama Raju,Peddabayalu,82.589,18.2873
Andhra Pradesh,Anakapalli,Anakapalli,82.9817,17.6809
Andhra Pradesh,Anakapalli,Haripalem,82.9778,17.6092
Andhra Pradesh,Anakapalli,Mallampet,82.4487,17.674
Andhra Pradesh,Anakapalli,Tallapalem,82.8921,17.6337
Andhra Pradesh,Anakapalli,Kotauratla,82.6866,17.5649
Andhra Pradesh,Anakapalli,Pudimadaka,83.0024,17.4928
Andhra Pradesh,Anakapalli,Medivoda,82.7791,17.7845
Andhra Pradesh,Anakapalli,Gurrajupeta,82.768,17.4005
Andhra Pradesh,Anakapalli,Revupolavaram,82.8178,17.3972
Andhra Pradesh,Anakapalli,Rayavaram,82.8025,17.4548
Andhra Pradesh,Anakapalli,Dharmarayudupeta,83.2159,17.7799
Andhra Pradesh,Ananthapur,Guntakal2,77.3837,15.1557
Andhra Pradesh,Ananthapur,Rayadurg-New,76.8484,14.7054
Andhra Pradesh,Ananthapur,Vajrakarur,77.3831,15.0304
Andhra Pradesh,Ananthapur,Atmakur,77.3659,14.646
Andhra Pradesh,Ananthapur,Gonchireddi Palli,77.0173,14.592
Andhra Pradesh,Ananthapur,Sivapuram,77.7269,14.7788
Andhra Pradesh,Ananthapur,Nayanapalle,77.8137,14.802
Andhra Pradesh,Ananthapur,Ramasagram,77.256,14.7232
Andhra Pradesh,Ananthapur,Ramasagram,77.256,14.7232
Andhra Pradesh,Ananthapur,Ramasagram,77.256,14.7232
Andhra Pradesh,Ananthapur,Sivapuram,77.7269,14.7788
Andhra Pradesh,Ananthapur,Bodapalli,77.077,14.399
Andhra Pradesh,Annamayya,Kalakoda,78.7878,13.8275
Andhra Pradesh,Annamayya,Arogyavaram,78.527,13.5934
Andhra Pradesh,Annamayya,Kalakada,78.7932,13.8185
Andhra Pradesh,Annamayya,Papireddygaripalli,78.7309,13.7867
Andhra Pradesh,Annamayya,Danduvaripalle,78.4765,13.5107
Andhra Pradesh,Annamayya,Madanapalle,78.5015,13.5564
Andhra Pradesh,Annamayya,Chokkandapalle,78.4522,13.3255
Andhra Pradesh,Annamayya,Papireddygaripalli,78.7333,13.7528
Andhra Pradesh,Annamayya,"Kayalwandlapalli,",78.6865,13.9207
Andhra Pradesh,Bapatla,Medarmetla,80.0156,15.7283
Andhra Pradesh,Bapatla,Nutalapadu,80.234,15.9348
Andhra Pradesh,Chittoor,Venkatagirikota,78.4793,13.0008
Andhra Pradesh,Chittoor,Brahmanapalle,79.3,13.43
Andhra Pradesh,Chittoor,Govindapalle,78.4561,12.8156
Andhra Pradesh,Chittoor,Rompicherla,79.0438,13.6703
Andhra Pradesh,Chittoor,Somala,78.8106,13.4769
Andhra Pradesh,Chittoor,Somala,78.8106,13.4769
Andhra Pradesh,Chittoor,Dhandikuppam,78.4435,12.8681
Andhra Pradesh,East Godavari,Chityala,81.5966,17.0895
Andhra Pradesh,East Godavari,Dondapudi,81.544,17.2097
Andhra Pradesh,East Godavari,Lakshmipuram,81.0484,17.7197
Andhra Pradesh,Eluru,Kaikaluru1,81.2006,16.5451
Andhra Pradesh,Eluru,Bomminampadu,81.2171,16.4735
Andhra Pradesh,Eluru,Singarayapalem (Babaji Mattam),81.1516,16.4108
Andhra Pradesh,Eluru,Gutala,81.6523,17.1847
Andhra Pradesh,Eluru,Kanapuram,81.4176,17.1878
Andhra Pradesh,Guntur,Pirangipuram (Repudi),80.2565,16.2881
Andhra Pradesh,Guntur,Medikondur,80.3024,16.3455
Andhra Pradesh,Guntur,Prattipadu,80.3318,16.1803
Andhra Pradesh,Guntur,Varagani,80.329,16.0851
Andhra Pradesh,Guntur,Pedda Parimi,80.4551,16.4598
Andhra Pradesh,Guntur,Phanidharam,80.3969,16.3606
Andhra Pradesh,Guntur,Narakoduru,80.5145,16.2257
Andhra Pradesh,Kakinada,Kattipudi,82.3314,17.2429
Andhra Pradesh,Kakinada,Uppada,82.3355,17.0805
Andhra Pradesh,Kakinada,Fishing Horbour,82.2757,16.985
Andhra Pradesh,Kakinada,Tallarevu,82.2303,16.7828
Andhra Pradesh,Kakinada,Dharmavaram,82.2285,17.227
Andhra Pradesh,Konaseema,Draksharamam,82.0637,16.7921
Andhra Pradesh,Konaseema,Mukteshwaram,82.0246,16.6602
Andhra Pradesh,Krishna,Balliparru,81.1873,16.2775
Andhra Pradesh,Krishna,Pedana_New,81.1495,16.2584
Andhra Pradesh,Krishna,Zamigolvepalli,80.9603,16.3681
Andhra Pradesh,Kurnool,Veldurthy,77.9269,15.5531
Andhra Pradesh,Kurnool,Haradgiri-Pn-3,77.1882,15.3012
Andhra Pradesh,Kurnool,Naganathanahalli,77.2221,15.5607
Andhra Pradesh,Kurnool,Orvakallu,78.1758,15.6858
Andhra Pradesh,Kurnool,Gudur-Pz -Wt,77.8074,15.7726
Andhra Pradesh,Kurnool,Tungabhadra,77.3014,15.9478
Andhra Pradesh,Kurnool,Kodumuru,77.7736,15.6857
Andhra Pradesh,Kurnool,Gulyam,76.8355,15.3837
Andhra Pradesh,Kurnool,Sullavai,77.1222,15.4321
Andhra Pradesh,Kurnool,Podalakunta,77.1147,15.8432
Andhra Pradesh,Kurnool,Adoni Kota Veerabhadra Swamigudi,77.2875,15.6667
Andhra Pradesh,Kurnool,Rajala Mandagiri,77.4735,15.4359
Andhra Pradesh,Kurnool,Doddanakere,77.2849,15.6993
Andhra Pradesh,Kurnool,Payalakurthi,77.8131,15.7151
Andhra Pradesh,Nandyal,Moravakonda,78.2876,15.9592
Andhra Pradesh,Nandyal,Yenugumarri,77.7893,15.2982
Andhra Pradesh,Nandyal,Dhone,77.8747,15.3969
Andhra Pradesh,Nellore,Muthukuru1,80.0947,14.2901
Andhra Pradesh,Nellore,Ramathirdam,80.1429,14.6399
Andhra Pradesh,Nellore,Kondapuram,79.6821,14.9923
Andhra Pradesh,Nellore,Nellore,79.9642,14.4366
Andhra Pradesh,Nellore,Aduripalli,79.6046,14.4426
Andhra Pradesh,Nellore,Kanupur,79.9027,14.3289
Andhra Pradesh,Nellore,Vadlapudi,79.7792,14.3031
Andhra Pradesh,Nellore,Bitragunta,80.0031,14.766
Andhra Pradesh,Nellore,Kandukur,79.9115,15.2185
Andhra Pradesh,Nellore,Pentrala,79.7147,15.0722
Andhra Pradesh,Nellore,Boyila Chiruvella,79.5606,14.6799
Andhra Pradesh,Nellore,Gannepalli,79.278,14.9441
Andhra Pradesh,Nellore,Narrawada,79.4159,14.9001
Andhra Pradesh,Nellore,Pallavolu,79.3597,14.6447
Andhra Pradesh,Ntr,Garikapadu,80.0523,16.951
Andhra Pradesh,Ntr,Gampala Gudem,80.5242,16.9996
Andhra Pradesh,Ntr,Tiruvuru-Pz,80.613,17.0987
Andhra Pradesh,Ntr,Itavaram,80.3044,16.735
Andhra Pradesh,Ntr,Vissannapet-New,80.7835,16.942
Andhra Pradesh,Ntr,A Konduru-New,80.648,16.9632
Andhra Pradesh,Ntr,Kottareddigudem,80.7414,16.8768
Andhra Pradesh,Ntr,Penuganchiprolu,80.2472,16.9019
Andhra Pradesh,Ntr,Makkapeta,80.1915,16.9251
Andhra Pradesh,Ntr,Jayanti,80.4374,16.8207
Andhra Pradesh,Ntr,Raghavapuram,80.3181,16.763
Andhra Pradesh,Palnadu,Rentachintala,79.5477,16.5514
Andhra Pradesh,Palnadu,Utukuru,80.2018,16.566
Andhra Pradesh,Palnadu,Krosur,80.1393,16.5429
Andhra Pradesh,Palnadu,Pisapadu,80.1431,16.4979
Andhra Pradesh,Palnadu,Rentapalle,80.1364,16.4713
Andhra Pradesh,Palnadu,Sirigiripadu-Alt,79.3263,16.3043
Andhra Pradesh,Palnadu,Vinukonda,79.7434,16.0519
Andhra Pradesh,Palnadu,Murjampadu,79.9084,16.5906
Andhra Pradesh,Palnadu,Mandadi,79.4054,16.4084
Andhra Pradesh,Palnadu,Guttikonda,79.8322,16.4306
Andhra Pradesh,Palnadu,Rompicherla,79.9133,16.21
Andhra Pradesh,Palnadu,Ungutur,80.3645,16.4941
Andhra Pradesh,Palnadu,Rompicherla Pz,79.9049,16.2128
Andhra Pradesh,Palnadu,Amaravati,80.3612,16.5733
Andhra Pradesh,Palnadu,Timmapuram,80.2048,16.1491
Andhra Pradesh,Palnadu,Brahmanpalli,79.8311,16.5174
Andhra Pradesh,Palnadu,Inovolu,79.6704,15.9932
Andhra Pradesh,Palnadu,Vykuntapuram,80.4127,16.566
Andhra Pradesh,Palnadu,Vellatur,79.6506,16.1193
Andhra Pradesh,Palnadu,Bellamkonda,80.0076,16.4922
Andhra Pradesh,Palnadu,Santagudipadu,79.9141,16.2534
Andhra Pradesh,Palnadu,Narakullapadu,80.3663,16.5329
Andhra Pradesh,Palnadu,Sattenapalli,80.1479,16.4063
Andhra Pradesh,Palnadu,A. Muppalla,79.8415,16.2434
Andhra Pradesh,Palnadu,Maddirala,80.0909,16.0947
Andhra Pradesh,Palnadu,Nadendla,80.1843,16.1762
Andhra Pradesh,Palnadu,Kavuru-Ew,80.1205,16.1394
Andhra Pradesh,Palnadu,Gundlapalli Ew,79.8867,16.4075
Andhra Pradesh,Palnadu,Kavuru-Ow,80.1212,16.1419
Andhra Pradesh,Palnadu,Gogulapadu,79.707,16.5359
Andhra Pradesh,Palnadu,Bommarajupalli,79.7865,16.2743
Andhra Pradesh,Palnadu,Gandiganumula,79.5755,16.2971
Andhra Pradesh,Palnadu,Uppalapadu,80.0299,16.1938
Andhra Pradesh,Palnadu,Bommarajupalli,79.7864,16.2742
Andhra Pradesh,Palnadu,Inametla,79.9825,16.3784
Andhra Pradesh,Parvathipuram Manyam,Kurupana,83.553,18.866
Andhra Pradesh,Parvathipuram Manyam,Balajipet,83.5286,18.6113
Andhra Pradesh,Parvathipuram Manyam,Komarada,83.4625,18.8984
Andhra Pradesh,Parvathipuram Manyam,Appayyapet,83.3725,18.6772
Andhra Pradesh,Parvathipuram Manyam,Chilakalapalli,83.5333,18.593
Andhra Pradesh,Prakasham,Guttalaumadivrm,79.5581,16.0164
Andhra Pradesh,Prakasham,Uppugundur,80.1639,15.6753
Andhra Pradesh,Prakasham,Donakonda,79.4872,15.831
Andhra Pradesh,Prakasham,Turumella,78.9861,15.5228
Andhra Pradesh,Prakasham,Rajupalem,79.4417,15.9858
Andhra Pradesh,Prakasham,Tadivaripalli,79.2755,15.5899
Andhra Pradesh,Prakasham,Kanigiri,78.5715,15.403
Andhra Pradesh,Prakasham,Oneguruvaipalem,79.6461,15.6825
Andhra Pradesh,Prakasham,Ayyavarepalli,79.5663,15.1126
Andhra Pradesh,Prakasham,Agraharam,79.6822,15.5945
Andhra Pradesh,Prakasham,Pedda Alavalapadu,79.6267,15.3272
Andhra Pradesh,Prakasham,Thippaipalle,79.1783,15.6881
Andhra Pradesh,Prakasham,Bestavaripeta,79.1088,15.5537
Andhra Pradesh,Prakasham,Thummalacheruvu,79.2919,15.6589
Andhra Pradesh,Prakasham,Gajjalakonda,79.3953,15.7423
Andhra Pradesh,Prakasham,Thokapalle,79.2951,15.8807
Andhra Pradesh,Prakasham,Sanikavaram,79.1715,15.9014
Andhra Pradesh,Prakasham,Veerabhadrapuram,79.2506,16.0575
Andhra Pradesh,Prakasham,Dhupadu,79.3669,15.9164
Andhra Pradesh,Prakasham,Uyyalavada,78.8953,15.2133
Andhra Pradesh,Prakasham,Malepadu,79.7106,15.2397
Andhra Pradesh,Prakasham,Juvvigunta,79.7289,15.4339
Andhra Pradesh,Prakasham,Kondepi,79.8681,15.4133
Andhra Pradesh,Prakasham,Chilkapadu,79.9067,15.4783
Andhra Pradesh,Prakasham,Pallamalli,79.9044,15.6496
Andhra Pradesh,Prakasham,Pvenkatapuram,79.4762,15.7625
Andhra Pradesh,Prakasham,Choutapalli,79.4377,15.6642
Andhra Pradesh,Prakasham,Katurivaripalem,79.6398,15.598
Andhra Pradesh,Prakasham,Pernamitta,80.0056,15.5316
Andhra Pradesh,Prakasham,Ravipadu,79.153,15.5739
Andhra Pradesh,Prakasham,Suryavaripalli (Bedusupalle),78.9694,15.2646
Andhra Pradesh,Prakasham,Kandivanipalle,79.2957,15.7
Andhra Pradesh,Prakasham,Ankireddypalle,79.0068,15.3961
Andhra Pradesh,Prakasham,Pachala Venkatapuram,79.1276,15.3997
Andhra Pradesh,Prakasham,Maguturu,79.0833,15.6913
Andhra Pradesh,Prakasham,Hasnabad (Dornala),79.1243,15.8934
Andhra Pradesh,Prakasham,Kolukula,79.2238,15.9889
Andhra Pradesh,Prakasham,Yerrabalem,79.0154,15.5606
Andhra Pradesh,Prakasham,Y.Cherlopalle,78.9589,15.8779
Andhra Pradesh,Prakasham,Akiveedu (Kothuru),78.9371,15.5904
Andhra Pradesh,Prakasham,Laxmakka Palli,79.3548,15.6371
Andhra Pradesh,Prakasham,Yerragondapalem,79.2931,16.0248
Andhra Pradesh,Sri Satya Sai,Dharmavaram,77.7161,14.4138
Andhra Pradesh,Sri Satya Sai,Penukonda,77.5976,14.0863
Andhra Pradesh,Sri Satya Sai,Kothapalam,77.1462,13.8768
Andhra Pradesh,Sri Satya Sai,Mudigubba-Pz,77.9967,14.3526
Andhra Pradesh,Sri Satya Sai,Talapula-Pz,78.2557,14.2421
Andhra Pradesh,Sri Satya Sai,Tanakallu-Pz,78.196,13.9171
Andhra Pradesh,Sri Satya Sai,Kadiri - Pz,78.1572,14.1188
Andhra Pradesh,Sri Satya Sai,Penukonda-Pz,77.597,14.0865
Andhra Pradesh,Sri Satya Sai,Chenna Kothapalli-Pz,77.6254,14.2703
Andhra Pradesh,Sri Satya Sai,Nalla Cheruvu,78.1878,13.987
Andhra Pradesh,Sri Satya Sai,Kanchisamudrqam,77.6117,13.7752
Andhra Pradesh,Sri Satya Sai,Sevamandiram,77.4795,13.8521
Andhra Pradesh,Sri Satya Sai,"Valasa Agraharam, Ew Of Aq-Ii",76.9044,14.1404
Andhra Pradesh,Sri Satya Sai,Amadguru,78.0227,13.8886
Andhra Pradesh,Sri Satya Sai,Nagulagubbala,78.0126,14.3801
Andhra Pradesh,Sri Satya Sai,Charupalle,78.0765,14.1953
Andhra Pradesh,Sri Satya Sai,Korthikota,78.3229,13.9342
Andhra Pradesh,Sri Satya Sai,Mohammadabad,78.008,13.9713
Andhra Pradesh,Sri Satya Sai,Inagaluru,78.0403,14.0449
Andhra Pradesh,Sri Satya Sai,Kadiri Rural,78.1542,14.1286
Andhra Pradesh,Sri Satya Sai,Talupula,78.2601,14.2435
Andhra Pradesh,Sri Satya Sai,Chennakottapalle,77.6253,14.2711
Andhra Pradesh,Sri Satya Sai,Dharamavaram,77.7102,14.3864
Andhra Pradesh,Sri Satya Sai,Dubbaraparthi,77.3788,14.344
Andhra Pradesh,Sri Satya Sai,Kotlapalli,77.7201,14.0732
Andhra Pradesh,Sri Satya Sai,Kotlapalli,77.7201,14.0732
Andhra Pradesh,Sri Satya Sai,Madulacheruvu,77.3586,14.4294
Andhra Pradesh,Sri Satya Sai,Bukkapatnam,77.8622,14.1973
Andhra Pradesh,Srikakulam,Heeramandalam,83.9489,18.6752
Andhra Pradesh,Srikakulam,Narasannapeta,84.0479,18.4193
Andhra Pradesh,Srikakulam,Amudalavalasa1,83.9041,18.4166
Andhra Pradesh,Srikakulam,Ponduru,83.7553,18.3556
Andhra Pradesh,Srikakulam,Tharli Bodapadu,84.1842,18.5587
Andhra Pradesh,Srikakulam,Palasa,84.4175,18.757
Andhra Pradesh,Srikakulam,Pedda Padmapuram,84.162,18.7595
Andhra Pradesh,Srikakulam,Naupada,84.2998,18.5651
Andhra Pradesh,Srikakulam,Sundarada,84.135,18.7394
Andhra Pradesh,Srikakulam,Ragolu,83.8935,18.3445
Andhra Pradesh,Srikakulam,Allada,83.9758,18.4811
Andhra Pradesh,Tirupathi,Vidyanagar-Alt,80.0312,14.0306
Andhra Pradesh,Tirupathi,Atkanitipa,80.1241,13.7225
Andhra Pradesh,Visakhapatnam,Bhimunipatnam-2,83.4521,17.8876
Andhra Pradesh,Visakhapatnam,Bandavaripalem X,83.2291,17.8324
Andhra Pradesh,Vizianagaram,Bobbili,83.3487,18.5712
Andhra Pradesh,Vizianagaram,Vijayanagaram,83.394,18.1039
Andhra Pradesh,Vizianagaram,Natavalasa,83.5254,18.0627
Andhra Pradesh,Vizianagaram,Garbham,83.4535,18.369
Andhra Pradesh,Vizianagaram,Lakkavarapu  Kota,83.1755,17.9673
Andhra Pradesh,Vizianagaram,Almanda Village,83.243,17.9947
Andhra Pradesh,Vizianagaram,Tarapuram,83.2538,18.5023
Andhra Pradesh,Vizianagaram,Kondagandredu,83.4531,18.2845
Andhra Pradesh,Vizianagaram,Jagaram,83.2191,18.0635
Andhra Pradesh,Vizianagaram,Musiram,83.122,17.9307
Andhra Pradesh,West Godavari,Attili,81.6052,16.686
Andhra Pradesh,West Godavari,Narsapuram,81.6933,16.4323
Andhra Pradesh,West Godavari,Veeravasaram,81.606,16.5417
Andhra Pradesh,Ysr Kadapa,Jammalamadugu,78.3879,14.8523
Andhra Pradesh,Ysr Kadapa,Lingale,78.1257,14.4928
Andhra Pradesh,Ysr Kadapa,N.Pallagiri,78.4424,14.4571
Andhra Pradesh,Ysr Kadapa,Ulavalapalli (Kondur),78.5267,14.437
Andhra Pradesh,Ysr Kadapa,Jangamreddypalle,78.1991,14.6786
Andhra Pradesh,Ysr Kadapa,Bonala,78.1339,14.5203
Andhra Pradesh,Ysr Kadapa,Nandimandalam,78.5247,14.407
Andhra Pradesh,Ysr Kadapa,Talapally,78.3879,14.3733
Andhra Pradesh,Ysr Kadapa,Dumpalagattu,78.7812,14.6164
Telangana,Adilabad,Sitagondi,78.4937,19.581
Telangana,Adilabad,Gudihathur,78.5134,19.5304
Telangana,Adilabad,Utnoor,78.777,19.375
Telangana,Adilabad,Dantalapally,78.818,19.3263
Telangana,Adilabad,Bela-Pz,78.7609,19.7186
Telangana,Adilabad,Hasnapur,78.799,19.4168
Telangana,Adilabad,Kumari,78.4147,19.3579
Telangana,Adilabad,Utnoor,78.7769,19.3746
Telangana,Adilabad,Mavala (Adilabad),78.5083,19.6377
Telangana,Adilabad,Danora - B,78.5853,19.5124
Telangana,Adilabad,Morkhandi,78.3403,19.5261
Telangana,Adilabad,Gubba - Ramtek,78.4501,19.4555
Telangana,Adilabad,Karanji -Khurd,78.6974,19.7625
Telangana,Adilabad,Dorli,78.3726,19.6379
Telangana,Adilabad,Lingi,78.3844,19.6966
Telangana,Adilabad,Jamidi,78.4579,19.7074
Telangana,Adilabad,Gangapur,78.7347,19.369
Telangana,Adilabad,Pochampalli,78.6114,19.4018
Telangana,Adilabad,Tocham1,78.5668,19.529
Telangana,Adilabad,Tamsi-Khurd,78.4637,19.8101
Telangana,Adilabad,Tocham1,78.5668,19.5289
Telangana,Adilabad,Mandagada1,78.5608,19.7986
Telangana,Adilabad,Mandagada2,78.5615,19.7983
Telangana,B.Kothagudem,Kesavapuram,80.7469,17.6057
Telangana,B.Kothagudem,Thungaram-Tekula Banjara1,80.6021,17.4336
Telangana,B.Kothagudem,Gundala1,80.3164,17.9138
Telangana,Hanamkonda,Yelakaturthy1,79.4494,18.0996
Telangana,Hanamkonda,Panthini,79.6074,17.8493
Telangana,Hanamkonda,Yellapur,79.5012,18.0787
Telangana,J.Bhupalapally,Garepalli,79.9448,18.6255
Telangana,J.Bhupalapally,Vallamkuntla2,79.8271,18.6042
Telangana,Jagtial,Chalgal,78.8729,18.8041
Telangana,Jagtial,Mallannapeta,79.0102,18.7995
Telangana,Jagtial,Sirikonda,78.6983,18.7603
Telangana,Jagtial,Mallial2,78.9527,18.7064
Telangana,Jangaon,Pedda Pendiyal,79.4342,17.9078
Telangana,Jangaon,Ippagudem,79.3745,17.7679
Telangana,Jangaon,Palakurthi,79.4304,17.662
Telangana,Jangaon,Alimpuram,79.0163,17.8259
Telangana,Jangaon,Raghunathapalli-Pz,79.2622,17.7658
Telangana,Jangaon,P.Kesavapur-Pz,78.9331,17.8344
Telangana,Jangaon,Thatikonda  Pz,79.3025,17.863
Telangana,Jangaon,Nidigonda,79.2336,17.7405
Telangana,Jangaon,Devrupala2,79.3528,17.5335
Telangana,Jangaon,Peddapahad,79.0957,17.777
Telangana,Jangaon,Bontagattu Nagaram,79.2146,17.9733
Telangana,Jangaon,Thatikonda,79.2891,17.8713
Telangana,Jangaon,Ghanpur Station,79.3748,17.844
Telangana,Jangaon,Ramavaram,79.463,17.5278
Telangana,Jangaon,Komalla1,79.3004,17.7807
Telangana,Jangaon,Bachannapet,79.0401,17.7888
Telangana,Jangaon,Nellutla2,79.1905,17.7056
Telangana,Jangaon,Bonthagattu Nagaram,79.2168,17.9782
Telangana,Jogulamba,Chagapur-Aq-I,77.8344,16.0342
Telangana,Jogulamba,Jallapur,77.9813,16.0191
Telangana,Jogulamba,Boravalle,77.975,16.0284
Telangana,Jogulamba,Medikonda,77.61,15.951
Telangana,Jogulamba,Chinnipadu,77.9623,15.9444
Telangana,Jogulamba,Waddepalle,77.84,15.935
Telangana,Kamareddy,Peddakodappagal-Ew,77.7124,18.3446
Telangana,Kamareddy,Pitlam,77.8505,18.3206
Telangana,Kamareddy,Kamareddy,78.3164,18.3389
Telangana,Kamareddy,Biknoor,78.4129,18.1524
Telangana,Kamareddy,Kamareddy,78.3436,18.3218
Telangana,Kamareddy,Kamareddy,78.352,18.2833
Telangana,Kamareddy,Bichkunda,77.7945,18.3854
Telangana,Kamareddy,Biknoor,78.373,18.1463
Telangana,Karimnagar,Kothapalli  Pz,79.0773,18.5083
Telangana,Karimnagar,Mallapur,78.9608,18.5637
Telangana,Kb Asifabad,Burugudem,79.3351,19.3382
Telangana,Kb Asifabad,Sangvi,79.0712,19.4693
Telangana,Kb Asifabad,C Babu Colony2,79.4917,19.3292
Telangana,Kb Asifabad,Dabba2,79.7157,19.4391
Telangana,Khammam,Yerupalem,80.4707,16.822
Telangana,Khammam,Annarugudem,80.4263,17.2604
Telangana,Khammam,Rebbavaram,80.3367,17.1169
Telangana,Khammam,Rangam Banjar Malsur Tanda,80.5088,17.1947
Telangana,Khammam,Nakkalagarubu1,80.3538,16.9474
Telangana,Khammam,Thirumalayapalem,80.0379,17.3119
Telangana,Khammam,Yadavalli,80.0522,17.1952
Telangana,Khammam,Madharam,80.227,17.545
Telangana,Khammam,Remidicherla3,80.4915,16.806
Telangana,Khammam,Kattakuru2,80.0375,17.1745
Telangana,Khammam,Kattakuru3,80.0375,17.1745
Telangana,Khammam,Nakkalagarubu2,80.3539,16.9473
Telangana,Mahabubabad,Garla,80.142,17.4866
Telangana,Mahabubabad,Gandhampally (Santulalpod),80.1339,17.5619
Telangana,Mahabubnagar,Balanagar-Pz,78.1778,16.9447
Telangana,Mahabubnagar,Hanwada,77.9194,16.8122
Telangana,Mahabubnagar,Mahabubnagar,78.0003,16.7514
Telangana,Mahabubnagar,Chowdoor,78.0708,16.9764
Telangana,Mahabubnagar,Nacharla,77.8505,16.9066
Telangana,Mahabubnagar,Ammapalle,78.2184,16.7756
Telangana,Mancherial,Hajipur,79.3039,18.864
Telangana,Mancherial,Jannaram,78.9965,19.117
Telangana,Mancherial,Rampur,79.5831,19.1675
Telangana,Mancherial,Kalamadugu,78.9493,19.0897
Telangana,Mancherial,Bellampalli,79.485,19.0519
Telangana,Mancherial,Dandepalli1,79.1517,18.9955
Telangana,Mancherial,Dandepalli2,79.1517,18.9955
Telangana,Mancherial,Mittapalle,79.5661,18.8785
Telangana,Mancherial,Mittapalli,79.5661,18.8785
Telangana,Medak,Kaudipally-Pz,78.2078,17.9014
Telangana,Medak,Narsingi,78.0674,18.0214
Telangana,Medak,Narsapur,78.2877,17.7377
Telangana,Medak,Sivampet,78.3697,17.7863
Telangana,Medak,Wadiyaram,78.4649,17.9573
Telangana,Medak,Kallakal,78.4787,17.7206
Telangana,Medak,Chandi,78.3903,17.7865
Telangana,Medak,Damarancha,78.3051,17.9438
Telangana,Medak,Madur,78.3875,18.0173
Telangana,Medak,Somakkapeta,78.1422,17.8673
Telangana,Medchal Malkanjgiri,Aliabad,78.5902,17.6259
Telangana,Medchal Malkanjgiri,Kushaiguda,78.5736,17.4783
Telangana,Medchal Malkanjgiri,Singayapalli1,78.5472,17.5456
Telangana,Medchal Malkanjgiri,Singayapalli2,78.5472,17.5456
Telangana,Mulugu,Alubaka,80.6705,18.2042
Telangana,Mulugu,Tadvai-New,80.3128,18.2329
Telangana,Mulugu,Kamalapuram-New,80.4889,18.2698
Telangana,Mulugu,Lakshmidevpet-Pz,79.9632,18.2969
Telangana,Nagarkurnool,Vangur-Pz,78.6211,16.6131
Telangana,Nagarkurnool,Madharam,78.3686,16.6692
Telangana,Nagarkurnool,Jupally- Aq-I,78.6031,16.6592
Telangana,Nagarkurnool,Kalwakurthy- Aq-I,78.4858,16.6742
Telangana,Nagarkurnool,Charakonda- Aq-I,78.7108,16.6956
Telangana,Nagarkurnool,Mamaipalli- Aq-I,78.1672,16.4733
Telangana,Nagarkurnool,Nadimpalli- Aq-I,78.685,16.4153
Telangana,Nagarkurnool,Veltoor- Aq-I,78.6867,16.5067
Telangana,Nagarkurnool,Venkeshwaram-Aq-I,78.9128,16.4278
Telangana,Nagarkurnool,Allipur,78.18,16.4623
Telangana,Nagarkurnool,Rayawaram,78.4625,16.2422
Telangana,Nagarkurnool,Jagboinpalle,78.3737,16.7864
Telangana,Nagarkurnool,Peddamudunoor,78.3606,16.3817
Telangana,Nagarkurnool,Gundur,78.4606,16.5732
Telangana,Nalgonda,Nidamanuru,79.3687,16.8226
Telangana,Nalgonda,Devarakonda,78.9253,16.6923
Telangana,Nalgonda,Nakrekal-Pz,79.4281,17.1663
Telangana,Nalgonda,Devarakonda,78.9161,16.6922
Telangana,Nalgonda,Nidamanuru,79.3684,16.8227
Telangana,Nalgonda,Chintapally-Pz 2,78.8233,16.8076
Telangana,Nalgonda,Chikatimamidi,79.0247,17.0984
Telangana,Nalgonda,Mangapur,79.5391,17.01
Telangana,Nalgonda,Antampet-Pz-I,78.8917,17.0325
Telangana,Nalgonda,Antampet-Pz-Ii,78.8917,17.0323
Telangana,Nalgonda,Bodangiparti Aq-I,79.0449,17.0378
Telangana,Nalgonda,"Satyanarayanapuram, Aq-I (Annarao",79.4629,16.795
Telangana,Nalgonda,Kurumapalli Aq-I,78.7949,16.8869
Telangana,Nalgonda,Ajilapuram,78.8049,16.9823
Telangana,Nalgonda,Chinthapally,78.8226,16.8074
Telangana,Nalgonda,Madgulapally,79.4657,16.9697
Telangana,Nalgonda,Gagillapuram,78.9269,16.6053
Telangana,Nalgonda,Godumadaka,79.3684,16.6357
Telangana,Nalgonda,Dasarlapalli,79.0432,16.529
Telangana,Nalgonda,Kambalapalli,79.1367,16.4753
Telangana,Nalgonda,Kandakur,78.7839,16.655
Telangana,Nalgonda,Nampally,78.9647,16.8862
Telangana,Nalgonda,Adavi Thumalapally2,79.0014,16.8246
Telangana,Nalgonda,Vattikode3,79.0968,16.9207
Telangana,Nalgonda,Nampally,78.9648,16.8862
Telangana,Nalgonda,Yellareddigudem1,79.2068,17.1583
Telangana,Narayanpet,Dhanwada-Pz,77.6564,16.6411
Telangana,Narayanpet,Kalwal,77.6081,16.4226
Telangana,Narayanpet,Rudrasamudram,77.5572,16.4635
Telangana,Nirmal,Mudhol,77.9198,18.9838
Telangana,Nirmal,Ratnapur Kandili,78.4017,19.0876
Telangana,Nirmal,Chincholi (Bk),78.3389,19.1434
Telangana,Nirmal,Bhainsa,77.9781,19.1029
Telangana,Nirmal,Rajura1,77.9572,19.248
Telangana,Nirmal,Wadgaon,77.7851,18.9821
Telangana,Nirmal,Rajura2,77.9573,19.2477
Telangana,Nizamabad,Dharpalli-Pz,78.3618,18.5759
Telangana,Nizamabad,Dharmora,78.4261,18.8649
Telangana,Nizamabad,Lakhora,78.3497,18.7943
Telangana,Pedapalle,Venkatapur,79.8101,18.6577
Telangana,Pedapalle,Muktharam -Pz,79.6285,18.5046
Telangana,Pedapalle,Penchikalpet,79.4102,18.1511
Telangana,R. Sircilla,Boinpally Pz,78.9364,18.5031
Telangana,R. Sircilla,Nerall Pz,78.8227,18.3078
Telangana,R. Sircilla,Suddala,78.7953,18.4697
Telangana,Rangareddy,Attapur,78.4296,17.3622
Telangana,Rangareddy,Kadtal-Pz,78.5015,16.9766
Telangana,Rangareddy,Kesampet-Pz,78.345,16.9553
Telangana,Rangareddy,Kothur-Pz,78.2742,17.1358
Telangana,Rangareddy,Mogiligidda-Pz,78.1175,17.0828
Telangana,Rangareddy,Gantlavelli-Pz,78.2467,16.995
Telangana,Rangareddy,Talakondapalli-Pz,78.4133,16.8906
Telangana,Rangareddy,Yeljal-Pz,78.365,16.8272
Telangana,Rangareddy,Madugula-Pz,78.6922,16.8558
Telangana,Rangareddy,Vithayapalli- Aq-I,78.5283,16.8822
Telangana,Rangareddy,Lingareddiguda,78.2256,17.0862
Telangana,Rangareddy,Julapalle,78.3578,16.8601
Telangana,Rangareddy,Burgul1,78.2159,16.975
Telangana,Rangareddy,Burgul2,78.216,16.9754
Telangana,Rangareddy,Burgul3,78.216,16.9755
Telangana,Rangareddy,Chintakuntapalle,78.3079,16.9586
Telangana,Rangareddy,Kondurg,78.0389,17.0919
Telangana,Rangareddy,Salarpur1,78.4546,16.9321
Telangana,Rangareddy,Salarpur2,78.4546,16.9321
Telangana,Rangareddy,Chinna Raviral,78.7247,17.3831
Telangana,Rangareddy,Shankarapally,78.1325,17.4579
Telangana,Rangareddy,Antaram (C),78.0326,17.3255
Telangana,Rangareddy,Shamshabad1,78.3958,17.2561
Telangana,Rangareddy,Shamshabad-Ow,78.3957,17.2562
Telangana,Rangareddy,Hayatnagar-1,78.6047,17.3292
Telangana,Rangareddy,Maheswaram1,78.4314,17.1377
Telangana,Rangareddy,Vanasthali Puram-Pz,78.5841,17.3357
Telangana,Rangareddy,Saroor Nagar,78.536,17.3582
Telangana,Rangareddy,Kammeta-Pz,78.1583,17.3741
Telangana,Rangareddy,Nagarguda-Pz,78.1336,17.2359
Telangana,Rangareddy,Pendyal,78.3572,17.1373
Telangana,Rangareddy,Mansanpallypz,78.3905,17.1353
Telangana,Rangareddy,Polkampalli,78.7069,17.2261
Telangana,Rangareddy,Fatehpur,78.1163,17.4608
Telangana,Rangareddy,Gudur,78.2739,17.2087
Telangana,Rangareddy,C-Patelgudem,78.6329,17.1629
Telangana,Rangareddy,Kothur,78.2883,17.1442
Telangana,Rangareddy,Loyapalli,78.8338,17.0424
Telangana,Rangareddy,Kottapalli,78.6793,16.9704
Telangana,Rangareddy,Dubbacherla,78.3701,17.1086
Telangana,Rangareddy,Gawaladoddi,78.308,17.4309
Telangana,Rangareddy,Padda Solipet,78.2172,17.2317
Telangana,Rangareddy,Kismatpur,78.3971,17.337
Telangana,Rangareddy,Hytabad,78.202,17.2274
Telangana,Sangareddy,Kohir,77.7172,17.61
Telangana,Sangareddy,Chalki,77.6833,17.9086
Telangana,Sangareddy,Tadkal,77.7058,18.2322
Telangana,Sangareddy,Nizampet,77.8844,18.0955
Telangana,Sangareddy,Ismailkhanpet,78.1569,17.6228
Telangana,Sangareddy,Peddareddypet,77.9572,17.7683
Telangana,Sangareddy,Solakapalli,78.2797,17.6442
Telangana,Sangareddy,Wangada,77.6767,18.1256
Telangana,Sangareddy,Nizampet,77.8773,18.0941
Telangana,Sangareddy,Jinnaram2,78.331,17.631
Telangana,Sangareddy,Sanjivraopet,77.8001,18.0948
Telangana,Siddipet,Buswapuram1,79.0565,18.1031
Telangana,Siddipet,Husnabad-1,79.2114,18.126
Telangana,Siddipet,Katkur Pz,79.2383,18.0423
Telangana,Siddipet,Ramanpatla,78.9142,18.1397
Telangana,Siddipet,Ahimadepur,78.7187,17.9341
Telangana,Siddipet,Dubbak,78.6668,18.1743
Telangana,Siddipet,Jagadevpur,78.805,17.7686
Telangana,Siddipet,Kistapur,78.714,17.9643
Telangana,Siddipet,Kondapak,78.8614,17.9758
Telangana,Siddipet,Posanpalli,78.878,17.88
Telangana,Siddipet,Raipole,78.6293,17.9354
Telangana,Siddipet,Watipally,78.8557,17.8245
Telangana,Siddipet,Alipur,78.9236,18.2387
Telangana,Siddipet,Raghavapuram,78.7762,18.1758
Telangana,Siddipet,Medinipur,78.8062,17.9044
Telangana,Siddipet,Rajgopalpet,78.9435,18.0917
Telangana,Siddipet,Pedda Gundavelly,78.7032,18.159
Telangana,Siddipet,Ganeshpalli,78.7476,17.8031
Telangana,Siddipet,Gonepalli,78.9327,18.1276
Telangana,Siddipet,Mutsyala-Pz,78.9933,17.8986
Telangana,Siddipet,Mulugu,78.6299,17.7406
Telangana,Siddipet,Mulugu,78.6299,17.7406
Telangana,Siddipet,Nanganoor1,79.0327,18.0582
Telangana,Suryapet,Huzurnagar-Pz,79.8713,16.8945
Telangana,Suryapet,Pillalamarri,79.5822,17.1698
Telangana,Suryapet,Kudakuda,79.6278,17.1649
Telangana,Suryapet,Balwemla,79.5955,17.2103
Telangana,Vikarabad,Ravalpalle,77.5233,17.0472
Telangana,Vikarabad,Ragidimailaram,77.6678,17.1225
Telangana,Vikarabad,Hasnabad,77.6528,17.0539
Telangana,Vikarabad,Enkapalli,77.6347,17.1519
Telangana,Vikarabad,Mattoor Ew,77.5446,17.0399
Telangana,Vikarabad,Chimaldarri,78.0035,17.4655
Telangana,Vikarabad,Kotepally (New),77.7462,17.3825
Telangana,Vikarabad,Angadi Chittampalli,78.0306,17.2889
Telangana,Vikarabad,Pudur,77.9577,17.2638
Telangana,Vikarabad,Peddamul1,77.6605,17.3352
Telangana,Vikarabad,Chityal,77.9671,17.1254
Telangana,Vikarabad,Naskal,77.8726,17.2251
Telangana,Vikarabad,Salbathpur,77.6955,17.3959
Telangana,Vikarabad,Kerelli,77.8286,17.3111
Telangana,Vikarabad,Yenkathala,77.9417,17.4945
Telangana,Vikarabad,Pudur1,77.9581,17.2644
Telangana,Vikarabad,Vattiminapally,77.9819,17.437
Telangana,Vikarabad,Siripuram,77.8427,17.5232
Telangana,Vikarabad,Marpally,77.7718,17.537
Telangana,Vikarabad,Parigi1,77.8766,17.181
Telangana,Vikarabad,Parigi2,77.8766,17.181
Telangana,Vikarabad,Pudur2,77.957,17.2661
Telangana,Wanaparthy,Pebbair-Aq-I,77.9975,16.1989
Telangana,Wanaparthy,Peddadaggada-Aq-I,78.1644,16.0503
Telangana,Wanaparthy,Khilla Ghanpur,78.0385,16.5519
Telangana,Warangal,Urugonda,79.6899,18.0683
Telangana,Warangal,Parakal,79.708,18.1872
Telangana,Warangal,Nekkonda,79.783,17.7919
Telangana,Warangal,Ashok Nagar,79.951,17.954
Telangana,Warangal,Akulatanda,79.9135,17.986
Telangana,Warangal,Konayamakula,79.6896,17.9536
Telangana,Warangal,Jhalli,79.8564,17.8433
Telangana,Warangal,Theegarajupalli,79.7077,17.8328
Telangana,Warangal,Dammannapet,79.5218,17.7526
Telangana,Warangal,Gangadevipally,79.7149,17.9599
Telangana,Warangal,Kondur1,79.548,17.6869
Telangana,Yadadri Bhuvanagiri,Pochampalli,78.8197,17.3472
Telangana,Yadadri Bhuvanagiri,Rustapur-Pz,78.8399,17.5842
Telangana,Yadadri Bhuvanagiri,Rajapet-Pz,78.925,17.7275
Telangana,Yadadri Bhuvanagiri,Nagaram,79.0341,17.3579
Telangana,Yadadri Bhuvanagiri,Veerawali,79.0093,17.4861
Telangana,Yadadri Bhuvanagiri,Gouraipally,78.9469,17.6695
Telangana,Yadadri Bhuvanagiri,Koratikal,79.1605,17.4939
Telangana,Yadadri Bhuvanagiri,Turupugudem,79.1181,17.6048
Telangana,Yadadri Bhuvanagiri,Wankamamidi Aq-Ii,78.8826,17.3562
Telangana,Yadadri Bhuvanagiri,Salavari Aq-1(Swamiwari Lingotam),78.953,17.2928
Telangana,Yadadri Bhuvanagiri,Chinna Padshala,79.3548,17.468
Telangana,Yadadri Bhuvanagiri,Janakipuram,79.3609,17.473
Delhi,West,Bapraula,77.0167,28.65
Delhi,South West,Daryapur Khurd,76.9086,28.5342
Delhi,South West,Dichaon Kalan Dw,76.975,28.6342
Delhi,South,Gadaipur,77.1561,28.4769
Delhi,South,Hauz Khas,77.2022,28.5453
Delhi,West,Hirankudna,76.9942,28.6822
Delhi,South,Jamali Kamali Dw,77.1822,28.5061
Delhi,South,Jaunapur,77.15,28.4681
Delhi,South,Jheel Khoh,77.1894,28.4089
Delhi,South West,Najafgarh,77.0006,28.6147
Delhi,North,Narela Djb Wtp,77.1344,28.8367
Delhi,North West,Nizampur,76.9667,28.7194
Delhi,North West,Nizampur Mandir Dw,76.9636,28.72
Delhi,South East,Okhla Djb Wtp,77.2733,28.5642
Delhi,West,Pusa (Nrl),77.1622,28.6392
Delhi,South,Pushp Vihar,77.2267,28.5278
Delhi,North West,Rani Khera,77.025,28.7069
Delhi,South East,"R-Block, Gk-I",77.2417,28.5467
Delhi,New Delhi,Sunder Nursery,77.245,28.5961
Delhi,South West,Surheda,76.9322,28.6039
Delhi,West,Tagore Garden,77.1128,28.6439
Madhya Pradesh,Agar Malwa,Matkotra,75.853,23.739
Madhya Pradesh,Agar Malwa,Guradi Bangla,76.155,24.08
Madhya Pradesh,Agar Malwa,Susner New,76.101,23.944
Madhya Pradesh,Anuppur,Funga,81.823,23.183
Madhya Pradesh,Anuppur,Kotma,81.9786,23.1958
Madhya Pradesh,Balaghat,Mohagaon,80.681,22.052
Madhya Pradesh,Balaghat,Bagholi,80.369,22.142
Madhya Pradesh,Barwani,Niwali2,74.9233,21.6825
Madhya Pradesh,Barwani,Niwali1,74.923,21.683
Madhya Pradesh,Barwani,Donwaha,74.7514,21.6414
Madhya Pradesh,Barwani,Pansemal,74.7122,21.6683
Madhya Pradesh,Barwani,Balsamund,75.175,21.809
Madhya Pradesh,Barwani,Rajpur,75.136,21.936
Madhya Pradesh,Barwani,Sendhwa,75.103,21.694
Madhya Pradesh,Bhind,Pidora,78.705,26.5458
Madhya Pradesh,Bhind,Alampur,78.797,26.029
Madhya Pradesh,Burhanpur,Chapora,76.185,21.2008
Madhya Pradesh,Burhanpur,Pipalpani,76.6792,21.43
Madhya Pradesh,Chhindwara,Bangaon2,79.1319,22.2597
Madhya Pradesh,Chhindwara,Marka Handi,79.164,22.045
Madhya Pradesh,Chhindwara,Thanvari Kunda,79.267,22.176
Madhya Pradesh,Chhindwara,Saonri2,78.7703,21.9647
Madhya Pradesh,Chhindwara,Piplanarayanwar,78.7335,21.5919
Madhya Pradesh,Chhindwara,Mahaljhir,78.574,22.609
Madhya Pradesh,Damoh,Samnapur,79.386,23.313
Madhya Pradesh,Datia,Datia New,78.4614,25.6639
Madhya Pradesh,Dewas,Pipri,76.278,22.399
Madhya Pradesh,Dewas,Satwas New,76.682,22.534
Madhya Pradesh,Dewas,Bhonrasa,76.207,22.988
Madhya Pradesh,Dhar,Lunera,75.3363,22.5865
Madhya Pradesh,Dhar,Sadalpur,75.4225,22.7247
Madhya Pradesh,Dhar,Awaldaman New,75.0742,22.3233
Madhya Pradesh,Dhar,Pipalya,74.875,22.134
Madhya Pradesh,Guna,Badaud New,77,24.409
Madhya Pradesh,Gwalior,Dongarpur,77.964,25.822
Madhya Pradesh,Gwalior,Charai Shyampur,77.831,25.975
Madhya Pradesh,Gwalior,Suro,78.0417,26.2499
Madhya Pradesh,Gwalior,Jahangirpur,78.2906,26.2756
Madhya Pradesh,Gwalior,Padampur Kheria,78.2687,26.2665
Madhya Pradesh,Harda,Hardadw,77.088,22.346
Madhya Pradesh,Indore,Rangwasa,75.57,22.744
Madhya Pradesh,Jabalpur,Gokalpur,79.985,23.19
Madhya Pradesh,Jabalpur,Kanch Ghar,79.96,23.176
Madhya Pradesh,Jabalpur,Bishanpura,80.249,23.229
Madhya Pradesh,Jhabua,Sarangi,74.908,23.052
Madhya Pradesh,Katni,Piparia2,80.6986,23.8619
Madhya Pradesh,Katni,Siloni,80.378,23.346
Madhya Pradesh,Katni,Umariapan,80.2917,23.5217
Madhya Pradesh,Katni,Ganiyari,80.3986,23.8306
Madhya Pradesh,Katni,Bilhari New,80.2514,23.9028
Madhya Pradesh,Khandwa,Kusumbiya,76.198,21.689
Madhya Pradesh,Khandwa,Roshiya New,76.1664,21.9578
Madhya Pradesh,Khandwa,Khalwa1,76.746,21.805
Madhya Pradesh,Khandwa,Bairukheda,76.3053,21.7506
Madhya Pradesh,Khandwa,Borgaon Buzurg,76.325,21.609
Madhya Pradesh,Khandwa,Ghosali,76.131,22.158
Madhya Pradesh,Khandwa,Karoli,76.206,22.142
Madhya Pradesh,Khandwa,Thapana,76.087,22.222
Madhya Pradesh,Khandwa,Udaipur,76.403,22.226
Madhya Pradesh,Khargone,Amba,75.946,22.043
Madhya Pradesh,Khargone,Sanawad New,76.071,22.173
Madhya Pradesh,Khargone,Bhulwani,75.481,21.548
Madhya Pradesh,Khargone,Dhulkot,75.553,21.61
Madhya Pradesh,Khargone,Bamnala New,75.853,21.825
Madhya Pradesh,Khargone,Bhikangaon1,75.956,21.862
Madhya Pradesh,Khargone,Bhikangaon2,75.9558,21.8619
Madhya Pradesh,Khargone,Daudwa,76.137,22.021
Madhya Pradesh,Khargone,Gogaon,75.7444,21.9181
Madhya Pradesh,Khargone,Divalgaon,75.743,21.829
Madhya Pradesh,Khargone,Ziranniya,75.9876,21.6506
Madhya Pradesh,Khargone,Kasrawad1,75.608,22.124
Madhya Pradesh,Khargone,Khargone,75.6194,21.8278
Madhya Pradesh,Khargone,Un,75.451,21.821
Madhya Pradesh,Khargone,Baddiya,75.948,22.234
Madhya Pradesh,Khargone,Dhargaon,75.597,22.209
Madhya Pradesh,Khargone,Maheshwar,75.588,22.178
Madhya Pradesh,Khargone,Piplyabuzrug,75.861,22.234
Madhya Pradesh,Mandla,Sijhora,80.777,22.426
Madhya Pradesh,Mandsaur,Babulda,75.688,24.474
Madhya Pradesh,Mandsaur,Badodiya,75.6892,24.5992
Madhya Pradesh,Mandsaur,Dudhkheri,75.6847,24.4314
Madhya Pradesh,Mandsaur,Sandhara,75.868,24.561
Madhya Pradesh,Mandsaur,Barkheranayak,75.522,24.219
Madhya Pradesh,Mandsaur,Garoth New,75.6606,24.3381
Madhya Pradesh,Mandsaur,Narayangarh,75.054,24.267
Madhya Pradesh,Mandsaur,Pipaliya,75.008,24.196
Madhya Pradesh,Mandsaur,Atitkhedi,75.0822,24.0239
Madhya Pradesh,Mandsaur,Daloda2,75.0989,23.925
Madhya Pradesh,Mandsaur,Kachnera,75.103,23.864
Madhya Pradesh,Mandsaur,Mandsaur,75.053,24.053
Madhya Pradesh,Mandsaur,Nayakhera,75.083,24.014
Madhya Pradesh,Mandsaur,Sitamau,75.349,24.013
Madhya Pradesh,Mandsaur,Surjani,75.445,24.025
Madhya Pradesh,Mandsaur,Basakheda,74.9455,24.032
Madhya Pradesh,Morena,Ranipura,77.335,26.206
Madhya Pradesh,Morena,Tonga Gaon,77.4381,26.2553
Madhya Pradesh,Narsinghpur,Koudiya,78.816,22.946
Madhya Pradesh,Narsinghpur,Gotegaon,79.4806,23.0394
Madhya Pradesh,Neemuch,Kukreshwar,75.268,24.48
Madhya Pradesh,Panna,Madla,80.011,24.729
Madhya Pradesh,Rajgarh,Pachornew,76.738,23.718
Madhya Pradesh,Ratlam,Tal,75.383,23.722
Madhya Pradesh,Ratlam,Ramnagar,75.255,23.537
Madhya Pradesh,Ratlam,Rankoda,74.964,23.613
Madhya Pradesh,Ratlam,Dharad,75.108,23.25
Madhya Pradesh,Ratlam,Meswasa New,75.0672,23.4953
Madhya Pradesh,Rewa,Pahadi,81.8861,24.75
Madhya Pradesh,Sagar,Bamori Bika New,78.4328,24.2456
Madhya Pradesh,Sagar,Hurra,78.405,23.728
Madhya Pradesh,Sagar,Rehli,79.065,23.641
Madhya Pradesh,Sagar,Dalpatpur,79.017,24.134
Madhya Pradesh,Sagar,Hirapur,79.211,24.366
Madhya Pradesh,Satna,Chorhata,80.917,24.388
Madhya Pradesh,Shahdol,Bahgad,81.667,23.355
Madhya Pradesh,Shahdol,Bhikhampur New,81.6721,23.4417
Madhya Pradesh,Shahdol,Khamhidol,81.732,23.369
Madhya Pradesh,Shahdol,Jaisinghnagar New,81.3909,23.6895
Madhya Pradesh,Shahdol,Singhpur New,81.4177,23.2085
Madhya Pradesh,Shajapur,Tilawad Govind,76.333,23.31
Madhya Pradesh,Shajapur,Morta Kewari,76.554,23.257
Madhya Pradesh,Sheopur,Kalmi,76.8786,25.5811
Madhya Pradesh,Sheopur,Karahal,77.0569,25.4931
Madhya Pradesh,Sheopur,Kunorh,77.1992,25.5286
Madhya Pradesh,Sheopur,Bhagwara,76.6147,25.6733
Madhya Pradesh,Sheopur,Doti,76.5986,25.6706
Madhya Pradesh,Sheopur,Filojpura,76.665,25.585
Madhya Pradesh,Sheopur,Rajpura,76.6808,25.71
Madhya Pradesh,Sheopur,Ghaswani,77.5061,25.8917
Madhya Pradesh,Sheopur,Harkui,77.1792,26.1589
Madhya Pradesh,Sheopur,Pura,76.9914,25.9533
Madhya Pradesh,Sheopur,Shyampur,77.0342,26.0811
Madhya Pradesh,Sheopur,Vijaypurcolony,77.3644,26.0567
Madhya Pradesh,Shivpuri,Awas,78.351,25.473
Madhya Pradesh,Shivpuri,Karera,78.136,25.454
Madhya Pradesh,Shivpuri,Languri,78.123,25.484
Madhya Pradesh,Shivpuri,Sarsod,78.051,25.423
Madhya Pradesh,Shivpuri,Sikandara,78.365,25.472
Madhya Pradesh,Shivpuri,Sirsod Chouraha,78.051,25.422
Madhya Pradesh,Shivpuri,Toda Karea,78.185,25.453
Madhya Pradesh,Shivpuri,Achhroni New,78.231,24.992
Madhya Pradesh,Shivpuri,Bamorkalan New,78.151,24.886
Madhya Pradesh,Shivpuri,Masoori,77.93,25.1
Madhya Pradesh,Shivpuri,Pichhore,78.1903,25.1756
Madhya Pradesh,Shivpuri,Sitapur,78.207,25.133
Madhya Pradesh,Shivpuri,Manipura New,77.606,25.213
Madhya Pradesh,Shivpuri,Behgwan,78.103,25.629
Madhya Pradesh,Shivpuri,Mangroni,77.933,25.696
Madhya Pradesh,Shivpuri,Narwar,77.833,25.651
Madhya Pradesh,Shivpuri,Sehore,78.106,25.665
Madhya Pradesh,Shivpuri,Bhonti,78.1,25.32
Madhya Pradesh,Shivpuri,Dhola,78.13,25.283
Madhya Pradesh,Shivpuri,Semri,78.112,25.182
Madhya Pradesh,Shivpuri,Ainpura,77.41,25.647
Madhya Pradesh,Shivpuri,Gobardhan,77.534,25.79
Madhya Pradesh,Shivpuri,Bhagora,77.76,25.418
Madhya Pradesh,Shivpuri,Patera,77.736,25.61
Madhya Pradesh,Shivpuri,Satanwara,77.731,25.544
Madhya Pradesh,Shivpuri,Sirsod,77.51,25.486
Madhya Pradesh,Sidhi,Kodar,81.9694,23.9772
Madhya Pradesh,Tikamgarh,Nengawan,78.6733,25.2547
Madhya Pradesh,Tikamgarh,Prithipur,78.7539,25.2061
Madhya Pradesh,Tikamgarh,Rehli,79.065,24.641
Madhya Pradesh,Ujjain,Chhoti Ghadsod New,75.4556,23.1103
Madhya Pradesh,Ujjain,Kharotia New,75.6286,23.1617
Madhya Pradesh,Ujjain,Chakrawada Grid,75.7111,23.2564
Madhya Pradesh,Ujjain,Ghosla,75.8761,23.4392
Madhya Pradesh,Ujjain,Naikhedi,75.675,23.204
Madhya Pradesh,Ujjain,Nazarpur,75.8492,23.3447
Madhya Pradesh,Ujjain,Ruie New,75.66,23.2831
Madhya Pradesh,Ujjain,Unhel,75.5494,23.3356
Madhya Pradesh,Ujjain,Baijnath,75.7589,23.6028
Madhya Pradesh,Ujjain,Delchi Buzurg,75.5708,23.5325
Madhya Pradesh,Ujjain,Mahidpurroad,75.5083,23.5667
Madhya Pradesh,Ujjain,Dablahardu,75.895,23.4928
Madhya Pradesh,Ujjain,Kaiytha,76.0183,23.2331
Madhya Pradesh,Ujjain,Khakri Sultan,76.0133,23.3986
Madhya Pradesh,Ujjain,Rupakhedi,75.9714,23.4731
Madhya Pradesh,Ujjain,Tarana,76.0403,23.3406
Madhya Pradesh,Ujjain,Dabla Rehwari,75.8156,23.2544
Madhya Pradesh,Ujjain,Patpala,75.8667,23.1972
Madhya Pradesh,Ujjain,Ujjain Nagar Palika,75.7822,23.1858
Madhya Pradesh,Umaria,Choti Pali,80.7536,23.5958
Madhya Pradesh,Umaria,Dhamokhar New,80.9228,23.6314
Madhya Pradesh,Umaria,Ghunghuti New,81.1924,23.3492
Madhya Pradesh,Shahdol,Deori,23.7472,81.2889
