State,District,Location,Longitude,Latitude
Andaman & Nicobar Islands,South Andaman,Ferrarganj,92.6531,11.7175
Bihar,Samastipur,Raipur,85.7965,25.7599
Bihar,Siwan,Tarwara Block,84.4863,26.1832
Bihar,Vaishali,Chak Sikandar,85.3316,25.684
Bihar,Vaishali,Kachanpur,85.2656,25.6668
Chhattisgarh,Korba,Kothari Naka,82.6805,22.1263
Chhattisgarh,Korba,Salora,82.5967,22.4948
Chhattisgarh,Koriya,Manendragarh,82.2058,23.2167
Chhattisgarh,Raigarh,Lipti,83.3797,22.6508
Chhattisgarh,Raigarh,Lipti,83.3797,22.6508
Daman And Diu,Diu,Vanakbara,70.8753,20.7099
Daman And Diu,Diu,Wadiwadi,70.8832,20.7125
Gujarat,Ahmedabad,Dhandhuka1,71.9877,22.3761
Gujarat,Ahmedabad,Dalod,71.9675,23.3532
Gujarat,Ahmedabad,Viramgam2,72.0384,23.1367
Gujarat,Amreli,Lathi,71.383,21.727
Gujarat,Amreli,Bhuva,71.3596,21.4277
Gujarat,Amreli,Vanda,71.5075,21.3897
Gujarat,Banaskantha,Hadad,72.98,24.2628
Gujarat,Banaskantha,Meda,72.2853,24.3979
Gujarat,Bharuch,Jambusar2,72.8086,22.0494
Gujarat,Bhavnagar,Mahuva1,71.77,21.1
Gujarat,Bhavnagar,Ayodhyapuram(Narayan Dham),71.8845,21.9522
Gujarat,Bhavnagar,Vallbhipur,71.8784,21.9004
Gujarat,Botad,Barvala,71.8942,22.1624
Gujarat,Chhota Udepur,Govindpura,73.74,22.2155
Gujarat,Chhota Udepur,Bhindol,73.8971,22.2011
Gujarat,Dang,Nadak Khadi,73.6131,20.8031
Gujarat,Devbhumi Dwarka,Aramda,69.035,22.4275
Gujarat,Gir Somnath,Una2,71.0416,20.8224
Gujarat,Kachchh,Kakarwa,70.4066,23.4799
Gujarat,Kachchh,Kotay,69.7847,23.3847
Gujarat,Kachchh,Karagoga,69.6619,22.9381
Gujarat,Mahesana,Kheralu-1,72.6075,23.8872
Gujarat,Navsari,Ubhrat,72.7423,21.0141
Gujarat,Navsari,Parujan,72.8363,20.0231
Gujarat,Panchmahal,Khadki Vadiya,73.5003,22.6622
Gujarat,Patan,Piprala,71.0967,23.6462
Gujarat,Porbandar,Kadegi,69.9801,21.4519
Gujarat,Porbandar,Porbandar1,69.6167,21.641
Gujarat,Rajkot,Kamlapur,71.1999,22.1382
Gujarat,Surat,Mota,73.0697,21.1706
Gujarat,Surat,Olpad2,72.7537,21.3371
Gujarat,Surat,Sultanabad,72.7193,21.0842
Gujarat,Surendranagar,Gavana,71.8632,23.3409
Gujarat,Surendranagar,Malvan,71.7504,23.0614
Gujarat,Surendranagar,Vaghela,71.6572,22.6577
Gujarat,Valsad,Malgalwad Fansa,72.7865,20.3448
Jharkhand,E. Singhbhum,Sundarnagar1,86.1725,22.8278
Jharkhand,E. Singhbhum,Kalikapur,86.285,22.6158
Maharashtra,Bhandara,Khair Langi,79.7844,21.4092
Maharashtra,Gondia,Dhabetekdi,79.9647,20.79
Maharashtra,Nagpur,Tarsha,79.3811,21.2258
Odisha,Anugul,Banarpal 2,85.2142,20.8406
Odisha,Anugul,Luhamunda,84.9978,21.09
Odisha,Bargarh,Jamurda,83.6625,21.3722
Odisha,Cuttack,Sankhmiri,85.3361,20.375
Odisha,Mayurbhanj,Moranda,86.0347,22.3625
Odisha,Nayagarh,Madhyakhand 2,84.9267,20.3414
Odisha,Nuapada,Sahipala,82.6778,20.8281
Odisha,Nuapada,Sarabong,82.4689,20.8111
Odisha,Sambalpur,"Gosala, Dw",83.8994,21.4258
Rajasthan,Alwar,Lachmangarh,76.86,27.35
Rajasthan,Alwar,Mandawar,76.5455,27.8696
Rajasthan,Barmer,Sawau Padam Singh,71.8067,26.1503
Rajasthan,Barmer,Doongar Jee Ki Dhani,71.403,25.5034
Rajasthan,Barmer,Gudamalani,71.6988,25.214
Rajasthan,Barmer,Doli,72.667,26.067
Rajasthan,Barmer,Thoombli,72.489,26.204
Rajasthan,Barmer,Ramsar,70.8719,25.7303
Rajasthan,Barmer,Dhanwa,72.1199,25.5475
Rajasthan,Barmer,Khara Mahecha,72.0265,25.5103
Rajasthan,Barmer,Samdari(Hs-4),72.5757,25.8489
Rajasthan,Bharatpur,Kheria Mod,77.383,26.95
Rajasthan,Bharatpur,Nadbai,77.213,27.208
Rajasthan,Bharatpur,Nagar,77.1,27.417
Rajasthan,Bharatpur,Gopalgarh,77.05,27.65
Rajasthan,Bharatpur,Pahari,77.083,27.7
Rajasthan,Bhilwara,Asind,74.3347,25.7328
Rajasthan,Bikaner,Jalwali,73.2,28.2398
Rajasthan,Bikaner,Chhatargarh,73.133,28.667
Rajasthan,Bikaner,Sattasar,73.192,28.592
Rajasthan,Bikaner,Ranjitpura,72.125,28.026
Rajasthan,Bikaner,Arjansar,73.883,28.933
Rajasthan,Bikaner,Hariasar,73.811,28.576
Rajasthan,Bikaner,Kasturia,73.488,28.329
Rajasthan,Bikaner,Loderan,73.9108,28.2811
Rajasthan,Bikaner,Manaria,73.772,28.758
Rajasthan,Churu,Jawanipur,75.04,28.52
Rajasthan,Churu,Shyampura,74.89,28.27
Rajasthan,Churu,Jaswantpura,75.45,28.44
Rajasthan,Churu,Lambor Chhoti,75.41,28.59
Rajasthan,Churu,Ludi Jhandar,75.43,28.66
Rajasthan,Churu,Neema,75.4722,28.4667
Rajasthan,Churu,Rajgarh1,75.375,28.633
Rajasthan,Churu,Rebari Bas,75.48,28.49
Rajasthan,Churu,Sardarshahar,74.486,28.439
Rajasthan,Churu,Sujangarh,74.4808,27.7069
Rajasthan,Dausa,Dausa1,76.326,26.898
Rajasthan,Dausa,Jasuta Hs 2,76.3267,26.9667
Rajasthan,Dausa,Jasuta Hs 3,76.3256,26.9617
Rajasthan,Ganganagar,Ganganagar,73.8517,29.9087
Rajasthan,Ganganagar,Rupnagar,73.4411,29.7958
Rajasthan,Ganganagar,Ganeshgarh,73.9,29.746
Rajasthan,Ganganagar,Birdhwal1,73.919,29.117
Rajasthan,Ganganagar,Piperan,73.9,29.248
Rajasthan,Hanumangarh,Bhadra,75.1622,29.1176
Rajasthan,Hanumangarh,Dungrana,75.097,29.014
Rajasthan,Hanumangarh,Hanumangarh,74.317,29.583
Rajasthan,Hanumangarh,Dudhal,74.133,28.908
Rajasthan,Hanumangarh,Sangariya,74.4636,29.8123
Rajasthan,Jaipur,Mozmabad,75.363,26.683
Rajasthan,Jaipur,Jaisingpur Khor,75.8806,26.9448
Rajasthan,Jaipur,Chakwara,75.513,26.606
Rajasthan,Jaipur,Chittora,75.702,26.638
Rajasthan,Jaipur,Majhi Renwal,75.683,26.696
Rajasthan,Jaisalmer,Janpatpura,71.6896,26.6985
Rajasthan,Jaisalmer,Rajgarh1,71.545,26.538
Rajasthan,Jalore,Bhagal Bhim (H/S),72.2227,25.0188
Rajasthan,Jalore,Bhinmal,72.2625,25.0125
Rajasthan,Jalore,Maitriwara,72.1094,24.7094
Rajasthan,Jalore,Sanchore (H/S),71.7805,24.7524
Rajasthan,Jhunjhunu,Alsisar,75.2931,28.3037
Rajasthan,Jhunjhunu,Birmi,75.196,28.196
Rajasthan,Jhunjhunu,Mandrela,75.44,28.313
Rajasthan,Jhunjhunu,Jhunjhunu,75.3852,28.1135
Rajasthan,Jodhpur,Kui Jodha,72.471,26.443
Rajasthan,Jodhpur,Gangani,73.212,26.51
Rajasthan,Jodhpur,Gangani(Hs-1),73.2059,26.4929
Rajasthan,Jodhpur,Gangani(Hs-2),73.2003,26.4868
Rajasthan,Jodhpur,Devatra,73.378,26.51
Rajasthan,Jodhpur,Ramdawas,73.3658,26.3658
Rajasthan,Jodhpur,Ramrawas(Hs-3),73.3712,26.4368
Rajasthan,Jodhpur,Nandiya,73.3498,26.5143
Rajasthan,Jodhpur,Bhavi,73.6067,26.2317
Rajasthan,Jodhpur,Bhavi (Hs-3)Olvi,73.4547,26.2226
Rajasthan,Jodhpur,Bhavi(Hs-1)Lamba,73.5777,26.2139
Rajasthan,Jodhpur,Bhavi(Hs-2),73.6078,26.2181
Rajasthan,Jodhpur,Bhawi,73.607,26.232
Rajasthan,Jodhpur,Bilara Block Hq,73.7106,26.1969
Rajasthan,Jodhpur,Olvi,73.458,26.233
Rajasthan,Jodhpur,Jasnath Nagar,72.7679,26.3261
Rajasthan,Jodhpur,Lordi,72.8343,26.3106
Rajasthan,Jodhpur,Bhandu(Hs),72.894,26.0971
Rajasthan,Jodhpur,Bhandu(Hs-1),72.8959,26.1172
Rajasthan,Jodhpur,Bhandu(Hs-2),72.9107,26.0885
Rajasthan,Jodhpur,Chicharli,72.7128,26.2042
Rajasthan,Jodhpur,Deela,73.0651,26.104
Rajasthan,Jodhpur,Dhawa,72.742,26.058
Rajasthan,Jodhpur,Gelawas,72.7789,26.0671
Rajasthan,Jodhpur,Guda Rayka,73.0937,26.1323
Rajasthan,Jodhpur,Jatyasani,72.844,26.106
Rajasthan,Jodhpur,Kuri,73.0634,26.2088
Rajasthan,Jodhpur,Manj Form House,73.0481,26.1603
Rajasthan,Jodhpur,Pariharon Ki Dhani,72.7492,26.1375
Rajasthan,Jodhpur,Raron Ki Dhani,72.775,26.194
Rajasthan,Jodhpur,Salawas,73.0136,26.1427
Rajasthan,Jodhpur,Haripura,72.8672,26.7613
Rajasthan,Jodhpur,Ramrawas,73.38,26.369
Rajasthan,Karauli,Bhauapura Hs1,77.1822,26
Rajasthan,Karauli,Sahar1,76.711,26.608
Rajasthan,Nagaur,Chosli(Khinwtana)Hs-3,74.1907,26.9916
Rajasthan,Nagaur,Singhana,74.5125,27.4753
Rajasthan,Nagaur,Kheevsar Block Hq,73.414,26.9647
Rajasthan,Nagaur,Kuchaman Block Hq,74.8591,27.1483
Rajasthan,Nagaur,Sanward,74.517,27.517
Rajasthan,Nagaur,Makrana,74.7574,27.0256
Rajasthan,Nagaur,Nagaur,73.75,27.1833
Rajasthan,Nagaur,Nagaur Hs-3,73.78,27.2268
Rajasthan,Nagaur,Nagaur Hs-4,73.7037,27.1976
Rajasthan,Nagaur,Nagaur1 (Gwd),73.75,27.183
Rajasthan,Pali,Bali,73.2832,25.1911
Rajasthan,Pali,Ghanerao,73.525,25.233
Rajasthan,Pali,Bassi,74.0631,26.3294
Rajasthan,Pali,Prithipura,73.817,26.2
Rajasthan,Pali,Prithvipura,73.8167,26.2
Rajasthan,Pali,Marwar Junction Block Hq,73.601,25.723
Rajasthan,Pali,"Shiv Vatika Colony, Vaed",72.9634,25.7432
Rajasthan,Pali,Kariasoda,73.638,25.833
Rajasthan,Pali,Sojat Block Hq,73.6698,25.9283
Rajasthan,Pali,Sumerpur,73.0907,25.1437
Rajasthan,Rajsamand,Gugli,73.88,25.23
Rajasthan,Rajsamand,Bhim,74.0792,25.7433
Rajasthan,Sawai Madhopur,Tond (1Km Towards Lalsot),76.38,26.37
Rajasthan,Sawai Madhopur,Tond (1Km Towards Sawai Madhopur),76.38,26.37
Rajasthan,Sawai Madhopur,Tond (Infront Of Canara Bank),76.38,26.37
Rajasthan,Sikar,Fatehpur,74.9622,27.9814
Rajasthan,Tonk,Deoli,75.85,26.2417
Rajasthan,Tonk,Ghans,75.8839,25.9325
Rajasthan,Tonk,Mehndwas,75.725,26.111
Rajasthan,Tonk,Tonk (Near Romji Garments),76.2542,26.3542
Rajasthan,Tonk,Tonk (Raivens Industry),75.79,26.16
Rajasthan,Tonk,Uniyara,76.0267,25.9156
Tamil Nadu,Cuddalore,C.Keeranur Ew,79.5524,11.7625
Tamil Nadu,Cuddalore,Iruppu Ii,79.6325,11.5036
Tamil Nadu,Cuddalore,Vadalur(O.W),79.5542,11.5687
Tamil Nadu,Cuddalore,Sengalpalayam-I,79.5422,11.4324
Tamil Nadu,Dindigul,Ayyalur,78.1002,10.2858
Tamil Nadu,Dindigul,R.Vellodu,78.0116,10.4502
Tamil Nadu,Erode,Nambiyur,77.3208,11.3606
Tamil Nadu,Krishnagiri,Vanambli,78.555,12.3475
Tamil Nadu,Perambalur,Chettikulam,78.775,11.1347
Tamil Nadu,Perambalur,Essanai,79.0222,11.069
Tamil Nadu,Perambalur,Padalur,78.8252,11.096
Tamil Nadu,Perambalur,Kallampudur,78.8025,11.235
Tamil Nadu,Perambalur,Perambalur,78.9364,11.1586
Tamil Nadu,Perambalur,Vijayagopalapuram,79.0314,11.27
Tamil Nadu,Pudukkottai,Avudayarkoil,79.0424,10.0749
Tamil Nadu,Salem,Gudamali Dw,78.5875,11.4603
Tamil Nadu,Tuticorin,Kurukkuchalai,78.0917,8.9306
Tamil Nadu,Tuticorin,Satankulam,77.9028,8.4333
Tamil Nadu,Virudhunagar,Nenmeni1,78.0083,9.325
Tamil Nadu,Virudhunagar,Kalloorani,78.165,9.4639
Tamil Nadu,Virudhunagar,Vembakkottai-Ow,77.7667,9.3333
Uttar Pradesh,Agra,Block Office,78.7049,26.8282
Uttar Pradesh,Aligarh,"Bada Chowk, Sarai Rehman",78.07,27.8938
Uttar Pradesh,Aligarh,Beema Nagar,78.0466,27.9059
Uttar Pradesh,Aligarh,Dohra Maffi,78.0898,27.9283
Uttar Pradesh,Aligarh,Kela Nagar Market,78.0904,27.9039
Uttar Pradesh,Aligarh,Block H.Q,78.3997,27.9789
Uttar Pradesh,Aligarh,Shahwazpur,78.1504,27.7782
Uttar Pradesh,Aligarh,Block H.Q,77.8796,27.8367
Uttar Pradesh,Aligarh,Makhdampur,78.0096,27.7723
Uttar Pradesh,Aligarh,Block H.Q,77.8364,27.9435
Uttar Pradesh,Aligarh,Rudyat Urf Tarapur,77.8917,27.8419
Uttar Pradesh,Allahabad/ Prayagraj,"Bdo, Office",82.081,25.546
Uttar Pradesh,Allahabad/ Prayagraj,"Bdo, Office",82.1602,25.5215
Uttar Pradesh,Amethi,Pwd Dak Bangla,81.8086,26.1562
Uttar Pradesh,Amethi,Block Hq,81.8005,26.3778
Uttar Pradesh,Amroha,Block Office,78.4732,28.8356
Uttar Pradesh,Auraiya,Akbarpur,79.3263,26.5078
Uttar Pradesh,Auraiya,Bholapur,79.6892,26.7367
Uttar Pradesh,Auraiya,Hand Pump Of Block Office,79.6002,26.7585
Uttar Pradesh,Auraiya,Yakubpur,79.7149,26.7641
Uttar Pradesh,Azamgarh,Block Office,83.0859,25.7832
Uttar Pradesh,Azamgarh,Block Office,82.9377,25.8784
Uttar Pradesh,Bareilly,Block Hq,79.5394,28.2007
Uttar Pradesh,Bijnor,Bhiriya Khera,78.2633,29.06
Uttar Pradesh,Bijnor,Chakrani/ Gidarpura,78.0494,29.8022
Uttar Pradesh,Budaun,Block Hq,79.0581,28.2045
Uttar Pradesh,Bulandshahar,Block H.Q,78.206,28.1923
Uttar Pradesh,Bulandshahar,Block H.Q,78.0885,28.4139
Uttar Pradesh,Bulandshahar,Block H.Q,78.0042,28.2791
Uttar Pradesh,Deoria,"Hardware, Opposite Fertilizer Shop)",83.7608,26.3711
Uttar Pradesh,Etawah,Hand Pump Of Block Office,79.2133,26.7362
Uttar Pradesh,Fatehpur,Bindki,80.5806,26.0298
Uttar Pradesh,Fatehpur,Block Office,80.7058,26.0358
Uttar Pradesh,Fatehpur,Block Office,80.7959,25.9522
Uttar Pradesh,G.B. Nagar,Block H.Q,77.5535,28.5545
Uttar Pradesh,G.B. Nagar,Dadri,77.5535,28.5544
Uttar Pradesh,G.B. Nagar,Block H.Q,77.5559,28.3533
Uttar Pradesh,G.B. Nagar,Block H.Q,77.5672,28.125
Uttar Pradesh,Ghaziabad,In Block Office,77.6208,29.2978
Uttar Pradesh,Ghaziabad,Dhaulana,77.6473,28.6214
Uttar Pradesh,Ghaziabad,Madhuvan Village,77.4804,28.7026
Uttar Pradesh,Ghaziabad,Mother Care Public School,77.4226,28.6927
Uttar Pradesh,Ghaziabad,Unknown,77.4973,28.681
Uttar Pradesh,Ghaziabad,In Block Office,77.5033,28.77
Uttar Pradesh,Ghaziabad,"Sumitra Sadan House, Gobind Kumar",77.4908,28.7498
Uttar Pradesh,Ghazipur,Block Office,83.3365,25.5462
Uttar Pradesh,Ghazipur,Biraich,83.5585,25.6117
Uttar Pradesh,Ghazipur,Block Office,83.3724,25.7421
Uttar Pradesh,Ghazipur,Block Office,83.3006,25.6973
Uttar Pradesh,Hapur,In Block Office,77.6439,28.6331
Uttar Pradesh,Hardoi,In Compound Of Bdo Office,80.1547,27.0258
Uttar Pradesh,Hardoi,In Compound Of Bdo Office,79.964,27.2925
Uttar Pradesh,Hathras,Dist. H.Q,78.0551,27.573
Uttar Pradesh,Hathras,Mohari,78.1531,27.6494
Uttar Pradesh,Hathras,Singhal,78.1599,27.5217
Uttar Pradesh,Hathras,Block H.Q,78.1374,27.4369
Uttar Pradesh,Hathras,Block H.Q,78.0741,27.6911
Uttar Pradesh,Jaunpur,Dharampur,82.7475,25.7525
Uttar Pradesh,Jaunpur,Block Office,82.6142,25.64
Uttar Pradesh,Jaunpur,Rampur,82.5708,25.4903
Uttar Pradesh,Jaunpur,Block Office,82.7278,25.6717
Uttar Pradesh,Jhansi,Bamanua,78.9769,25.5283
Uttar Pradesh,Jhansi,Ghanghri,78.9722,25.4403
Uttar Pradesh,Jhansi,Panarri,79.0233,25.7689
Uttar Pradesh,Kannauj,Baikpurwa,79.6108,26.898
Uttar Pradesh,Kannauj,Block Office,79.358,26.9177
Uttar Pradesh,Kannauj,Saurikh,79.4809,27.0279
Uttar Pradesh,Kannauj,Block Office,79.7891,26.9998
Uttar Pradesh,Kanpur Dehat,Hand Pump Infront Of Shri Ramleela,79.9563,26.382
Uttar Pradesh,Kanpur Dehat,Gaupur,79.7967,26.5996
Uttar Pradesh,Kanpur Dehat,Matikapur,80.1563,26.5159
Uttar Pradesh,Kanpur Dehat,Pitampur,79.6015,26.3906
Uttar Pradesh,Kanpur Dehat,----Do----,79.7839,26.668
Uttar Pradesh,Kanpur Nagar,Hand Pump In The Premises Of,80.3508,26.4922
Uttar Pradesh,Kasganj,Nagla Ulfat Chauraha,78.6137,27.9274
Uttar Pradesh,Lalitpur,Kathwar,78.6617,24.8833
Uttar Pradesh,Mahoba,Gugaura,79.9575,25.3525
Uttar Pradesh,Mahoba,Pawa,79.76,25.2653
Uttar Pradesh,Mainpuri,Block Office,79.1071,27.1697
Uttar Pradesh,Mainpuri,Block Office,79.2656,27.0316
Uttar Pradesh,Mainpuri,"Near Katra Saman Chauraha, Shiv",79.1982,27.0305
Uttar Pradesh,Mainpuri,Nagariya,79.0239,27.1467
Uttar Pradesh,Mathura,Block H.Q,77.5008,27.7262
Uttar Pradesh,Mathura,Block H.Q,77.6495,27.8458
Uttar Pradesh,Mathura,Thok Bindavani,77.9041,27.5697
Uttar Pradesh,Meerut,Mangalpuri,77.674,29.0222
Uttar Pradesh,Meerut,Sofipur,77.7138,29.0284
Uttar Pradesh,Meerut,In Block Office,77.5425,29.0372
Uttar Pradesh,Meerut,In Block Office,77.8553,29.0958
Uttar Pradesh,Mirzapur,Baskop,82.1389,24.8226
Uttar Pradesh,Pratapgarh,Jilla Panchayat Office,81.5822,25.7992
Uttar Pradesh,Pratapgarh,Tonipur,81.8925,25.8892
Uttar Pradesh,Raebareli,Block Office,81.5184,26.1597
Uttar Pradesh,Raebareli,"Pakra Girifta, Pure Baisanpurwa",81.1582,26.1485
Uttar Pradesh,Raebareli,Block Office,80.9758,26.1705
Uttar Pradesh,Raebareli,Block Office,81.2744,26.3847
Uttar Pradesh,Raebareli,Block Office,80.8282,26.1546
Uttar Pradesh,Rampur,Faiznagar,79.2814,28.8215
Uttar Pradesh,Rampur,Bamna,79.2814,28.9492
Uttar Pradesh,Saharanpur,In Block Office,77.2603,29.7842
Uttar Pradesh,Saharanpur,Near Nausad Chicken Shope,77.3662,29.6673
Uttar Pradesh,Saharanpur,Near Eidgah,77.5091,30.0495
Uttar Pradesh,Sant Ravidas Nagar,Bhadohi,82.5642,25.3953
Uttar Pradesh,Shahjahanpur,Mouddinpur,80.1082,28.3065
Uttar Pradesh,Shamli,Islampur Ghasauli,77.2437,29.2973
Uttar Pradesh,Shamli,Unknown,77.2665,29.323
Uttar Pradesh,Sonbhadra,Adhoura,83.0348,23.9111
Uttar Pradesh,Sonbhadra,Mohua Dohar,82.9168,23.9096
Uttar Pradesh,Sultanpur,Block Offc.,82.4665,26.27
Uttar Pradesh,Unnao,Block Office,80.6759,26.6211
Uttar Pradesh,Varanasi,Sewapuri,82.7481,25.3661
Uttarakhand,Haridwar,Bandarjud,77.9386,30.0531
West Bengal,Bankura,Panktor,87.136,23.4861
West Bengal,Dakshin Dinajpur,Kismat Kasba,88.3145,25.312
West Bengal,Dakshin Dinajpur,Dikul,88.4992,25.5016
West Bengal,Darjeeling,Prasadiyote,88.1817,26.6561
West Bengal,Howrah,Burikhali,88.297,22.589
West Bengal,Jalpaiguri,Chalsa,88.8035,26.8806
West Bengal,Murshidabad,Gobindapur,88.0539,23.9212
West Bengal,North 24 Parganas,Rafipur,88.5132,22.8185
West Bengal,North 24 Parganas,Dharampukur,88.8151,23.085
West Bengal,North 24 Parganas,Sandaler Bill,88.9684,22.4183
West Bengal,Paschim Bardhaman,Barakar,86.8148,23.7421
West Bengal,South 24 Parganas,Amtala,88.2717,22.3653
West Bengal,South 24 Parganas,Paranikkheko,88.6368,22.2797
West Bengal,South 24 Parganas,Falta,88.1058,22.3021
West Bengal,South 24 Parganas,Arampur Gosaba,88.7988,22.1653
West Bengal,South 24 Parganas,Jotirampur Ferryghat,88.7991,22.1657
West Bengal,South 24 Parganas,Bakkhali,88.2668,21.5609
Karnataka,Bagalkot,Badagandi,75.6458,16.3467
Karnataka,Belgaum,Rupnal,74.645,16.507
Karnataka,Vijayanagara,Uthangi,76.205,14.987
Karnataka,Bellary,Thorangal,76.675,15.196
Karnataka,Bijapur,Chadchan,75.6511,17.3111
Karnataka,Bijapur,Devanagao,76.3,17.1333
Karnataka,Bijapur,Maileswar A,76.3417,16.4667
Karnataka,Bijapur,Nebageri,76.1125,16.2833
Karnataka,Bijapur,Vibhutihalli,76.1833,17.1
Karnataka,Chikballapur,Chintamani,78.0554,13.4055
Karnataka,Chitradurga,Hartikote,76.649,14.071
Karnataka,Chitradurga,Hosadurga,76.133,13.862
Karnataka,Chitradurga,Maskallu,76.69,13.988
Karnataka,Dharwad,Morab,75.1588,15.5834
Karnataka,Gadag,Basavapur,75.8339,15.1958
Karnataka,Gadag,Hirekoppa(Alt To Chikkoppa),75.6519,15.4776
Karnataka,Gadag,Kalikeri(A),75.8367,15.1639
Karnataka,Gadag,Nargund,75.383,15.729
Karnataka,Haveri,Vadarayanahalli,75.7656,14.547
Karnataka,Kolar,Pethandahalli,78.5027,13.246
Karnataka,Raichur,Mustoor,77.017,16.313
Karnataka,Raichur,Bomanhal,76.334,16.072
Karnataka,Raichur,Hanchihal,76.668,15.239
Karnataka,Yadgir,Managinahal,77.037,16.7172
Karnataka,Kolar,Sangasandra,78.403,13.218
Karnataka,Tumkur,Badavanahalli,77.0642,13.6765
Karnataka,Tumkur,Madhugiri,77.209,13.665
Haryana,Ambala,Jansui Head,76.705,30.2057
Haryana,Ambala,Jandheri,76.6103,30.0933
Haryana,Bhiwani,Kalinga,76.3221,28.8737
Haryana,Bhiwani,Gokulpura,75.6581,28.6598
Haryana,Bhiwani,Patwan,75.6157,28.6231
Haryana,Bhiwani,Bapore,76.0638,28.823
Haryana,Faridabad,Ballabgarh,77.335,28.347
Haryana,Fatehabad,Sadalpur,75.4493,29.3126
Haryana,Fatehabad,Chabarwal,75.427,29.3537
Haryana,Fatehabad,Mehuwala,75.3278,29.4133
Haryana,Fatehabad,Bighar,75.4541,29.4466
Haryana,Fatehabad,Bangaon,75.4242,29.4493
Haryana,Fatehabad,Haroli,75.4631,29.6533
Haryana,Fatehabad,Inda Chhoi,75.7909,29.6371
Haryana,Fatehabad,Nagpur,75.4228,29.6417
Haryana,Gurugram,Kasan,76.9034,28.36
Haryana,Gurugram,Bhirawati,77.1442,28.224
Haryana,Hisar,Nangthala,75.7051,29.3283
Haryana,Hisar,Bass,74.8125,29.1136
Haryana,Hisar,Bir Hansi (Bir Farm),75.9778,29.1433
Haryana,Hisar,Raipur,75.8235,29.1423
Haryana,Hisar,Kharar-Alipur,75.717,29.1542
Haryana,Hisar,Kinnar,76.1315,29.3339
Haryana,Hisar,Sohu,75.8303,29.4911
Haryana,Jhajjar,Asoda Todran,76.8542,28.7597
Haryana,Jhajjar,Gabhana,76.8417,28.5708
Haryana,Jhajjar,Jhajjar,76.6603,28.5986
Haryana,Jind,Alewa,76.4521,29.4784
Haryana,Jind,Katwal,76.4511,29.5043
Haryana,Jind,Raichandwala,76.4174,29.3966
Haryana,Jind,Haibtatpur,76.3476,29.3369
Haryana,Jind,Jaipur,76.5838,29.3921
Haryana,Jind,Julani,76.2803,29.3882
Haryana,Jind,Kishanpura,76.3214,29.2956
Haryana,Jind,Lochab,76.43,29.3578
Haryana,Jind,Shahpur,76.3525,29.4011
Haryana,Jind,Jhamola,76.34,29.1404
Haryana,Jind,Kalwan,75.9831,29.6898
Haryana,Jind,Berikhera,76.5358,29.3868
Haryana,Jind,Pilukhera,76.4875,29.3361
Haryana,Jind,Bhuslana,76.7505,29.4524
Haryana,Jind,Rojhla,76.6025,29.3637
Haryana,Jind,Ghaso Kalan,76.434,29.354
Haryana,Jind,Ghaso Khurd(Repeted),76.1528,29.5236
Haryana,Jind,Khatkar,76.2429,29.4017
Haryana,Jind,Surbrah,76.071,29.4866
Haryana,Jind,Uchana,76.1877,29.4775
Haryana,Jind,Nimna Bad,76.6993,29.455
Haryana,Kaithal,Jadola,76.58,29.87
Haryana,Kaithal,Kaul,76.64,29.863
Haryana,Kaithal,Balbehra,76.3947,30.0253
Haryana,Kaithal,Balhera,76.6614,29.8472
Haryana,Kaithal,Bhunna,76.3191,29.9734
Haryana,Kaithal,Hemu Majra,76.2705,30.0459
Haryana,Kaithal,Majri,76.2342,29.9804
Haryana,Kaithal,Theh Banhera,76.4157,30.261
Haryana,Kaithal,Guhna,76.2606,29.7658
Haryana,Kaithal,Kaithal,76.4,29.73
Haryana,Kaithal,Kurar,76.5441,29.6547
Haryana,Kaithal,Manaspatti,76.3367,29.8173
Haryana,Kaithal,Mundri,76.5046,29.7773
Haryana,Kaithal,Padla,76.2874,29.8114
Haryana,Kaithal,Peoda,76.4166,29.7472
Haryana,Kaithal,Sisla Sismore,76.4821,29.7171
Haryana,Kaithal,Matour,76.2658,29.618
Haryana,Kaithal,Simla,76.2149,29.6348
Haryana,Kaithal,Barsana,76.5985,29.7171
Haryana,Kaithal,Bhana,76.5184,29.666
Haryana,Kaithal,Jajanpur,76.6066,29.905
Haryana,Kaithal,Jatheri,76.5539,29.7507
Haryana,Kaithal,Pai,76.5256,29.7009
Haryana,Kaithal,Pundri,76.5603,29.7769
Haryana,Kaithal,Sirsal,76.671,29.685
Haryana,Kaithal,Kithana,76.3931,29.5458
Haryana,Kaithal,Kithana (Repeated),76.3877,29.5467
Haryana,Kaithal,Rasulpur Ghamri,76.4,29.81
Haryana,Kaithal,Siwan,76.36,29.8751
Haryana,Karnal,Assandh Ruralpart,76.6298,29.5179
Haryana,Karnal,Chochra,76.68,29.63
Haryana,Karnal,Gangteri,76.48,29.48
Haryana,Karnal,Jabhala,76.66,29.56
Haryana,Karnal,Jalwana,76.71,29.59
Haryana,Karnal,Mund,76.5492,29.5203
Haryana,Karnal,Padha,76.7633,29.5825
Haryana,Karnal,Rattak,76.6286,29.5885
Haryana,Karnal,Kheri Naru,76.983,29.693
Haryana,Karnal,Kutail,77.0222,29.5861
Haryana,Karnal,Munak,76.8488,29.5215
Haryana,Karnal,Dhumsi,77.2995,30.1727
Haryana,Karnal,Indri,77.0558,29.8797
Haryana,Karnal,Islamnagar,77.1125,29.925
Haryana,Karnal,Nalvi Kalan,77.0981,29.7008
Haryana,Karnal,Newal,77.0467,29.7239
Haryana,Karnal,Amargarh,76.9874,29.8497
Haryana,Karnal,Gholpura,76.7904,29.8255
Haryana,Karnal,Karsadod,76.7096,29.8435
Haryana,Karnal,Majra Roran,76.7292,29.7875
Haryana,Karnal,Nilokheri,76.9309,29.8551
Haryana,Karnal,Smana Bahu,76.9134,29.9022
Haryana,Karnal,Sonkra,76.88,29.7847
Haryana,Karnal,Nissing,76.7932,29.6864
Haryana,Karnal,Amupur Chakda,76.7414,29.7739
Haryana,Karnal,Jundla,76.875,29.65
Haryana,Karnal,Hathlana,76.8455,29.6812
Haryana,Kurukshetra,Kirmach,76.7874,29.899
Haryana,Kurukshetra,Pabnawa,76.6582,29.8946
Haryana,Kurukshetra,Ban,77.07,29.99
Haryana,Kurukshetra,Isaque,76.4917,30.0167
Haryana,Kurukshetra,Pehowa,76.58,29.98
Haryana,Kurukshetra,Sandholi,76.6285,29.9571
Haryana,Kurukshetra,Thana,76.5083,29.9083
Haryana,Kurukshetra,Jandheri Part,76.9078,30.1483
Haryana,Kurukshetra,Jharauli Khurd,76.7878,30.1472
Haryana,Kurukshetra,Kumhar Mazra,76.6581,30.1431
Haryana,Kurukshetra,Sirsala,76.9308,30.0174
Haryana,Kurukshetra,Umri,76.9167,29.9167
Haryana,Mewat,Rawali,76.9335,27.706
Haryana,Mewat,Rojka Meo,77.063,28.211
Haryana,Mewat,(Buda) Dhudholi,77.217,27.829
Haryana,Mewat,Gulaltha,77.1792,27.9167
Haryana,Mewat,Didahra,76.956,28.2087
Haryana,Palwal,Bamnikhera,77.3417,28.0625
Haryana,Palwal,Dighaut,77.375,28.0375
Haryana,Palwal,Baghaula,77.308,28.221
Haryana,Panipat,Dahar,76.9717,29.3674
Haryana,Panipat,Khaila Majran,76.77,29.29
Haryana,Panipat,Puther,76.87,29.22
Haryana,Panipat,Atawala,76.7401,29.3321
Haryana,Panipat,Lohari,76.8389,29.3583
Haryana,Panipat,Mohamdinpur Thirana,76.8313,29.4112
Haryana,Panipat,Untala,76.85,29.3917
Haryana,Panipat,Urlana Kalan,76.6717,29.34
Haryana,Panipat,Panipat Taraf  Makhdumzadgan,76.9899,29.4089
Haryana,Panipat,Dakadla,77.0667,29.2236
Haryana,Panipat,Dehra,77.0687,29.2089
Haryana,Sirsa,Biruwala Gudha,75.0572,29.7059
Haryana,Sirsa,Maleri,75.114,29.7263
Haryana,Sirsa,Nagoki,75.1132,29.6529
Haryana,Sirsa,Phaggu,75.114,29.775
Haryana,Sirsa,Raghuana,74.9812,29.6991
Haryana,Sirsa,Sukhchain,75.027,29.786
Haryana,Sirsa,Chautala,74.5167,29.775
Haryana,Sirsa,Chormar,74.8417,29.7833
Haryana,Sirsa,Dabwali,74.7375,29.9542
Haryana,Sirsa,Goriwala,74.7083,29.7917
Haryana,Sirsa,Masitan,74.72,29.8861
Haryana,Sirsa,Rampura Bishnoian,74.7856,29.7692
Haryana,Sirsa,Rasaliya Khera,74.7667,29.7167
Haryana,Sirsa,Amritsar,74.7062,29.4991
Haryana,Sirsa,Naiwala,74.7619,29.5844
Haryana,Sirsa,Mithri,74.9833,29.85
Haryana,Sirsa,Bhamboor,74.9652,29.5082
Haryana,Sirsa,Bhoona,75.708,29.5381
Haryana,Sirsa,Dariawala,74.89,29.6161
Haryana,Sirsa,Mehna Khera,74.8125,29.4192
Haryana,Sirsa,Sri Jiwan Nagar,74.7417,29.5375
Haryana,Sirsa,Ding,75.2853,30.2019
Haryana,Sonipat,Bhanwar,76.9528,29.1568
Haryana,Sonipat,Khanpur,76.7956,29.1579
Haryana,Sonipat,Butana,76.625,29.1875
Haryana,Sonipat,Murthal,77.0846,29.0356
Haryana,Sonipat,Bohela,76.8561,29.0806
Haryana,Sonipat,Nahri,77.0376,28.8681
Punjab,Amritsar,Boparai Baj Singh,74.7393,31.6447
Punjab,Amritsar,Amritsar Urban-01,74.952,31.597
Punjab,Amritsar,Manawala,74.9691,31.6118
Punjab,Amritsar,Manawala,75.9656,31.6118
Punjab,Amritsar,Sarhala,75.1084,31.7399
Punjab,Amritsar,Raipur Kalan,75.0425,31.6565
Punjab,Amritsar,Amritsar Urban-06,74.8495,31.6571
Punjab,Amritsar,Amritsar Urban-07,74.8346,31.6315
Punjab,Amritsar,Amritsar Urban-14,74.9395,31.6697
Punjab,Amritsar,Mulla Behram (Attari),74.7385,31.5944
Punjab,Barnala,Barnala,75.5325,30.3592
Punjab,Barnala,Bhaini Mehraj,75.6825,30.2806
Punjab,Barnala,Dhaula,75.4631,30.2835
Punjab,Barnala,Dhurkot,75.4663,30.2419
Punjab,Barnala,Hamidi,75.6085,30.4697
Punjab,Barnala,Kot Duna,75.3228,30.1876
Punjab,Barnala,Sanghera,75.566,30.4101
Punjab,Barnala,Uppli,75.6069,30.3257
Punjab,Barnala,Gagewal,75.482,30.5927
Punjab,Barnala,Chananwal,75.4838,30.5049
Punjab,Barnala,Mehal Kalan,75.559,30.523
Punjab,Barnala,Bahadaur,75.324,30.475
Punjab,Barnala,Cheema,75.4557,30.4064
Punjab,Barnala,Chung,75.4106,30.4617
Punjab,Barnala,Dhilwan (Nabha),75.3864,30.3356
Punjab,Barnala,Mauran (Nabha),75.3801,30.3718
Punjab,Barnala,Sandhu Kalan,75.3195,30.4059
Punjab,Bathinda,Balluana,74.782,30.2236
Punjab,Bathinda,Ganga,74.835,30.362
Punjab,Bathinda,Gulabgarh,75,30.15
Punjab,Bathinda,Kot Shamir,75.0083,30.1125
Punjab,Bathinda,Nahianwala,74.9097,30.3056
Punjab,Bathinda,Kothaguru,75.0997,30.4336
Punjab,Bathinda,Jandanwala,75.259,29.8725
Punjab,Bathinda,Mehma Bhagwana,74.8162,3.2862
Punjab,Bathinda,Ghuman Khurd,75.2678,30.0943
Punjab,Bathinda,Ramgarh Bhundar,75.0949,30.0773
Punjab,Bathinda,Bhaini,75.1618,30.3441
Punjab,Bathinda,Bhucho Khurd,75.0492,30.2209
Punjab,Bathinda,Dial Pur Bhlaike,75.133,30.396
Punjab,Bathinda,Dial Pur Mirja,75.1167,30.4167
Punjab,Bathinda,Kalyan Sukhna,75.1156,30.3731
Punjab,Bathinda,Phulla,75.1333,30.0097
Punjab,Bathinda,Allike,75.331,30.3433
Punjab,Bathinda,Rampur Phull,75.1667,30.25
Punjab,Bathinda,Phul,75.2458,30.3375
Punjab,Bathinda,Dikh,75.27,30.1531
Punjab,Bathinda,Mansa Khurd,75.3857,29.9873
Punjab,Bathinda,Pirkot,75.3238,30.139
Punjab,Bathinda,Badiala,75.32,30.23
Punjab,Bathinda,Jhanduke,75.15,30.1639
Punjab,Bathinda,Chak Hira Singhwala Urf Pakka Khurd,74.8719,30.0052
Punjab,Bathinda,Ghudda,74.789,30.128
Punjab,Bathinda,Sangat Kalan,74.8417,30.0839
Punjab,Bathinda,Ram Tirath Jaga,75.1506,29.9517
Punjab,Bathinda,Raman,74.9613,29.968
Punjab,Bathinda,Bhagi Bandar,75.067,30.031
Punjab,Bathinda,Gurusar,75.092,29.993
Punjab,Bathinda,Maiser Khanna,75.5028,30.1528
Punjab,Faridkot,Bir Chahal,74.8166,30.6557
Punjab,Faridkot,Jand Sahib,74.527,30.69
Punjab,Faridkot,Kamiana,74.7318,30.6557
Punjab,Faridkot,Mumaru,74.656,30.708
Punjab,Faridkot,Pakka,74.8004,30.7065
Punjab,Faridkot,Tehna,74.4726,30.4121
Punjab,Faridkot,Sadiq,74.656,30.71
Punjab,Faridkot,Bargari,74.9455,30.5252
Punjab,Faridkot,Fatehgarh,74.9453,30.4059
Punjab,Faridkot,Gumti Khurd,74.8868,30.4159
Punjab,Faridkot,Madhak,74.7537,30.4588
Punjab,Faridkot,Romana Ajit Singh,75.0186,30.4016
Punjab,Faridkot,Dhimanwali,74.7374,30.5994
Punjab,Faridkot,Dhilwan Kalan,74.867,30.571
Punjab,Faridkot,Karir Wali,74.828,30.406
Punjab,Faridkot,Kauni,74.5406,30.7359
Punjab,Faridkot,Matta,74.5019,30.2858
Punjab,Faridkot,Nangal,74.8586,30.6661
Punjab,Faridkot,Wara Daraka,74.754,30.55
Punjab,Faridkot,Killi,74.483,30.841
Punjab,Fatehgarh Sahib,Ladpur,76.2639,30.6555
Punjab,Fatehgarh Sahib,Mandi Gobindgarh 2,76.2839,30.6683
Punjab,Fatehgarh Sahib,Tibbi,76.1539,30.5552
Punjab,Fatehgarh Sahib,Fatehgarh Sahib,76.4,30.65
Punjab,Fatehgarh Sahib,Mirpur,76.4204,30.651
Punjab,Fatehgarh Sahib,Chanarthal Khurd,76.3476,30.5306
Punjab,Fatehgarh Sahib,Hallo Tali,76.4321,30.4608
Punjab,Fatehgarh Sahib,Lataur,76.4301,30.5397
Punjab,Fatehgarh Sahib,Mandi Gobindgarh 6,76.3194,30.6434
Punjab,Fatehgarh Sahib,Nalini,76.5081,31.0244
Punjab,Fazilka,Baluana,74.3108,30.1728
Punjab,Fazilka,Dhaban Kokaryan,74.327,30.122
Punjab,Fazilka,Khatwa,74.1839,30.283
Punjab,Fazilka,Kikar Khera,74.1664,30.0798
Punjab,Fazilka,Sitogano,74.3602,30.029
Punjab,Fazilka,Dhabwala Kalan,74.2525,30.3317
Punjab,Fazilka,Jandwala Bhimeshah,74.4058,30.6409
Punjab,Fazilka,Deepulana,74.099,30.453
Punjab,Fazilka,Fazilka,74.032,30.3948
Punjab,Fazilka,Kauranwali,74.056,30.383
Punjab,Fazilka,Khatwan,74.1798,30.0104
Punjab,Fazilka,Kirianwala,74.1503,30.4898
Punjab,Fazilka,Bahadar Ke,74.3281,30.7729
Punjab,Fazilka,Nathu Chishti,74.2298,30.6463
Punjab,Fazilka,Chak Mochanwala,74.1534,30.5459
Punjab,Fazilka,Chak Panj Kohi,74.2922,30.5189
Punjab,Fazilka,Hauj Alias Gander,74.1615,30.4746
Punjab,Fazilka,Jalalabad,74.2542,30.6104
Punjab,Fazilka,Jamal Ke,74.1027,30.5327
Punjab,Fazilka,Mohar Singhwala Hithar,74.1793,30.5898
Punjab,Fazilka,Mottiwala,74.3556,30.7125
Punjab,Fazilka,Noore Ke Uttar,74.2799,30.6809
Punjab,Fazilka,Swahwala,74.3009,30.6007
Punjab,Fazilka,Khuiyan Serovar,74.078,30.113
Punjab,Ferozepur,Ghiniwala,74.5846,30.9063
Punjab,Ferozepur,Jaimal Singh Wala,74.342,30.058
Punjab,Ferozepur,Jhokharihar,74.611,30.862
Punjab,Ferozepur,Moharewala,74.5849,30.8287
Punjab,Ferozepur,Piarana,74.4311,30.5304
Punjab,Ferozepur,Hastewala,74.6918,30.979
Punjab,Ferozepur,Lalleh,74.8948,30.8423
Punjab,Ferozepur,Malwal,74.6768,30.3091
Punjab,Ferozepur,Mohkamwala,74.8199,30.8935
Punjab,Ferozepur,Shakoor,74.7575,30.834
Punjab,Ferozepur,Ugoke,74.753,30.9034
Punjab,Ferozepur,Yare Shahwala,74.7258,30.9758
Punjab,Ferozepur,Guru Har Sahai,74.3998,30.7113
Punjab,Ferozepur,Ghangakhala,74.3385,30.5753
Punjab,Ferozepur,Mallanwala,74.7536,30.7793
Punjab,Ferozepur,Lauke Kalan,74.846,31.06
Punjab,Ferozepur,Ahmad Dhandi,74.3777,30.7776
Punjab,Ferozepur,Bharoli Bham,74.5208,30.8424
Punjab,Ferozepur,Chak Kando Shah,74.3916,30.7575
Punjab,Ferozepur,Malsian,74.241,30.483
Punjab,Ferozepur,Bharana,74.8227,30.9722
Punjab,Ferozepur,Botianwala,74.9515,30.9898
Punjab,Ferozepur,Buianwala,74.8839,30.9077
Punjab,Ferozepur,Lohke Khurd,74.8886,31.0187
Punjab,Ferozepur,Longe Deva,75.0153,30.9002
Punjab,Ferozepur,Mansurwal,74.9818,30.9271
Punjab,Ferozepur,Sher Singhwala,75.0258,30.9759
Punjab,Gurdaspur,Madipur,74.9423,31.8279
Punjab,Hoshiarpur,Chohal,75.972,31.611
Punjab,Jalandhar,Jalbhe,75.786,31.47
Punjab,Jalandhar,Gehlar,75.6807,31.5407
Punjab,Jalandhar,Budhiana,75.6809,31.3608
Punjab,Jalandhar,Kara Ramsinhg,75.1728,31.1628
Punjab,Jalandhar,Kotha,75.2045,31.1099
Punjab,Jalandhar,Nurmahal,75.5837,31.0871
Punjab,Jalandhar,Pasla,75.6856,31.103
Punjab,Jalandhar,Langewal,75.3329,31.0371
Punjab,Jalandhar,Lasuri,75.2736,31.1018
Punjab,Jalandhar,Malsian,75.3556,31.1344
Punjab,Kapurthala,Fatehgarh,75.8244,31.2448
Punjab,Kapurthala,Sultanpur Lodhi,75.2028,31.2093
Punjab,Ludhiana,Gopalpura,75.8417,30.7375
Punjab,Ludhiana,Akhara,75.488,30.7422
Punjab,Ludhiana,Hans Kalan,75.56,30.7544
Punjab,Ludhiana,Mallah,75.4015,30.6862
Punjab,Ludhiana,Rasulpur,75.394,30.699
Punjab,Ludhiana,Mahawan,76.2666,30.7159
Punjab,Ludhiana,Jandali,76.0391,30.6537
Punjab,Ludhiana,Ramgarh Sardaran,75.9073,30.6401
Punjab,Ludhiana,Siahar,75.9161,30.6883
Punjab,Ludhiana,Jatpura,75.5,30.6789
Punjab,Ludhiana,Talwandi Rai,75.5715,30.6997
Punjab,Mansa,Aklia,75.4094,30.1833
Punjab,Mansa,Kotra Kalan,75.493,30.055
Punjab,Mansa,Boha,75.5206,29.8338
Punjab,Mansa,Juglan,75.6985,29.8277
Punjab,Mansa,Saswali,75.6121,29.8294
Punjab,Mansa,Dialpura,75.665,29.893
Punjab,Mansa,Kot Dharmu,75.461,29.908
Punjab,Mansa,Budhlada,75.542,29.93
Punjab,Mansa,Dalelwala,75.4169,29.8283
Punjab,Mansa,Bhikhi,75.5431,30.1125
Punjab,Mansa,Burj Rathi,75.3419,30.0786
Punjab,Mansa,Jawaharke,75.4045,29.9676
Punjab,Mansa,Khiala Khurd,75.4382,30.0443
Punjab,Mansa,Khokhar Kalan,75.3464,3.0217
Punjab,Mansa,Kvk Mansa,75.3446,30.0011
Punjab,Mansa,Mansa,75.3857,29.9873
Punjab,Mansa,Mansa Khurd,75.4136,3.009
Punjab,Mansa,Nangal Khurd,75.3788,29.9369
Punjab,Mansa,Adamke,75.3255,29.7112
Punjab,Mansa,Fatta Maluka,75.2833,29.8
Punjab,Moga,Sekh Kalan,75.0043,30.5883
Punjab,Moga,Ghal Kalan,75.102,30.8174
Punjab,Moga,Budh Singh Wala,75.077,30.618
Punjab,Moga,Dhilwanwala,75.1132,30.5311
Punjab,Moga,Malke,74.9689,30.5766
Punjab,Moga,Sukha Nand,75.0566,30.5273
Punjab,Moga,Jalalabad,75.2327,30.9051
Punjab,Moga,Jindra,75.3175,30.975
Punjab,Moga,Randiala,75.0999,30.9209
Punjab,Moga,Chougawan,75.269,30.836
Punjab,Moga,Darapur,74.9589,30.8414
Punjab,Moga,Dala,75.2471,30.7731
Punjab,Moga,Daudhar Sharki,75.3334,30.7302
Punjab,Moga,Dhudike,75.3431,30.7783
Punjab,Moga,Kokri Kalan,75.3309,30.8451
Punjab,Moga,Dagru,75.026,30.824
Punjab,Moga,Jai Singh Wala,75.072,30.728
Punjab,Moga,Nihal Singh Wala,75.2783,30.5933
Punjab,Moga,Dina,75.2362,30.5173
Punjab,Moga,Himatpura,75.3633,30.5308
Punjab,Moga,Kishangarh,75.1944,30.524
Punjab,Moga,Minian,75.3527,30.6417
Punjab,Moga,Patto Hirasingh,75.2423,30.5951
Punjab,Moga,Rama,75.3829,30.6082
Punjab,Moga,Takhtupura,75.3353,30.5827
Punjab,Muktsar,Baddian,74.5512,30.2896
Punjab,Muktsar,Dhaula,74.7008,30.2069
Punjab,Muktsar,Giljewala,74.589,30.3438
Punjab,Muktsar,Gurusar,74.5892,30.2725
Punjab,Muktsar,Jandwala Charat Singh,74.5288,30.2145
Punjab,Muktsar,Jhorar,74.4875,30.2799
Punjab,Muktsar,Kabarwala,74.41,30.193
Punjab,Muktsar,Khandehalal,74.403,30.364
Punjab,Muktsar,Rathrian,74.5315,30.1575
Punjab,Muktsar,Bura Gujjar,74.5309,30.5313
Punjab,Muktsar,Dohak,74.6031,30.6281
Punjab,Muktsar,Khokhar,74.6803,30.4866
Punjab,Muktsar,Labanianwali,74.3253,30.3509
Punjab,Muktsar,Madahar Kalan,74.6783,30.5499
Punjab,Muktsar,Mahan Bhaddar,74.4428,30.413
Punjab,Muktsar,Thandewala,74.5882,30.4731
Punjab,Muktsar,Sheranwali,74.4644,30.0317
Punjab,Nawanshahr,Julah Majra,76.0273,31.0293
Punjab,Nawanshahr,Bahlloor Kalan,76.1563,31.0178
Punjab,Patiala,Kheri Raju Singh,76.4817,30.1562
Punjab,Patiala,Naraingarh Basawa,76.5625,30.145
Punjab,Patiala,Alamdipur,76.5613,30.3476
Punjab,Patiala,Lohakheri,76.586,30.409
Punjab,Patiala,Kalyan,76.3031,30.3558
Punjab,Patiala,Mangewal,76.2044,30.4789
Punjab,Patiala,Rajgarh,76.7322,30.4156
Punjab,Patiala,Sangat Pura Panki,76.2258,30.3425
Punjab,Patiala,Siri Nagar,76.1997,30.5262
Punjab,Patiala,Bir Kauli,76.514,30.414
Punjab,Patiala,Faridpur,76.4257,30.4095
Punjab,Patiala,Ranbirpura,76.3239,30.328
Punjab,Patiala,Kalbano,76.1354,30.004
Punjab,Patiala,Patran,76.0528,29.9539
Punjab,Patiala,Khanpur Gahrian,76.194,30.2126
Punjab,Patiala,Balbhera,76.3585,30.1579
Punjab,Patiala,Ballaan,76.5055,30.2769
Punjab,Patiala,Budhanpur,76.4867,30.3442
Punjab,Patiala,Main,76.3425,30.2709
Punjab,Patiala,Mardan Heri,76.2054,30.0563
Punjab,Rupnagar,Dhanaula,76.339,30.8525
Punjab,Rupnagar,Dumewal,76.417,31.208
Punjab,Sangrur,Bhulan,76.01,29.763
Punjab,Sangrur,Bhuraj,76.0445,30.2356
Punjab,Sangrur,Jhuneri,75.9775,30.2165
Punjab,Sangrur,Benra,75.848,30.338
Punjab,Sangrur,Burj Gohra,75.9799,30.4151
Punjab,Sangrur,Hassanpur,75.7548,30.3412
Punjab,Sangrur,Ratolan,75.9031,30.0862
Punjab,Sangrur,Shafipur Khurd,76.0603,30.0906
Punjab,Sangrur,Chural Kalan,75.8,29.819
Punjab,Sangrur,Bhutal Kalan,75.8732,29.9102
Punjab,Sangrur,Lehragaga,75.8185,29.9382
Punjab,Sangrur,Bahini Kalan,75.908,30.4674
Punjab,Sangrur,Moranwali,75.9807,30.5878
Punjab,Sangrur,Narike,75.9671,30.5212
Punjab,Sangrur,Jhuner,75.77,30.5894
Punjab,Sangrur,Phalaud Kalan,75.8972,30.5956
Punjab,Sangrur,Malerkotla,75.8983,30.5292
Punjab,Sangrur,Manvi,76.0219,30.3719
Punjab,Sangrur,Badru Khan,75.7971,30.2507
Punjab,Sangrur,Balian,75.6332,30.2769
Punjab,Sangrur,Illwal,75.89,30.208
Punjab,Sangrur,Loha Khera,75.6315,30.2173
Punjab,Sangrur,Sangrur Ow,75.8412,30.2565
Punjab,Sangrur,Togawal,75.6095,30.158
Punjab,Sangrur,Gobindpura,75.6892,30.4564
Punjab,Sangrur,Ina Bajwa,75.6952,30.4163
Punjab,Sangrur,Chhahar,75.9042,30.029
Punjab,Sangrur,Chhajli,75.826,30.0314
Punjab,Sangrur,Hambalwas,75.7358,30.0618
Punjab,Sangrur,Kamalpur,76.0449,30.116
Punjab,Sangrur,Ramgarh Jawanda,75.8467,30.0787
Punjab,Sangrur,Sheron,75.7178,30.1579
Punjab,Sangrur,Sunam,76.3539,30.6097
Punjab,Tarn Taran,Bhikhiwind,74.7,31.35
Punjab,Tarn Taran,Dialpura,74.7414,31.3086
Punjab,Tarn Taran,Sohawa,74.9731,31.2841
Punjab,Tarn Taran,Lalpur,75.016,31.3996
Punjab,Tarn Taran,Barwala,74.803,31.224
Punjab,Tarn Taran,Lauka,74.8756,31.3556
Punjab,Tarn Taran,Nathupur Toda,74.9012,31.2906
Punjab,Tarn Taran,Khemkaran,74.5649,31.1459
Andhra Pradesh,Anakapalli,Narsipatnam,82.5956,17.6761
Andhra Pradesh,Ananthapur,Kalyandurg-Alt,77.1071,14.5483
Andhra Pradesh,Ananthapur,Gonchireddi Palli,77.0173,14.592
Andhra Pradesh,Ananthapur,Egudur,77.94,14.97
Andhra Pradesh,Ananthapur,Donnimukkala,77.3961,15.1277
Andhra Pradesh,Ananthapur,Regadikotturu,77.6233,14.7664
Andhra Pradesh,Annamayya,Kandukuru,78.1604,13.761
Andhra Pradesh,Annamayya,Papireddygaripalli,78.7309,13.7867
Andhra Pradesh,Annamayya,Papireddygaripalli,78.7333,13.7528
Andhra Pradesh,Bapatla,Pullaripalem,80.3247,15.74
Andhra Pradesh,Chittoor,Chittoor,79.0981,13.2075
Andhra Pradesh,Chittoor,Muddu Ramapuram,78.9941,13.1077
Andhra Pradesh,Chittoor,Arumakapally,79.2871,13.3033
Andhra Pradesh,Chittoor,M.Bandapally,79.1202,13.3038
Andhra Pradesh,Chittoor,Ugranam Pally,79.186,13.3266
Andhra Pradesh,Chittoor,Penumuru,79.1955,13.3647
Andhra Pradesh,Chittoor,Chittipirala,79.1209,13.4171
Andhra Pradesh,Chittoor,Mordanapally,79.0345,13.1909
Andhra Pradesh,Chittoor,Gollakandrika,79.696,13.3234
Andhra Pradesh,Chittoor,Yadamari,79.0383,13.1605
Andhra Pradesh,Chittoor,Govardhanagiri,78.8914,13.1629
Andhra Pradesh,Chittoor,Govardhanagiri,78.8914,13.163
Andhra Pradesh,Chittoor,Nangamangalam,79.1832,13.0412
Andhra Pradesh,Chittoor,Gundlurivaripalle,78.898,13.5544
Andhra Pradesh,Chittoor,Gundlurivaripalle,78.898,13.5544
Andhra Pradesh,Chittoor,Burujupalle,78.7858,13.5297
Andhra Pradesh,Chittoor,Burujupalle,78.7858,13.5295
Andhra Pradesh,Chittoor,Somala,78.8106,13.4769
Andhra Pradesh,Chittoor,Kondakindapalli,79.2789,13.3831
Andhra Pradesh,Chittoor,Netteri (Kaipakkam),79.668,13.3429
Andhra Pradesh,Chittoor,Pothurajugunta,79.3389,13.1514
Andhra Pradesh,Chittoor,Dhandikuppam,78.4435,12.8681
Andhra Pradesh,Chittoor,Mekalanagireddypally,78.6476,13.094
Andhra Pradesh,East Godavari,Lakshmipuram,81.0484,17.7197
Andhra Pradesh,Eluru,Kopparagudem (Upparagudem),81.1741,16.4083
Andhra Pradesh,Eluru,Palevada,81.2867,16.5794
Andhra Pradesh,Eluru,Bomminampadu,81.2171,16.4735
Andhra Pradesh,Eluru,Majeru,81.0205,16.1287
Andhra Pradesh,Eluru,Bominampadu,81.2117,16.4789
Andhra Pradesh,Guntur,Guntur,80.4319,16.2986
Andhra Pradesh,Guntur,Chebrolu,80.5258,16.1996
Andhra Pradesh,Guntur,Prattipadu,80.3318,16.1803
Andhra Pradesh,Guntur,Ponnekallu,80.4022,16.4043
Andhra Pradesh,Guntur,Kollipara,80.7496,16.2866
Andhra Pradesh,Kakinada,Anjaneyanagar,82.2482,17.0094
Andhra Pradesh,Konaseema,Muramalla,82.165,16.6728
Andhra Pradesh,Konaseema,Kothapeta,81.8964,16.7159
Andhra Pradesh,Konaseema,Mummidivaram,82.1014,16.6442
Andhra Pradesh,Krishna,Angaluru,81.0343,16.3819
Andhra Pradesh,Krishna,Gudur,81.0849,16.2201
Andhra Pradesh,Krishna,Chinnapuram,81.0469,16.1206
Andhra Pradesh,Kurnool,Veldurthy,77.9269,15.5531
Andhra Pradesh,Kurnool,Naganathanahalli,77.2221,15.5607
Andhra Pradesh,Kurnool,Gudur-Pz -Wt,77.8074,15.7726
Andhra Pradesh,Kurnool,Gulyam,76.8355,15.3837
Andhra Pradesh,Nandyal,Battulur,78.5058,15.2452
Andhra Pradesh,Nellore,Sunnapubatti,79.9738,14.6817
Andhra Pradesh,Nellore,Muthukuru1,80.0947,14.2901
Andhra Pradesh,Nellore,Ramathirdam,80.1429,14.6399
Andhra Pradesh,Nellore,Kondapuram,79.6821,14.9923
Andhra Pradesh,Nellore,Tatiparthi-Alt,79.7661,14.5179
Andhra Pradesh,Nellore,Kaligiri,79.6965,14.8287
Andhra Pradesh,Nellore,Nellore,79.9642,14.4366
Andhra Pradesh,Nellore,Aduripalli,79.6046,14.4426
Andhra Pradesh,Nellore,Nagulavellaturu,79.5195,14.4942
Andhra Pradesh,Nellore,Bodipadu,79.575,14.5164
Andhra Pradesh,Nellore,Karatamoadu,79.5385,14.6795
Andhra Pradesh,Nellore,Vasili,79.6727,14.617
Andhra Pradesh,Nellore,Isakapalli,80.0968,14.7334
Andhra Pradesh,Nellore,Vadlapudi,79.7792,14.3031
Andhra Pradesh,Nellore,Kandukur,79.9115,15.2185
Andhra Pradesh,Nellore,Chagollu,80.0065,15.1169
Andhra Pradesh,Nellore,Malakonda,79.6387,15.1152
Andhra Pradesh,Nellore,Alluru,80.0497,14.6711
Andhra Pradesh,Nellore,Mutukuru,80.09,14.2957
Andhra Pradesh,Nellore,Althurthy,79.6923,14.4427
Andhra Pradesh,Nellore,Gattupalle,79.865,14.9105
Andhra Pradesh,Nellore,Bhimavarapupadu,79.7765,15.0205
Andhra Pradesh,Nellore,Boyila Chiruvella,79.5606,14.6799
Andhra Pradesh,Nellore,Somalaregada,79.3668,14.8582
Andhra Pradesh,Nellore,Bata (Naginenigunta Gp),79.2191,14.7178
Andhra Pradesh,Nellore,Pallavolu,79.3597,14.6447
Andhra Pradesh,Nellore,Chintalapalem,79.5518,14.7684
Andhra Pradesh,Nellore,Peddareddipalli,79.2903,15.0631
Andhra Pradesh,Nellore,Rapuru,79.5621,14.1992
Andhra Pradesh,Nellore,Bhyravaram,79.4569,14.7746
Andhra Pradesh,Ntr,Mailavaram,80.6393,16.7527
Andhra Pradesh,Ntr,Vissannapet-New,80.7835,16.942
Andhra Pradesh,Palnadu,Zupudi,80.2572,16.5661
Andhra Pradesh,Palnadu,Pisapadu,80.1431,16.4979
Andhra Pradesh,Palnadu,Timmapuram,80.2048,16.1491
Andhra Pradesh,Palnadu,Narakullapadu,80.3663,16.5329
Andhra Pradesh,Palnadu,Maddirala,80.0909,16.0947
Andhra Pradesh,Palnadu,Sankurathri Padu,80.209,16.2506
Andhra Pradesh,Palnadu,Chagallu Ew,80.0259,16.369
Andhra Pradesh,Parvathipuram Manyam,Chilakalapalli,83.5333,18.593
Andhra Pradesh,Prakasham,Venkupalem,79.7413,15.3029
Andhra Pradesh,Prakasham,Muttarasupalem,79.8408,15.2486
Andhra Pradesh,Prakasham,Uyyalavada,78.8953,15.2133
Andhra Pradesh,Prakasham,Nandanavanam,79.2733,15.4669
Andhra Pradesh,Prakasham,Kondepi,79.8681,15.4133
Andhra Pradesh,Prakasham,Guntu Palle,79.5308,15.1504
Andhra Pradesh,Prakasham,Ravipadu,79.153,15.5739
Andhra Pradesh,Prakasham,Y.Cherlopalle,78.9589,15.8779
Andhra Pradesh,Prakasham,Kolabhimunipadu,79.2026,15.7565
Andhra Pradesh,Prakasham,Akiveedu (Kothuru),78.9371,15.5904
Andhra Pradesh,Sri Satya Sai,Penukonda-Pz,77.597,14.0865
Andhra Pradesh,Sri Satya Sai,Dodagatta,77.3711,14.0283
Andhra Pradesh,Srikakulam,Haripuram,84.5055,18.8455
Andhra Pradesh,Srikakulam,Gollasaradi,84.4514,18.7362
Andhra Pradesh,Tirupathi,Durgaraja- Patnam,80.1564,13.9786
Andhra Pradesh,Tirupathi,Aravapalem,80.0384,13.9305
Andhra Pradesh,Tirupathi,Tikkavaram,79.9585,14.1211
Andhra Pradesh,Tirupathi,Brahmana Puduru Agraharam,79.9268,13.899
Andhra Pradesh,Tirupathi,Tallampadu,79.9503,13.7281
Andhra Pradesh,Tirupathi,Erpedu1,79.594,13.6972
Andhra Pradesh,Tirupathi,Baita Kodiam Bedu,79.8143,13.3695
Andhra Pradesh,Tirupathi,Valivedu,79.0762,13.5272
Andhra Pradesh,Tirupathi,Madalli,79.9572,14.0412
Andhra Pradesh,Tirupathi,Ojilli,79.9068,14.002
Andhra Pradesh,Visakhapatnam,Gurrampalem,83.2152,17.8417
Andhra Pradesh,Ysr Kadapa,Chowkpalli,78.924,14.8948
Andhra Pradesh,Ysr Kadapa,Chowdariwaripalli,78.9521,14.832
Andhra Pradesh,Ysr Kadapa,Donkapalli Satram,78.1463,14.7315
Andhra Pradesh,Ysr Kadapa,Jammalamadugu,78.3879,14.8523
Andhra Pradesh,Ysr Kadapa,"Salabad,Vontimitta",79.0475,14.3929
Andhra Pradesh,Ysr Kadapa,Unknown,78.9788,14.7931
Andhra Pradesh,Ysr Kadapa,Prabhalaveedu,79.0091,14.7926
Andhra Pradesh,Ysr Kadapa,"Mallampet,",79.0877,14.3236
Telangana,Adilabad,Kamatwada,78.3914,19.796
Telangana,Adilabad,Chandur2,78.7835,19.4468
Telangana,B.Kothagudem,Manuguru,80.8189,17.9365
Telangana,B.Kothagudem,Karakagudem,80.5714,18.0403
Telangana,B.Kothagudem,Bittu Thanda1,80.5063,17.4643
Telangana,B.Kothagudem,Bittu Thanda2,80.5063,17.4643
Telangana,Hanamkonda,Kothakonda1,79.3267,18.0428
Telangana,Hanamkonda,Warangal,79.5905,17.9881
Telangana,Jagtial,Kothapet,79.1953,18.778
Telangana,Jagtial,Medipally  Pz,78.8051,18.8004
Telangana,Jangaon,Devrupala 1,79.3561,17.5377
Telangana,Kamareddy,Pitlam,77.8505,18.3206
Telangana,Khammam,Madira1,80.3648,16.9245
Telangana,Khammam,Konijarla,80.294,17.2235
Telangana,Khammam,Annarugudem,80.4263,17.2604
Telangana,Khammam,Sitarampuram,80.6426,17.2008
Telangana,Khammam,Kondrupadu1,80.689,17.1549
Telangana,Khammam,K.M Banjara (Telagavaram),80.6583,17.14
Telangana,Khammam,Nuthankal,80.4816,17.2017
Telangana,Khammam,Pedda Pocharam1,79.9443,17.2778
Telangana,Khammam,Remidicherla2,80.4916,16.806
Telangana,Khammam,Pedda Pocharam2,79.9444,17.278
Telangana,Mahabubabad,Thanda Dharmaram,79.9651,17.4331
Telangana,Mahabubnagar,Kandur-Aq-I,77.96,16.5567
Telangana,Mancherial,Luxetipeth,79.2048,18.8924
Telangana,Medak,Narsapur,78.2746,17.7524
Telangana,Nagarkurnool,Jupally- Aq-I,78.6031,16.6592
Telangana,Nalgonda,Antampet-Pz-Ii,78.8917,17.0323
Telangana,Nalgonda,Kurumapalli Aq-I,78.7949,16.8869
Telangana,Nirmal,Mudhol,77.9157,18.9793
Telangana,Sangareddy,Nizampet,77.8844,18.0955
Telangana,Sangareddy,Nizampet,77.8773,18.0941
Telangana,Siddipet,Gonepalli,78.9327,18.1276
Telangana,Suryapet,Munagala,79.8339,17.053
Telangana,Suryapet,Arvepally-Pz,79.5171,17.3349
Telangana,Suryapet,Pillalamarri,79.5822,17.1698
Telangana,Wanaparthy,Ramanpadu,77.8636,16.3592
Telangana,Yadadri Bhuvanagiri,Mariyala,78.8114,17.5678
Delhi,North,Auchandi,76.9972,28.8194
Delhi,West,Bapraula,77.0167,28.65
Delhi,North,Bawana Je Store,77.03,28.7869
Delhi,North,Hareoli,77.0083,28.8319
Delhi,South East,Jahapanah Park,77.2333,28.5389
Delhi,South,Jaunapur,77.15,28.4681
Delhi,South West,Jharoda Kalan,76.9556,28.6417
Delhi,North West,Kanjhawala,77,28.725
Delhi,North West,Nizampur,76.9667,28.7194
Delhi,North West,Nizampur Mandir Dw,76.9636,28.72
Delhi,South West,Surheda,76.9322,28.6039
Madhya Pradesh,Chhatarpur,Niwari1,79.6514,24.9964
Madhya Pradesh,Datia,Ruduapura,78.501,25.778
Madhya Pradesh,Gwalior,Dongarpur,77.964,25.822
Madhya Pradesh,Gwalior,Makoda,78.256,26.036
Madhya Pradesh,Gwalior,Ghantigaon,77.9333,26.05
Odisha,Anugul,Bhogabereni,85.21389,20.89167
Odisha,Balangir,Kurul,83.52528,20.66778
Odisha,Bargarh,Sohela 1,83.39806,21.29444
